STATE,POSTCODE,SUBURB,ELECTORATE,NAME,EMAIL,,,,,,,,,,,,,,
WA,6375,ADAMSVALE,O'Connor,Mr Rick Wilson MP,rick.wilson.mp@aph.gov.au,,,,,,,,,,,,,,
WA,6330,ALBANY,O'Connor,Mr Rick Wilson MP,rick.wilson.mp@aph.gov.au,,,,,,,,,,,,,,
WA,6306,ALDERSYDE,O'Connor,Mr Rick Wilson MP,rick.wilson.mp@aph.gov.au,,,,,,,,,,,,,,
WA,6225,ALLANSON,O'Connor,Mr Rick Wilson MP,rick.wilson.mp@aph.gov.au,,,,,,,,,,,,,,
WA,6338,AMELUP,O'Connor,Mr Rick Wilson MP,rick.wilson.mp@aph.gov.au,,,,,,,,,,,,,,
WA,6419,ARDATH,O'Connor,Mr Rick Wilson MP,rick.wilson.mp@aph.gov.au,,,,,,,,,,,,,,
WA,6315,ARTHUR RIVER,O'Connor,Mr Rick Wilson MP,rick.wilson.mp@aph.gov.au,,,,,,,,,,,,,,
WA,6412,BAANDEE,O'Connor,Mr Rick Wilson MP,rick.wilson.mp@aph.gov.au,,,,,,,,,,,,,,
WA,6428,BABAKIN,O'Connor,Mr Rick Wilson MP,rick.wilson.mp@aph.gov.au,,,,,,,,,,,,,,
WA,6317,BADGEBUP,O'Connor,Mr Rick Wilson MP,rick.wilson.mp@aph.gov.au,,,,,,,,,,,,,,
WA,6475,BADGERIN ROCK,O'Connor,Mr Rick Wilson MP,rick.wilson.mp@aph.gov.au,,,,,,,,,,,,,,
WA,6383,BADJALING,O'Connor,Mr Rick Wilson MP,rick.wilson.mp@aph.gov.au,,,,,,,,,,,,,,
WA,6258,BALBARRUP,O'Connor,Mr Rick Wilson MP,rick.wilson.mp@aph.gov.au,,,,,,,,,,,,,,
WA,6383,BALKULING,O'Connor,Mr Rick Wilson MP,rick.wilson.mp@aph.gov.au,,,,,,,,,,,,,,
WA,6443,BALLADONIA,O'Connor,Mr Rick Wilson MP,rick.wilson.mp@aph.gov.au,,,,,,,,,,,,,,
WA,6315,BALLAYING,O'Connor,Mr Rick Wilson MP,rick.wilson.mp@aph.gov.au,,,,,,,,,,,,,,
WA,6304,BALLY BALLY,O'Connor,Mr Rick Wilson MP,rick.wilson.mp@aph.gov.au,,,,,,,,,,,,,,
WA,6450,BANDY CREEK,O'Connor,Mr Rick Wilson MP,rick.wilson.mp@aph.gov.au,,,,,,,,,,,,,,
WA,6440,BANDYA,O'Connor,Mr Rick Wilson MP,rick.wilson.mp@aph.gov.au,,,,,,,,,,,,,,
WA,6390,BANNISTER,O'Connor,Mr Rick Wilson MP,rick.wilson.mp@aph.gov.au,,,,,,,,,,,,,,
WA,6479,BARBALIN,O'Connor,Mr Rick Wilson MP,rick.wilson.mp@aph.gov.au,,,,,,,,,,,,,,
WA,6275,BARRABUP,O'Connor,Mr Rick Wilson MP,rick.wilson.mp@aph.gov.au,,,,,,,,,,,,,,
WA,6330,BAYONET HEAD,O'Connor,Mr Rick Wilson MP,rick.wilson.mp@aph.gov.au,,,,,,,,,,,,,,
WA,6472,BEACON,O'Connor,Mr Rick Wilson MP,rick.wilson.mp@aph.gov.au,,,,,,,,,,,,,,
WA,6440,BEADELL,O'Connor,Mr Rick Wilson MP,rick.wilson.mp@aph.gov.au,,,,,,,,,,,,,,
WA,6394,BEAUFORT RIVER,O'Connor,Mr Rick Wilson MP,rick.wilson.mp@aph.gov.au,,,,,,,,,,,,,,
WA,6450,BEAUMONT,O'Connor,Mr Rick Wilson MP,rick.wilson.mp@aph.gov.au,,,,,,,,,,,,,,
WA,6260,BEEDELUP,O'Connor,Mr Rick Wilson MP,rick.wilson.mp@aph.gov.au,,,,,,,,,,,,,,
WA,6353,BEENONG,O'Connor,Mr Rick Wilson MP,rick.wilson.mp@aph.gov.au,,,,,,,,,,,,,,
WA,6477,BENCUBBIN,O'Connor,Mr Rick Wilson MP,rick.wilson.mp@aph.gov.au,,,,,,,,,,,,,,
WA,6463,BENJABERRING,O'Connor,Mr Rick Wilson MP,rick.wilson.mp@aph.gov.au,,,,,,,,,,,,,,
WA,6255,BENJINUP,O'Connor,Mr Rick Wilson MP,rick.wilson.mp@aph.gov.au,,,,,,,,,,,,,,
WA,6304,BEVERLEY,O'Connor,Mr Rick Wilson MP,rick.wilson.mp@aph.gov.au,,,,,,,,,,,,,,
WA,6260,BIDDELIA,O'Connor,Mr Rick Wilson MP,rick.wilson.mp@aph.gov.au,,,,,,,,,,,,,,
WA,6330,BIG GROVE,O'Connor,Mr Rick Wilson MP,rick.wilson.mp@aph.gov.au,,,,,,,,,,,,,,
WA,6375,BILBARIN,O'Connor,Mr Rick Wilson MP,rick.wilson.mp@aph.gov.au,,,,,,,,,,,,,,
WA,6472,BIMBIJY,O'Connor,Mr Rick Wilson MP,rick.wilson.mp@aph.gov.au,,,,,,,,,,,,,,
WA,6430,BINDULI,O'Connor,Mr Rick Wilson MP,rick.wilson.mp@aph.gov.au,,,,,,,,,,,,,,
WA,6320,BOBALONG,O'Connor,Mr Rick Wilson MP,rick.wilson.mp@aph.gov.au,,,,,,,,,,,,,,
WA,6424,BODALLIN,O'Connor,Mr Rick Wilson MP,rick.wilson.mp@aph.gov.au,,,,,,,,,,,,,,
WA,6390,BODDINGTON,O'Connor,Mr Rick Wilson MP,rick.wilson.mp@aph.gov.au,,,,,,,,,,,,,,
WA,6394,BOILUP,O'Connor,Mr Rick Wilson MP,rick.wilson.mp@aph.gov.au,,,,,,,,,,,,,,
WA,6392,BOKAL,O'Connor,Mr Rick Wilson MP,rick.wilson.mp@aph.gov.au,,,,,,,,,,,,,,
WA,6479,BONNIE ROCK,O'Connor,Mr Rick Wilson MP,rick.wilson.mp@aph.gov.au,,,,,,,,,,,,,,
WA,6423,BOODAROCKIN,O'Connor,Mr Rick Wilson MP,rick.wilson.mp@aph.gov.au,,,,,,,,,,,,,,
WA,6429,BOORABBIN,O'Connor,Mr Rick Wilson MP,rick.wilson.mp@aph.gov.au,,,,,,,,,,,,,,
WA,6475,BOORALAMING,O'Connor,Mr Rick Wilson MP,rick.wilson.mp@aph.gov.au,,,,,,,,,,,,,,
WA,6262,BOORARA BROOK,O'Connor,Mr Rick Wilson MP,rick.wilson.mp@aph.gov.au,,,,,,,,,,,,,,
WA,6338,BORDEN,O'Connor,Mr Rick Wilson MP,rick.wilson.mp@aph.gov.au,,,,,,,,,,,,,,
WA,6320,BORDERDALE,O'Connor,Mr Rick Wilson MP,rick.wilson.mp@aph.gov.au,,,,,,,,,,,,,,
WA,6330,BORNHOLM,O'Connor,Mr Rick Wilson MP,rick.wilson.mp@aph.gov.au,,,,,,,,,,,,,,
WA,6394,BOSCABEL,O'Connor,Mr Rick Wilson MP,rick.wilson.mp@aph.gov.au,,,,,,,,,,,,,,
WA,6432,BOULDER,O'Connor,Mr Rick Wilson MP,rick.wilson.mp@aph.gov.au,,,,,,,,,,,,,,
WA,6312,BOUNDAIN,O'Connor,Mr Rick Wilson MP,rick.wilson.mp@aph.gov.au,,,,,,,,,,,,,,
WA,6333,BOW BRIDGE,O'Connor,Mr Rick Wilson MP,rick.wilson.mp@aph.gov.au,,,,,,,,,,,,,,
WA,6225,BOWELLING,O'Connor,Mr Rick Wilson MP,rick.wilson.mp@aph.gov.au,,,,,,,,,,,,,,
WA,6338,BOXWOOD HILL,O'Connor,Mr Rick Wilson MP,rick.wilson.mp@aph.gov.au,,,,,,,,,,,,,,
WA,6450,BOYATUP,O'Connor,Mr Rick Wilson MP,rick.wilson.mp@aph.gov.au,,,,,,,,,,,,,,
WA,6316,BOYERINE,O'Connor,Mr Rick Wilson MP,rick.wilson.mp@aph.gov.au,,,,,,,,,,,,,,
WA,6244,BOYUP BROOK,O'Connor,Mr Rick Wilson MP,rick.wilson.mp@aph.gov.au,,,,,,,,,,,,,,
WA,6338,BREMER BAY,O'Connor,Mr Rick Wilson MP,rick.wilson.mp@aph.gov.au,,,,,,,,,,,,,,
WA,6255,BRIDGETOWN,O'Connor,Mr Rick Wilson MP,rick.wilson.mp@aph.gov.au,,,,,,,,,,,,,,
WA,6431,BROAD ARROW,O'Connor,Mr Rick Wilson MP,rick.wilson.mp@aph.gov.au,,,,,,,,,,,,,,
WA,6430,BROADWOOD,O'Connor,Mr Rick Wilson MP,rick.wilson.mp@aph.gov.au,,,,,,,,,,,,,,
WA,6398,BROKE,O'Connor,Mr Rick Wilson MP,rick.wilson.mp@aph.gov.au,,,,,,,,,,,,,,
WA,6306,BROOKTON,O'Connor,Mr Rick Wilson MP,rick.wilson.mp@aph.gov.au,,,,,,,,,,,,,,
WA,6318,BROOMEHILL EAST,O'Connor,Mr Rick Wilson MP,rick.wilson.mp@aph.gov.au,,,,,,,,,,,,,,
WA,6318,BROOMEHILL VILLAGE,O'Connor,Mr Rick Wilson MP,rick.wilson.mp@aph.gov.au,,,,,,,,,,,,,,
WA,6318,BROOMEHILL WEST,O'Connor,Mr Rick Wilson MP,rick.wilson.mp@aph.gov.au,,,,,,,,,,,,,,
WA,6431,BROWN HILL,O'Connor,Mr Rick Wilson MP,rick.wilson.mp@aph.gov.au,,,,,,,,,,,,,,
WA,6418,BRUCE ROCK,O'Connor,Mr Rick Wilson MP,rick.wilson.mp@aph.gov.au,,,,,,,,,,,,,,
WA,6225,BUCKINGHAM,O'Connor,Mr Rick Wilson MP,rick.wilson.mp@aph.gov.au,,,,,,,,,,,,,,
WA,6429,BULLABULLING,O'Connor,Mr Rick Wilson MP,rick.wilson.mp@aph.gov.au,,,,,,,,,,,,,,
WA,6373,BULLARING,O'Connor,Mr Rick Wilson MP,rick.wilson.mp@aph.gov.au,,,,,,,,,,,,,,
WA,6484,BULLFINCH,O'Connor,Mr Rick Wilson MP,rick.wilson.mp@aph.gov.au,,,,,,,,,,,,,,
WA,6317,BULLOCK HILLS,O'Connor,Mr Rick Wilson MP,rick.wilson.mp@aph.gov.au,,,,,,,,,,,,,,
WA,6431,BULONG,O'Connor,Mr Rick Wilson MP,rick.wilson.mp@aph.gov.au,,,,,,,,,,,,,,
WA,6306,BULYEE,O'Connor,Mr Rick Wilson MP,rick.wilson.mp@aph.gov.au,,,,,,,,,,,,,,
WA,6353,BUNICHE,O'Connor,Mr Rick Wilson MP,rick.wilson.mp@aph.gov.au,,,,,,,,,,,,,,
WA,6452,BURAMINYA,O'Connor,Mr Rick Wilson MP,rick.wilson.mp@aph.gov.au,,,,,,,,,,,,,,
WA,6421,BURRACOPPIN,O'Connor,Mr Rick Wilson MP,rick.wilson.mp@aph.gov.au,,,,,,,,,,,,,,
WA,6490,BURRAN ROCK,O'Connor,Mr Rick Wilson MP,rick.wilson.mp@aph.gov.au,,,,,,,,,,,,,,
WA,6443,CAIGUNA,O'Connor,Mr Rick Wilson MP,rick.wilson.mp@aph.gov.au,,,,,,,,,,,,,,
WA,6260,CALLCUP,O'Connor,Mr Rick Wilson MP,rick.wilson.mp@aph.gov.au,,,,,,,,,,,,,,
WA,6315,CANCANNING,O'Connor,Mr Rick Wilson MP,rick.wilson.mp@aph.gov.au,,,,,,,,,,,,,,
WA,6452,CAPE ARID,O'Connor,Mr Rick Wilson MP,rick.wilson.mp@aph.gov.au,,,,,,,,,,,,,,
WA,6450,CAPE LE GRAND,O'Connor,Mr Rick Wilson MP,rick.wilson.mp@aph.gov.au,,,,,,,,,,,,,,
WA,6225,CARDIFF,O'Connor,Mr Rick Wilson MP,rick.wilson.mp@aph.gov.au,,,,,,,,,,,,,,
WA,6275,CARLOTTA,O'Connor,Mr Rick Wilson MP,rick.wilson.mp@aph.gov.au,,,,,,,,,,,,,,
WA,6423,CARRABIN,O'Connor,Mr Rick Wilson MP,rick.wilson.mp@aph.gov.au,,,,,,,,,,,,,,
WA,6317,CARROLUP,O'Connor,Mr Rick Wilson MP,rick.wilson.mp@aph.gov.au,,,,,,,,,,,,,,
WA,6316,CARTMETICUP,O'Connor,Mr Rick Wilson MP,rick.wilson.mp@aph.gov.au,,,,,,,,,,,,,,
WA,6450,CASCADE,O'Connor,Mr Rick Wilson MP,rick.wilson.mp@aph.gov.au,,,,,,,,,,,,,,
WA,6450,CASTLETOWN,O'Connor,Mr Rick Wilson MP,rick.wilson.mp@aph.gov.au,,,,,,,,,,,,,,
WA,6255,CATTERICK,O'Connor,Mr Rick Wilson MP,rick.wilson.mp@aph.gov.au,,,,,,,,,,,,,,
WA,6330,CENTENNIAL PARK,O'Connor,Mr Rick Wilson MP,rick.wilson.mp@aph.gov.au,,,,,,,,,,,,,,
WA,6450,CHADWICK,O'Connor,Mr Rick Wilson MP,rick.wilson.mp@aph.gov.au,,,,,,,,,,,,,,
WA,6490,CHANDLER,O'Connor,Mr Rick Wilson MP,rick.wilson.mp@aph.gov.au,,,,,,,,,,,,,,
WA,6394,CHANGERUP,O'Connor,Mr Rick Wilson MP,rick.wilson.mp@aph.gov.au,,,,,,,,,,,,,,
WA,6260,CHANNYBEARUP,O'Connor,Mr Rick Wilson MP,rick.wilson.mp@aph.gov.au,,,,,,,,,,,,,,
WA,6395,CHERRY TREE POOL,O'Connor,Mr Rick Wilson MP,rick.wilson.mp@aph.gov.au,,,,,,,,,,,,,,
WA,6328,CHEYNES,O'Connor,Mr Rick Wilson MP,rick.wilson.mp@aph.gov.au,,,,,,,,,,,,,,
WA,6244,CHOWERUP,O'Connor,Mr Rick Wilson MP,rick.wilson.mp@aph.gov.au,,,,,,,,,,,,,,
WA,6472,CLEARY,O'Connor,Mr Rick Wilson MP,rick.wilson.mp@aph.gov.au,,,,,,,,,,,,,,
WA,6317,COBLININE,O'Connor,Mr Rick Wilson MP,rick.wilson.mp@aph.gov.au,,,,,,,,,,,,,,
WA,6443,COCKLEBIDDY,O'Connor,Mr Rick Wilson MP,rick.wilson.mp@aph.gov.au,,,,,,,,,,,,,,
WA,6308,CODJATOTINE,O'Connor,Mr Rick Wilson MP,rick.wilson.mp@aph.gov.au,,,,,,,,,,,,,,
WA,6315,COLLANILLING,O'Connor,Mr Rick Wilson MP,rick.wilson.mp@aph.gov.au,,,,,,,,,,,,,,
WA,6225,COLLIE,O'Connor,Mr Rick Wilson MP,rick.wilson.mp@aph.gov.au,,,,,,,,,,,,,,
WA,6225,COLLIE BURN,O'Connor,Mr Rick Wilson MP,rick.wilson.mp@aph.gov.au,,,,,,,,,,,,,,
WA,6330,COLLINGWOOD HEIGHTS,O'Connor,Mr Rick Wilson MP,rick.wilson.mp@aph.gov.au,,,,,,,,,,,,,,
WA,6330,COLLINGWOOD PARK,O'Connor,Mr Rick Wilson MP,rick.wilson.mp@aph.gov.au,,,,,,,,,,,,,,
WA,6260,COLLINS,O'Connor,Mr Rick Wilson MP,rick.wilson.mp@aph.gov.au,,,,,,,,,,,,,,
WA,6311,COMMODINE,O'Connor,Mr Rick Wilson MP,rick.wilson.mp@aph.gov.au,,,,,,,,,,,,,,
WA,6450,CONDINGUP,O'Connor,Mr Rick Wilson MP,rick.wilson.mp@aph.gov.au,,,,,,,,,,,,,,
WA,6311,CONTINE,O'Connor,Mr Rick Wilson MP,rick.wilson.mp@aph.gov.au,,,,,,,,,,,,,,
WA,6429,COOLGARDIE,O'Connor,Mr Rick Wilson MP,rick.wilson.mp@aph.gov.au,,,,,,,,,,,,,,
WA,6450,COOMALBIDGUP,O'Connor,Mr Rick Wilson MP,rick.wilson.mp@aph.gov.au,,,,,,,,,,,,,,
WA,6426,CORINTHIA,O'Connor,Mr Rick Wilson MP,rick.wilson.mp@aph.gov.au,,,,,,,,,,,,,,
WA,6375,CORRIGIN,O'Connor,Mr Rick Wilson MP,rick.wilson.mp@aph.gov.au,,,,,,,,,,,,,,
WA,6440,COSMO NEWBERY,O'Connor,Mr Rick Wilson MP,rick.wilson.mp@aph.gov.au,,,,,,,,,,,,,,
WA,6336,COWALELLUP,O'Connor,Mr Rick Wilson MP,rick.wilson.mp@aph.gov.au,,,,,,,,,,,,,,
WA,6485,COWCOWING,O'Connor,Mr Rick Wilson MP,rick.wilson.mp@aph.gov.au,,,,,,,,,,,,,,
WA,6317,COYRECUP,O'Connor,Mr Rick Wilson MP,rick.wilson.mp@aph.gov.au,,,,,,,,,,,,,,
WA,6420,CRAMPHORNE,O'Connor,Mr Rick Wilson MP,rick.wilson.mp@aph.gov.au,,,,,,,,,,,,,,
WA,6321,CRANBROOK,O'Connor,Mr Rick Wilson MP,rick.wilson.mp@aph.gov.au,,,,,,,,,,,,,,
WA,6390,CROSSMAN,O'Connor,Mr Rick Wilson MP,rick.wilson.mp@aph.gov.au,,,,,,,,,,,,,,
WA,6262,CROWEA,O'Connor,Mr Rick Wilson MP,rick.wilson.mp@aph.gov.au,,,,,,,,,,,,,,
WA,6311,CUBALLING,O'Connor,Mr Rick Wilson MP,rick.wilson.mp@aph.gov.au,,,,,,,,,,,,,,
WA,6383,CUBBINE,O'Connor,Mr Rick Wilson MP,rick.wilson.mp@aph.gov.au,,,,,,,,,,,,,,
WA,6434,CUNDEELEE,O'Connor,Mr Rick Wilson MP,rick.wilson.mp@aph.gov.au,,,,,,,,,,,,,,
WA,6407,CUNDERDIN,O'Connor,Mr Rick Wilson MP,rick.wilson.mp@aph.gov.au,,,,,,,,,,,,,,
WA,6275,CUNDINUP,O'Connor,Mr Rick Wilson MP,rick.wilson.mp@aph.gov.au,,,,,,,,,,,,,,
WA,6330,CUTHBERT,O'Connor,Mr Rick Wilson MP,rick.wilson.mp@aph.gov.au,,,,,,,,,,,,,,
WA,6410,DAADENNING CREEK,O'Connor,Mr Rick Wilson MP,rick.wilson.mp@aph.gov.au,,,,,,,,,,,,,,
WA,6304,DALE,O'Connor,Mr Rick Wilson MP,rick.wilson.mp@aph.gov.au,,,,,,,,,,,,,,
WA,6450,DALYUP,O'Connor,Mr Rick Wilson MP,rick.wilson.mp@aph.gov.au,,,,,,,,,,,,,,
WA,6479,DANDANNING,O'Connor,Mr Rick Wilson MP,rick.wilson.mp@aph.gov.au,,,,,,,,,,,,,,
WA,6383,DANGIN,O'Connor,Mr Rick Wilson MP,rick.wilson.mp@aph.gov.au,,,,,,,,,,,,,,
WA,6392,DARDADINE,O'Connor,Mr Rick Wilson MP,rick.wilson.mp@aph.gov.au,,,,,,,,,,,,,,
WA,6392,DARKAN,O'Connor,Mr Rick Wilson MP,rick.wilson.mp@aph.gov.au,,,,,,,,,,,,,,
WA,6275,DARRADUP,O'Connor,Mr Rick Wilson MP,rick.wilson.mp@aph.gov.au,,,,,,,,,,,,,,
WA,6320,DARTNALL,O'Connor,Mr Rick Wilson MP,rick.wilson.mp@aph.gov.au,,,,,,,,,,,,,,
WA,6317,DATATINE,O'Connor,Mr Rick Wilson MP,rick.wilson.mp@aph.gov.au,,,,,,,,,,,,,,
WA,6258,DEANMILL,O'Connor,Mr Rick Wilson MP,rick.wilson.mp@aph.gov.au,,,,,,,,,,,,,,
WA,6324,DENBARKER,O'Connor,Mr Rick Wilson MP,rick.wilson.mp@aph.gov.au,,,,,,,,,,,,,,
WA,6333,DENMARK,O'Connor,Mr Rick Wilson MP,rick.wilson.mp@aph.gov.au,,,,,,,,,,,,,,
WA,6258,DIAMOND TREE,O'Connor,Mr Rick Wilson MP,rick.wilson.mp@aph.gov.au,,,,,,,,,,,,,,
WA,6258,DINGUP,O'Connor,Mr Rick Wilson MP,rick.wilson.mp@aph.gov.au,,,,,,,,,,,,,,
WA,6244,DINNINUP,O'Connor,Mr Rick Wilson MP,rick.wilson.mp@aph.gov.au,,,,,,,,,,,,,,
WA,6258,DIXVALE,O'Connor,Mr Rick Wilson MP,rick.wilson.mp@aph.gov.au,,,,,,,,,,,,,,
WA,6315,DONGOLOCKING,O'Connor,Mr Rick Wilson MP,rick.wilson.mp@aph.gov.au,,,,,,,,,,,,,,
WA,6258,DONNELLY RIVER,O'Connor,Mr Rick Wilson MP,rick.wilson.mp@aph.gov.au,,,,,,,,,,,,,,
WA,6383,DOODENANNING,O'Connor,Mr Rick Wilson MP,rick.wilson.mp@aph.gov.au,,,,,,,,,,,,,,
WA,6411,DOODLAKINE,O'Connor,Mr Rick Wilson MP,rick.wilson.mp@aph.gov.au,,,,,,,,,,,,,,
WA,6330,DROME,O'Connor,Mr Rick Wilson MP,rick.wilson.mp@aph.gov.au,,,,,,,,,,,,,,
WA,6311,DRYANDRA,O'Connor,Mr Rick Wilson MP,rick.wilson.mp@aph.gov.au,,,,,,,,,,,,,,
WA,6363,DUDININ,O'Connor,Mr Rick Wilson MP,rick.wilson.mp@aph.gov.au,,,,,,,,,,,,,,
WA,6475,DUKIN,O'Connor,Mr Rick Wilson MP,rick.wilson.mp@aph.gov.au,,,,,,,,,,,,,,
WA,6383,DULBELLING,O'Connor,Mr Rick Wilson MP,rick.wilson.mp@aph.gov.au,,,,,,,,,,,,,,
WA,6425,DULYALBIN,O'Connor,Mr Rick Wilson MP,rick.wilson.mp@aph.gov.au,,,,,,,,,,,,,,
WA,6312,DUMBERNING,O'Connor,Mr Rick Wilson MP,rick.wilson.mp@aph.gov.au,,,,,,,,,,,,,,
WA,6350,DUMBLEYUNG,O'Connor,Mr Rick Wilson MP,rick.wilson.mp@aph.gov.au,,,,,,,,,,,,,,
WA,6355,DUNN ROCK,O'Connor,Mr Rick Wilson MP,rick.wilson.mp@aph.gov.au,,,,,,,,,,,,,,
WA,6393,DURANILLIN,O'Connor,Mr Rick Wilson MP,rick.wilson.mp@aph.gov.au,,,,,,,,,,,,,,
WA,6308,DWARDA,O'Connor,Mr Rick Wilson MP,rick.wilson.mp@aph.gov.au,,,,,,,,,,,,,,
WA,6304,EAST BEVERLEY,O'Connor,Mr Rick Wilson MP,rick.wilson.mp@aph.gov.au,,,,,,,,,,,,,,
WA,6450,EAST MUNGLINUP,O'Connor,Mr Rick Wilson MP,rick.wilson.mp@aph.gov.au,,,,,,,,,,,,,,
WA,6275,EAST NANNUP,O'Connor,Mr Rick Wilson MP,rick.wilson.mp@aph.gov.au,,,,,,,,,,,,,,
WA,6355,EAST NEWDEGATE,O'Connor,Mr Rick Wilson MP,rick.wilson.mp@aph.gov.au,,,,,,,,,,,,,,
WA,6308,EAST PINGELLY,O'Connor,Mr Rick Wilson MP,rick.wilson.mp@aph.gov.au,,,,,,,,,,,,,,
WA,6309,EAST POPANYINNING,O'Connor,Mr Rick Wilson MP,rick.wilson.mp@aph.gov.au,,,,,,,,,,,,,,
WA,6370,EAST WICKEPIN,O'Connor,Mr Rick Wilson MP,rick.wilson.mp@aph.gov.au,,,,,,,,,,,,,,
WA,6260,EASTBROOK,O'Connor,Mr Rick Wilson MP,rick.wilson.mp@aph.gov.au,,,,,,,,,,,,,,
WA,6490,ELABBIN,O'Connor,Mr Rick Wilson MP,rick.wilson.mp@aph.gov.au,,,,,,,,,,,,,,
WA,6479,ELACHBUTTING,O'Connor,Mr Rick Wilson MP,rick.wilson.mp@aph.gov.au,,,,,,,,,,,,,,
WA,6330,ELLEKER,O'Connor,Mr Rick Wilson MP,rick.wilson.mp@aph.gov.au,,,,,,,,,,,,,,
WA,6431,EMU FLAT,O'Connor,Mr Rick Wilson MP,rick.wilson.mp@aph.gov.au,,,,,,,,,,,,,,
WA,6330,EMU POINT,O'Connor,Mr Rick Wilson MP,rick.wilson.mp@aph.gov.au,,,,,,,,,,,,,,
WA,6484,ENNUIN,O'Connor,Mr Rick Wilson MP,rick.wilson.mp@aph.gov.au,,,,,,,,,,,,,,
WA,6450,ESPERANCE,O'Connor,Mr Rick Wilson MP,rick.wilson.mp@aph.gov.au,,,,,,,,,,,,,,
WA,6443,EUCLA,O'Connor,Mr Rick Wilson MP,rick.wilson.mp@aph.gov.au,,,,,,,,,,,,,,
WA,6317,EWLYAMARTUP,O'Connor,Mr Rick Wilson MP,rick.wilson.mp@aph.gov.au,,,,,,,,,,,,,,
WA,6431,FEYSVILLE,O'Connor,Mr Rick Wilson MP,rick.wilson.mp@aph.gov.au,,,,,,,,,,,,,,
WA,6337,FITZGERALD,O'Connor,Mr Rick Wilson MP,rick.wilson.mp@aph.gov.au,,,,,,,,,,,,,,
WA,6338,FITZGERALD RIVER NAT PK,O'Connor,Mr Rick Wilson MP,rick.wilson.mp@aph.gov.au,,,,,,,,,,,,,,
WA,6330,FLINDERS PARK,O'Connor,Mr Rick Wilson MP,rick.wilson.mp@aph.gov.au,,,,,,,,,,,,,,
WA,6302,FLINT,O'Connor,Mr Rick Wilson MP,rick.wilson.mp@aph.gov.au,,,,,,,,,,,,,,
WA,6324,FOREST HILL,O'Connor,Mr Rick Wilson MP,rick.wilson.mp@aph.gov.au,,,,,,,,,,,,,,
WA,6434,FORREST,O'Connor,Mr Rick Wilson MP,rick.wilson.mp@aph.gov.au,,,,,,,,,,,,,,
WA,6359,FORRESTANIA,O'Connor,Mr Rick Wilson MP,rick.wilson.mp@aph.gov.au,,,,,,,,,,,,,,
WA,6396,FRANKLAND RIVER,O'Connor,Mr Rick Wilson MP,rick.wilson.mp@aph.gov.au,,,,,,,,,,,,,,
WA,6443,FRASER RANGE,O'Connor,Mr Rick Wilson MP,rick.wilson.mp@aph.gov.au,,,,,,,,,,,,,,
WA,6330,FRENCHMAN BAY,O'Connor,Mr Rick Wilson MP,rick.wilson.mp@aph.gov.au,,,,,,,,,,,,,,
WA,6476,GABBIN,O'Connor,Mr Rick Wilson MP,rick.wilson.mp@aph.gov.au,,,,,,,,,,,,,,
WA,6337,GAIRDNER,O'Connor,Mr Rick Wilson MP,rick.wilson.mp@aph.gov.au,,,,,,,,,,,,,,
WA,6426,GHOOLI,O'Connor,Mr Rick Wilson MP,rick.wilson.mp@aph.gov.au,,,,,,,,,,,,,,
WA,6448,GIBSON,O'Connor,Mr Rick Wilson MP,rick.wilson.mp@aph.gov.au,,,,,,,,,,,,,,
WA,872,GIBSON DESERT SOUTH,O'Connor,Mr Rick Wilson MP,rick.wilson.mp@aph.gov.au,,,,,,,,,,,,,,
WA,6308,GILLIMANNING,O'Connor,Mr Rick Wilson MP,rick.wilson.mp@aph.gov.au,,,,,,,,,,,,,,
WA,6330,GLEDHOW,O'Connor,Mr Rick Wilson MP,rick.wilson.mp@aph.gov.au,,,,,,,,,,,,,,
WA,6316,GLENCOE,O'Connor,Mr Rick Wilson MP,rick.wilson.mp@aph.gov.au,,,,,,,,,,,,,,
WA,6256,GLENLYNN,O'Connor,Mr Rick Wilson MP,rick.wilson.mp@aph.gov.au,,,,,,,,,,,,,,
WA,6258,GLENORAN,O'Connor,Mr Rick Wilson MP,rick.wilson.mp@aph.gov.au,,,,,,,,,,,,,,
WA,6335,GNOWANGERUP,O'Connor,Mr Rick Wilson MP,rick.wilson.mp@aph.gov.au,,,,,,,,,,,,,,
WA,6328,GNOWELLEN,O'Connor,Mr Rick Wilson MP,rick.wilson.mp@aph.gov.au,,,,,,,,,,,,,,
WA,6330,GOODE BEACH,O'Connor,Mr Rick Wilson MP,rick.wilson.mp@aph.gov.au,,,,,,,,,,,,,,
WA,6415,GOOMARIN,O'Connor,Mr Rick Wilson MP,rick.wilson.mp@aph.gov.au,,,,,,,,,,,,,,
WA,6375,GORGE ROCK,O'Connor,Mr Rick Wilson MP,rick.wilson.mp@aph.gov.au,,,,,,,,,,,,,,
WA,6446,GRASS PATCH,O'Connor,Mr Rick Wilson MP,rick.wilson.mp@aph.gov.au,,,,,,,,,,,,,,
WA,6328,GREEN RANGE,O'Connor,Mr Rick Wilson MP,rick.wilson.mp@aph.gov.au,,,,,,,,,,,,,,
WA,6330,GREEN VALLEY,O'Connor,Mr Rick Wilson MP,rick.wilson.mp@aph.gov.au,,,,,,,,,,,,,,
WA,6254,GREENBUSHES,O'Connor,Mr Rick Wilson MP,rick.wilson.mp@aph.gov.au,,,,,,,,,,,,,,
WA,6405,GREENWOODS VALLEY,O'Connor,Mr Rick Wilson MP,rick.wilson.mp@aph.gov.au,,,,,,,,,,,,,,
WA,6315,GUNDARING,O'Connor,Mr Rick Wilson MP,rick.wilson.mp@aph.gov.au,,,,,,,,,,,,,,
WA,6430,HANNANS,O'Connor,Mr Rick Wilson MP,rick.wilson.mp@aph.gov.au,,,,,,,,,,,,,,
WA,6225,HARRIS RIVER,O'Connor,Mr Rick Wilson MP,rick.wilson.mp@aph.gov.au,,,,,,,,,,,,,,
WA,6361,HARRISMITH,O'Connor,Mr Rick Wilson MP,rick.wilson.mp@aph.gov.au,,,,,,,,,,,,,,
WA,6308,HASTINGS,O'Connor,Mr Rick Wilson MP,rick.wilson.mp@aph.gov.au,,,,,,,,,,,,,,
WA,6333,HAY,O'Connor,Mr Rick Wilson MP,rick.wilson.mp@aph.gov.au,,,,,,,,,,,,,,
WA,6333,HAZELVALE,O'Connor,Mr Rick Wilson MP,rick.wilson.mp@aph.gov.au,,,,,,,,,,,,,,
WA,6255,HESTER,O'Connor,Mr Rick Wilson MP,rick.wilson.mp@aph.gov.au,,,,,,,,,,,,,,
WA,6255,HESTER BROOK,O'Connor,Mr Rick Wilson MP,rick.wilson.mp@aph.gov.au,,,,,,,,,,,,,,
WA,6443,HIGGINSVILLE,O'Connor,Mr Rick Wilson MP,rick.wilson.mp@aph.gov.au,,,,,,,,,,,,,,
WA,6313,HIGHBURY,O'Connor,Mr Rick Wilson MP,rick.wilson.mp@aph.gov.au,,,,,,,,,,,,,,
WA,6312,HILLSIDE,O'Connor,Mr Rick Wilson MP,rick.wilson.mp@aph.gov.au,,,,,,,,,,,,,,
WA,6413,HINES HILL,O'Connor,Mr Rick Wilson MP,rick.wilson.mp@aph.gov.au,,,,,,,,,,,,,,
WA,6426,HOLLETON,O'Connor,Mr Rick Wilson MP,rick.wilson.mp@aph.gov.au,,,,,,,,,,,,,,
WA,6355,HOLT ROCK,O'Connor,Mr Rick Wilson MP,rick.wilson.mp@aph.gov.au,,,,,,,,,,,,,,
WA,6348,HOPETOUN,O'Connor,Mr Rick Wilson MP,rick.wilson.mp@aph.gov.au,,,,,,,,,,,,,,
WA,6450,HOWICK,O'Connor,Mr Rick Wilson MP,rick.wilson.mp@aph.gov.au,,,,,,,,,,,,,,
WA,6359,HYDEN,O'Connor,Mr Rick Wilson MP,rick.wilson.mp@aph.gov.au,,,,,,,,,,,,,,
WA,6335,JACKITUP,O'Connor,Mr Rick Wilson MP,rick.wilson.mp@aph.gov.au,,,,,,,,,,,,,,
WA,6337,JACUP,O'Connor,Mr Rick Wilson MP,rick.wilson.mp@aph.gov.au,,,,,,,,,,,,,,
WA,6275,JALBARRAGUP,O'Connor,Mr Rick Wilson MP,rick.wilson.mp@aph.gov.au,,,,,,,,,,,,,,
WA,6315,JALORAN,O'Connor,Mr Rick Wilson MP,rick.wilson.mp@aph.gov.au,,,,,,,,,,,,,,
WA,6258,JARDEE,O'Connor,Mr Rick Wilson MP,rick.wilson.mp@aph.gov.au,,,,,,,,,,,,,,
WA,6306,JELCOBINE,O'Connor,Mr Rick Wilson MP,rick.wilson.mp@aph.gov.au,,,,,,,,,,,,,,
WA,6346,JERDACUTTUP,O'Connor,Mr Rick Wilson MP,rick.wilson.mp@aph.gov.au,,,,,,,,,,,,,,
WA,6337,JERRAMUNGUP,O'Connor,Mr Rick Wilson MP,rick.wilson.mp@aph.gov.au,,,,,,,,,,,,,,
WA,6365,JILAKIN,O'Connor,Mr Rick Wilson MP,rick.wilson.mp@aph.gov.au,,,,,,,,,,,,,,
WA,6395,JINGALUP,O'Connor,Mr Rick Wilson MP,rick.wilson.mp@aph.gov.au,,,,,,,,,,,,,,
WA,6365,JITARNING,O'Connor,Mr Rick Wilson MP,rick.wilson.mp@aph.gov.au,,,,,,,,,,,,,,
WA,6330,KALGAN,O'Connor,Mr Rick Wilson MP,rick.wilson.mp@aph.gov.au,,,,,,,,,,,,,,
WA,6430,KALGOORLIE,O'Connor,Mr Rick Wilson MP,rick.wilson.mp@aph.gov.au,,,,,,,,,,,,,,
WA,6442,KAMBALDA EAST,O'Connor,Mr Rick Wilson MP,rick.wilson.mp@aph.gov.au,,,,,,,,,,,,,,
WA,6442,KAMBALDA WEST,O'Connor,Mr Rick Wilson MP,rick.wilson.mp@aph.gov.au,,,,,,,,,,,,,,
WA,6255,KANGAROO GULLY,O'Connor,Mr Rick Wilson MP,rick.wilson.mp@aph.gov.au,,,,,,,,,,,,,,
WA,6431,KANOWNA,O'Connor,Mr Rick Wilson MP,rick.wilson.mp@aph.gov.au,,,,,,,,,,,,,,
WA,6358,KARLGARIN,O'Connor,Mr Rick Wilson MP,rick.wilson.mp@aph.gov.au,,,,,,,,,,,,,,
WA,6430,KARLKURLA,O'Connor,Mr Rick Wilson MP,rick.wilson.mp@aph.gov.au,,,,,,,,,,,,,,
WA,6479,KARLONING,O'Connor,Mr Rick Wilson MP,rick.wilson.mp@aph.gov.au,,,,,,,,,,,,,,
WA,6472,KARROUN HILL,O'Connor,Mr Rick Wilson MP,rick.wilson.mp@aph.gov.au,,,,,,,,,,,,,,
WA,6317,KATANNING,O'Connor,Mr Rick Wilson MP,rick.wilson.mp@aph.gov.au,,,,,,,,,,,,,,
WA,6335,KEBARINGUP,O'Connor,Mr Rick Wilson MP,rick.wilson.mp@aph.gov.au,,,,,,,,,,,,,,
WA,6410,KELLERBERRIN,O'Connor,Mr Rick Wilson MP,rick.wilson.mp@aph.gov.au,,,,,,,,,,,,,,
WA,6323,KENDENUP,O'Connor,Mr Rick Wilson MP,rick.wilson.mp@aph.gov.au,,,,,,,,,,,,,,
WA,6316,KENMARE,O'Connor,Mr Rick Wilson MP,rick.wilson.mp@aph.gov.au,,,,,,,,,,,,,,
WA,6333,KENTDALE,O'Connor,Mr Rick Wilson MP,rick.wilson.mp@aph.gov.au,,,,,,,,,,,,,,
WA,6330,KING RIVER,O'Connor,Mr Rick Wilson MP,rick.wilson.mp@aph.gov.au,,,,,,,,,,,,,,
WA,6256,KINGSTON,O'Connor,Mr Rick Wilson MP,rick.wilson.mp@aph.gov.au,,,,,,,,,,,,,,
WA,6372,KIRK ROCK,O'Connor,Mr Rick Wilson MP,rick.wilson.mp@aph.gov.au,,,,,,,,,,,,,,
WA,6328,KOJANEERUP,O'Connor,Mr Rick Wilson MP,rick.wilson.mp@aph.gov.au,,,,,,,,,,,,,,
WA,6328,KOJANEERUP SOUTH,O'Connor,Mr Rick Wilson MP,rick.wilson.mp@aph.gov.au,,,,,,,,,,,,,,
WA,6395,KOJONUP,O'Connor,Mr Rick Wilson MP,rick.wilson.mp@aph.gov.au,,,,,,,,,,,,,,
WA,6304,KOKEBY,O'Connor,Mr Rick Wilson MP,rick.wilson.mp@aph.gov.au,,,,,,,,,,,,,,
WA,6367,KONDININ,O'Connor,Mr Rick Wilson MP,rick.wilson.mp@aph.gov.au,,,,,,,,,,,,,,
WA,6431,KOOKYNIE,O'Connor,Mr Rick Wilson MP,rick.wilson.mp@aph.gov.au,,,,,,,,,,,,,,
WA,6427,KOOLYANOBBING,O'Connor,Mr Rick Wilson MP,rick.wilson.mp@aph.gov.au,,,,,,,,,,,,,,
WA,6475,KOORDA,O'Connor,Mr Rick Wilson MP,rick.wilson.mp@aph.gov.au,,,,,,,,,,,,,,
WA,6415,KORBEL,O'Connor,Mr Rick Wilson MP,rick.wilson.mp@aph.gov.au,,,,,,,,,,,,,,
WA,6333,KORDABUP,O'Connor,Mr Rick Wilson MP,rick.wilson.mp@aph.gov.au,,,,,,,,,,,,,,
WA,6485,KORRELOCKING,O'Connor,Mr Rick Wilson MP,rick.wilson.mp@aph.gov.au,,,,,,,,,,,,,,
WA,6330,KRONKUP,O'Connor,Mr Rick Wilson MP,rick.wilson.mp@aph.gov.au,,,,,,,,,,,,,,
WA,6353,KUENDER,O'Connor,Mr Rick Wilson MP,rick.wilson.mp@aph.gov.au,,,,,,,,,,,,,,
WA,6352,KUKERIN,O'Connor,Mr Rick Wilson MP,rick.wilson.mp@aph.gov.au,,,,,,,,,,,,,,
WA,6244,KULIKUP,O'Connor,Mr Rick Wilson MP,rick.wilson.mp@aph.gov.au,,,,,,,,,,,,,,
WA,6365,KULIN,O'Connor,Mr Rick Wilson MP,rick.wilson.mp@aph.gov.au,,,,,,,,,,,,,,
WA,6365,KULIN WEST,O'Connor,Mr Rick Wilson MP,rick.wilson.mp@aph.gov.au,,,,,,,,,,,,,,
WA,6470,KULJA,O'Connor,Mr Rick Wilson MP,rick.wilson.mp@aph.gov.au,,,,,,,,,,,,,,
WA,6429,KUNANALLING,O'Connor,Mr Rick Wilson MP,rick.wilson.mp@aph.gov.au,,,,,,,,,,,,,,
WA,6375,KUNJIN,O'Connor,Mr Rick Wilson MP,rick.wilson.mp@aph.gov.au,,,,,,,,,,,,,,
WA,6489,KUNUNOPPIN,O'Connor,Mr Rick Wilson MP,rick.wilson.mp@aph.gov.au,,,,,,,,,,,,,,
WA,6431,KURNALPI,O'Connor,Mr Rick Wilson MP,rick.wilson.mp@aph.gov.au,,,,,,,,,,,,,,
WA,6375,KURRENKUTTEN,O'Connor,Mr Rick Wilson MP,rick.wilson.mp@aph.gov.au,,,,,,,,,,,,,,
WA,6306,KWEDA,O'Connor,Mr Rick Wilson MP,rick.wilson.mp@aph.gov.au,,,,,,,,,,,,,,
WA,6490,KWELKAN,O'Connor,Mr Rick Wilson MP,rick.wilson.mp@aph.gov.au,,,,,,,,,,,,,,
WA,6385,KWOLYIN,O'Connor,Mr Rick Wilson MP,rick.wilson.mp@aph.gov.au,,,,,,,,,,,,,,
WA,6355,LAKE BIDDY,O'Connor,Mr Rick Wilson MP,rick.wilson.mp@aph.gov.au,,,,,,,,,,,,,,
WA,6479,LAKE BROWN,O'Connor,Mr Rick Wilson MP,rick.wilson.mp@aph.gov.au,,,,,,,,,,,,,,
WA,6355,LAKE CAMM,O'Connor,Mr Rick Wilson MP,rick.wilson.mp@aph.gov.au,,,,,,,,,,,,,,
WA,6646,LAKE CARNEGIE,O'Connor,Mr Rick Wilson MP,rick.wilson.mp@aph.gov.au,,,,,,,,,,,,,,
WA,6438,LAKE DARLOT,O'Connor,Mr Rick Wilson MP,rick.wilson.mp@aph.gov.au,,,,,,,,,,,,,,
WA,6353,LAKE GRACE,O'Connor,Mr Rick Wilson MP,rick.wilson.mp@aph.gov.au,,,,,,,,,,,,,,
WA,6260,LAKE JASPER,O'Connor,Mr Rick Wilson MP,rick.wilson.mp@aph.gov.au,,,,,,,,,,,,,,
WA,6356,LAKE KING,O'Connor,Mr Rick Wilson MP,rick.wilson.mp@aph.gov.au,,,,,,,,,,,,,,
WA,6475,LAKE MARGARETTE,O'Connor,Mr Rick Wilson MP,rick.wilson.mp@aph.gov.au,,,,,,,,,,,,,,
WA,6258,LAKE MUIR,O'Connor,Mr Rick Wilson MP,rick.wilson.mp@aph.gov.au,,,,,,,,,,,,,,
WA,6320,LAKE TOOLBRUNUP,O'Connor,Mr Rick Wilson MP,rick.wilson.mp@aph.gov.au,,,,,,,,,,,,,,
WA,6440,LAKE WELLS,O'Connor,Mr Rick Wilson MP,rick.wilson.mp@aph.gov.au,,,,,,,,,,,,,,
WA,6430,LAMINGTON,O'Connor,Mr Rick Wilson MP,rick.wilson.mp@aph.gov.au,,,,,,,,,,,,,,
WA,6330,LANGE,O'Connor,Mr Rick Wilson MP,rick.wilson.mp@aph.gov.au,,,,,,,,,,,,,,
WA,6440,LAVERTON,O'Connor,Mr Rick Wilson MP,rick.wilson.mp@aph.gov.au,,,,,,,,,,,,,,
WA,6437,LEINSTER,O'Connor,Mr Rick Wilson MP,rick.wilson.mp@aph.gov.au,,,,,,,,,,,,,,
WA,6438,LEONORA,O'Connor,Mr Rick Wilson MP,rick.wilson.mp@aph.gov.au,,,,,,,,,,,,,,
WA,6315,LIME LAKE,O'Connor,Mr Rick Wilson MP,rick.wilson.mp@aph.gov.au,,,,,,,,,,,,,,
WA,6258,LINFARNE,O'Connor,Mr Rick Wilson MP,rick.wilson.mp@aph.gov.au,,,,,,,,,,,,,,
WA,6330,LITTLE GROVE,O'Connor,Mr Rick Wilson MP,rick.wilson.mp@aph.gov.au,,,,,,,,,,,,,,
WA,6359,LITTLE ITALY,O'Connor,Mr Rick Wilson MP,rick.wilson.mp@aph.gov.au,,,,,,,,,,,,,,
WA,6646,LITTLE SANDY DESERT,O'Connor,Mr Rick Wilson MP,rick.wilson.mp@aph.gov.au,,,,,,,,,,,,,,
WA,6330,LOCKYER,O'Connor,Mr Rick Wilson MP,rick.wilson.mp@aph.gov.au,,,,,,,,,,,,,,
WA,6311,LOL GRAY,O'Connor,Mr Rick Wilson MP,rick.wilson.mp@aph.gov.au,,,,,,,,,,,,,,
WA,6429,LONDONDERRY,O'Connor,Mr Rick Wilson MP,rick.wilson.mp@aph.gov.au,,,,,,,,,,,,,,
WA,6447,LORT RIVER,O'Connor,Mr Rick Wilson MP,rick.wilson.mp@aph.gov.au,,,,,,,,,,,,,,
WA,6390,LOWER HOTHAM,O'Connor,Mr Rick Wilson MP,rick.wilson.mp@aph.gov.au,,,,,,,,,,,,,,
WA,6330,LOWER KING,O'Connor,Mr Rick Wilson MP,rick.wilson.mp@aph.gov.au,,,,,,,,,,,,,,
WA,6330,LOWLANDS,O'Connor,Mr Rick Wilson MP,rick.wilson.mp@aph.gov.au,,,,,,,,,,,,,,
WA,6395,LUMEAH,O'Connor,Mr Rick Wilson MP,rick.wilson.mp@aph.gov.au,,,,,,,,,,,,,,
WA,6225,LYALLS MILL,O'Connor,Mr Rick Wilson MP,rick.wilson.mp@aph.gov.au,,,,,,,,,,,,,,
WA,6443,MADURA,O'Connor,Mr Rick Wilson MP,rick.wilson.mp@aph.gov.au,,,,,,,,,,,,,,
WA,6355,MAGENTA,O'Connor,Mr Rick Wilson MP,rick.wilson.mp@aph.gov.au,,,,,,,,,,,,,,
WA,6338,MAGITUP,O'Connor,Mr Rick Wilson MP,rick.wilson.mp@aph.gov.au,,,,,,,,,,,,,,
WA,6430,MALCOLM,O'Connor,Mr Rick Wilson MP,rick.wilson.mp@aph.gov.au,,,,,,,,,,,,,,
WA,6353,MALLEE HILL,O'Connor,Mr Rick Wilson MP,rick.wilson.mp@aph.gov.au,,,,,,,,,,,,,,
WA,6370,MALYALLING,O'Connor,Mr Rick Wilson MP,rick.wilson.mp@aph.gov.au,,,,,,,,,,,,,,
WA,6258,MANJIMUP,O'Connor,Mr Rick Wilson MP,rick.wilson.mp@aph.gov.au,,,,,,,,,,,,,,
WA,6328,MANYPEAKS,O'Connor,Mr Rick Wilson MP,rick.wilson.mp@aph.gov.au,,,,,,,,,,,,,,
WA,6256,MARANUP,O'Connor,Mr Rick Wilson MP,rick.wilson.mp@aph.gov.au,,,,,,,,,,,,,,
WA,6330,MARBELUP,O'Connor,Mr Rick Wilson MP,rick.wilson.mp@aph.gov.au,,,,,,,,,,,,,,
WA,6317,MARRACOONDA,O'Connor,Mr Rick Wilson MP,rick.wilson.mp@aph.gov.au,,,,,,,,,,,,,,
WA,6390,MARRADONG,O'Connor,Mr Rick Wilson MP,rick.wilson.mp@aph.gov.au,,,,,,,,,,,,,,
WA,6426,MARVEL LOCH,O'Connor,Mr Rick Wilson MP,rick.wilson.mp@aph.gov.au,,,,,,,,,,,,,,
WA,6244,MAYANUP,O'Connor,Mr Rick Wilson MP,rick.wilson.mp@aph.gov.au,,,,,,,,,,,,,,
WA,6225,MCALINDEN,O'Connor,Mr Rick Wilson MP,rick.wilson.mp@aph.gov.au,,,,,,,,,,,,,,
WA,6330,MCKAIL,O'Connor,Mr Rick Wilson MP,rick.wilson.mp@aph.gov.au,,,,,,,,,,,,,,
WA,6405,MECKERING,O'Connor,Mr Rick Wilson MP,rick.wilson.mp@aph.gov.au,,,,,,,,,,,,,,
WA,6392,MEEKING,O'Connor,Mr Rick Wilson MP,rick.wilson.mp@aph.gov.au,,,,,,,,,,,,,,
WA,6262,MEERUP,O'Connor,Mr Rick Wilson MP,rick.wilson.mp@aph.gov.au,,,,,,,,,,,,,,
WA,6436,MENZIES,O'Connor,Mr Rick Wilson MP,rick.wilson.mp@aph.gov.au,,,,,,,,,,,,,,
WA,6352,MERILUP,O'Connor,Mr Rick Wilson MP,rick.wilson.mp@aph.gov.au,,,,,,,,,,,,,,
WA,6450,MERIVALE,O'Connor,Mr Rick Wilson MP,rick.wilson.mp@aph.gov.au,,,,,,,,,,,,,,
WA,6415,MERREDIN,O'Connor,Mr Rick Wilson MP,rick.wilson.mp@aph.gov.au,,,,,,,,,,,,,,
WA,6328,METTLER,O'Connor,Mr Rick Wilson MP,rick.wilson.mp@aph.gov.au,,,,,,,,,,,,,,
WA,6258,MIDDLESEX,O'Connor,Mr Rick Wilson MP,rick.wilson.mp@aph.gov.au,,,,,,,,,,,,,,
WA,6330,MIDDLETON BEACH,O'Connor,Mr Rick Wilson MP,rick.wilson.mp@aph.gov.au,,,,,,,,,,,,,,
WA,6330,MILLBROOK,O'Connor,Mr Rick Wilson MP,rick.wilson.mp@aph.gov.au,,,,,,,,,,,,,,
WA,6336,MILLS LAKE,O'Connor,Mr Rick Wilson MP,rick.wilson.mp@aph.gov.au,,,,,,,,,,,,,,
WA,6330,MILPARA,O'Connor,Mr Rick Wilson MP,rick.wilson.mp@aph.gov.au,,,,,,,,,,,,,,
WA,6336,MINDARABIN,O'Connor,Mr Rick Wilson MP,rick.wilson.mp@aph.gov.au,,,,,,,,,,,,,,
WA,6315,MINDING,O'Connor,Mr Rick Wilson MP,rick.wilson.mp@aph.gov.au,,,,,,,,,,,,,,
WA,6312,MINIGIN,O'Connor,Mr Rick Wilson MP,rick.wilson.mp@aph.gov.au,,,,,,,,,,,,,,
WA,6330,MIRA MAR,O'Connor,Mr Rick Wilson MP,rick.wilson.mp@aph.gov.au,,,,,,,,,,,,,,
WA,6395,MOBRUP,O'Connor,Mr Rick Wilson MP,rick.wilson.mp@aph.gov.au,,,,,,,,,,,,,,
WA,6394,MOKUP,O'Connor,Mr Rick Wilson MP,rick.wilson.mp@aph.gov.au,,,,,,,,,,,,,,
WA,6475,MOLLERIN,O'Connor,Mr Rick Wilson MP,rick.wilson.mp@aph.gov.au,,,,,,,,,,,,,,
WA,6338,MONJEBUP,O'Connor,Mr Rick Wilson MP,rick.wilson.mp@aph.gov.au,,,,,,,,,,,,,,
WA,6450,MONJINGUP,O'Connor,Mr Rick Wilson MP,rick.wilson.mp@aph.gov.au,,,,,,,,,,,,,,
WA,6393,MOODIARRUP,O'Connor,Mr Rick Wilson MP,rick.wilson.mp@aph.gov.au,,,,,,,,,,,,,,
WA,6317,MOOJEBING,O'Connor,Mr Rick Wilson MP,rick.wilson.mp@aph.gov.au,,,,,,,,,,,,,,
WA,6320,MOONIES HILL,O'Connor,Mr Rick Wilson MP,rick.wilson.mp@aph.gov.au,,,,,,,,,,,,,,
WA,6425,MOORINE ROCK,O'Connor,Mr Rick Wilson MP,rick.wilson.mp@aph.gov.au,,,,,,,,,,,,,,
WA,6304,MORBINNING,O'Connor,Mr Rick Wilson MP,rick.wilson.mp@aph.gov.au,,,,,,,,,,,,,,
WA,6258,MORDALUP,O'Connor,Mr Rick Wilson MP,rick.wilson.mp@aph.gov.au,,,,,,,,,,,,,,
WA,6351,MOULYINNING,O'Connor,Mr Rick Wilson MP,rick.wilson.mp@aph.gov.au,,,,,,,,,,,,,,
WA,6472,MOUROUBRA,O'Connor,Mr Rick Wilson MP,rick.wilson.mp@aph.gov.au,,,,,,,,,,,,,,
WA,6324,MT BARKER,O'Connor,Mr Rick Wilson MP,rick.wilson.mp@aph.gov.au,,,,,,,,,,,,,,
WA,6429,MT BURGES,O'Connor,Mr Rick Wilson MP,rick.wilson.mp@aph.gov.au,,,,,,,,,,,,,,
WA,6410,MT CAROLINE,O'Connor,Mr Rick Wilson MP,rick.wilson.mp@aph.gov.au,,,,,,,,,,,,,,
WA,6330,MT CLARENCE,O'Connor,Mr Rick Wilson MP,rick.wilson.mp@aph.gov.au,,,,,,,,,,,,,,
WA,6390,MT COOKE,O'Connor,Mr Rick Wilson MP,rick.wilson.mp@aph.gov.au,,,,,,,,,,,,,,
WA,6330,MT ELPHINSTONE,O'Connor,Mr Rick Wilson MP,rick.wilson.mp@aph.gov.au,,,,,,,,,,,,,,
WA,6426,MT HAMPTON,O'Connor,Mr Rick Wilson MP,rick.wilson.mp@aph.gov.au,,,,,,,,,,,,,,
WA,6426,MT HOLLAND,O'Connor,Mr Rick Wilson MP,rick.wilson.mp@aph.gov.au,,,,,,,,,,,,,,
WA,6426,MT JACKSON,O'Connor,Mr Rick Wilson MP,rick.wilson.mp@aph.gov.au,,,,,,,,,,,,,,
WA,6333,MT LINDESAY,O'Connor,Mr Rick Wilson MP,rick.wilson.mp@aph.gov.au,,,,,,,,,,,,,,
WA,6356,MT MADDEN,O'Connor,Mr Rick Wilson MP,rick.wilson.mp@aph.gov.au,,,,,,,,,,,,,,
WA,6330,MT MELVILLE,O'Connor,Mr Rick Wilson MP,rick.wilson.mp@aph.gov.au,,,,,,,,,,,,,,
WA,6431,MT MONGER,O'Connor,Mr Rick Wilson MP,rick.wilson.mp@aph.gov.au,,,,,,,,,,,,,,
WA,6440,MT MORGANS,O'Connor,Mr Rick Wilson MP,rick.wilson.mp@aph.gov.au,,,,,,,,,,,,,,
WA,6447,MT NEY,O'Connor,Mr Rick Wilson MP,rick.wilson.mp@aph.gov.au,,,,,,,,,,,,,,
WA,6333,MT ROMANCE,O'Connor,Mr Rick Wilson MP,rick.wilson.mp@aph.gov.au,,,,,,,,,,,,,,
WA,6355,MT SHERIDAN,O'Connor,Mr Rick Wilson MP,rick.wilson.mp@aph.gov.au,,,,,,,,,,,,,,
WA,6383,MT STIRLING,O'Connor,Mr Rick Wilson MP,rick.wilson.mp@aph.gov.au,,,,,,,,,,,,,,
WA,6369,MT WALKER,O'Connor,Mr Rick Wilson MP,rick.wilson.mp@aph.gov.au,,,,,,,,,,,,,,
WA,6225,MUJA,O'Connor,Mr Rick Wilson MP,rick.wilson.mp@aph.gov.au,,,,,,,,,,,,,,
WA,6479,MUKINBUDIN,O'Connor,Mr Rick Wilson MP,rick.wilson.mp@aph.gov.au,,,,,,,,,,,,,,
WA,6430,MULLINGAR,O'Connor,Mr Rick Wilson MP,rick.wilson.mp@aph.gov.au,,,,,,,,,,,,,,
WA,6443,MUNDRABILLA,O'Connor,Mr Rick Wilson MP,rick.wilson.mp@aph.gov.au,,,,,,,,,,,,,,
WA,6225,MUNGALUP,O'Connor,Mr Rick Wilson MP,rick.wilson.mp@aph.gov.au,,,,,,,,,,,,,,
WA,6450,MUNGLINUP,O'Connor,Mr Rick Wilson MP,rick.wilson.mp@aph.gov.au,,,,,,,,,,,,,,
WA,6420,MUNTADGIN,O'Connor,Mr Rick Wilson MP,rick.wilson.mp@aph.gov.au,,,,,,,,,,,,,,
WA,6394,MURADUP,O'Connor,Mr Rick Wilson MP,rick.wilson.mp@aph.gov.au,,,,,,,,,,,,,,
WA,6317,MURDONG,O'Connor,Mr Rick Wilson MP,rick.wilson.mp@aph.gov.au,,,,,,,,,,,,,,
WA,6450,MYRUP,O'Connor,Mr Rick Wilson MP,rick.wilson.mp@aph.gov.au,,,,,,,,,,,,,,
WA,6350,NAIRIBIN,O'Connor,Mr Rick Wilson MP,rick.wilson.mp@aph.gov.au,,,,,,,,,,,,,,
WA,6485,NALKAIN,O'Connor,Mr Rick Wilson MP,rick.wilson.mp@aph.gov.au,,,,,,,,,,,,,,
WA,6338,NALYERLUP,O'Connor,Mr Rick Wilson MP,rick.wilson.mp@aph.gov.au,,,,,,,,,,,,,,
WA,6330,NANARUP,O'Connor,Mr Rick Wilson MP,rick.wilson.mp@aph.gov.au,,,,,,,,,,,,,,
WA,6414,NANGEENAN,O'Connor,Mr Rick Wilson MP,rick.wilson.mp@aph.gov.au,,,,,,,,,,,,,,
WA,6275,NANNUP,O'Connor,Mr Rick Wilson MP,rick.wilson.mp@aph.gov.au,,,,,,,,,,,,,,
WA,6330,NAPIER,O'Connor,Mr Rick Wilson MP,rick.wilson.mp@aph.gov.au,,,,,,,,,,,,,,
WA,6369,NAREMBEEN,O'Connor,Mr Rick Wilson MP,rick.wilson.mp@aph.gov.au,,,,,,,,,,,,,,
WA,6326,NARRIKUP,O'Connor,Mr Rick Wilson MP,rick.wilson.mp@aph.gov.au,,,,,,,,,,,,,,
WA,6312,NARROGIN,O'Connor,Mr Rick Wilson MP,rick.wilson.mp@aph.gov.au,,,,,,,,,,,,,,
WA,6312,NARROGIN VALLEY,O'Connor,Mr Rick Wilson MP,rick.wilson.mp@aph.gov.au,,,,,,,,,,,,,,
WA,6336,NEEDILUP,O'Connor,Mr Rick Wilson MP,rick.wilson.mp@aph.gov.au,,,,,,,,,,,,,,
WA,6353,NEENDALING,O'Connor,Mr Rick Wilson MP,rick.wilson.mp@aph.gov.au,,,,,,,,,,,,,,
WA,6485,NEMBUDDING,O'Connor,Mr Rick Wilson MP,rick.wilson.mp@aph.gov.au,,,,,,,,,,,,,,
WA,6450,NERIDUP,O'Connor,Mr Rick Wilson MP,rick.wilson.mp@aph.gov.au,,,,,,,,,,,,,,
WA,6475,NEWCARLBEON,O'Connor,Mr Rick Wilson MP,rick.wilson.mp@aph.gov.au,,,,,,,,,,,,,,
WA,6355,NEWDEGATE,O'Connor,Mr Rick Wilson MP,rick.wilson.mp@aph.gov.au,,,,,,,,,,,,,,
WA,872,NGAANYATJARRA-GILES,O'Connor,Mr Rick Wilson MP,rick.wilson.mp@aph.gov.au,,,,,,,,,,,,,,
WA,6350,NIPPERING,O'Connor,Mr Rick Wilson MP,rick.wilson.mp@aph.gov.au,,,,,,,,,,,,,,
WA,6415,NOKANING,O'Connor,Mr Rick Wilson MP,rick.wilson.mp@aph.gov.au,,,,,,,,,,,,,,
WA,6312,NOMANS LAKE,O'Connor,Mr Rick Wilson MP,rick.wilson.mp@aph.gov.au,,,,,,,,,,,,,,
WA,6333,NORNALUP,O'Connor,Mr Rick Wilson MP,rick.wilson.mp@aph.gov.au,,,,,,,,,,,,,,
WA,6415,NORPA,O'Connor,Mr Rick Wilson MP,rick.wilson.mp@aph.gov.au,,,,,,,,,,,,,,
WA,6443,NORSEMAN,O'Connor,Mr Rick Wilson MP,rick.wilson.mp@aph.gov.au,,,,,,,,,,,,,,
WA,6412,NORTH BAANDEE,O'Connor,Mr Rick Wilson MP,rick.wilson.mp@aph.gov.au,,,,,,,,,,,,,,
WA,6390,NORTH BANNISTER,O'Connor,Mr Rick Wilson MP,rick.wilson.mp@aph.gov.au,,,,,,,,,,,,,,
WA,6424,NORTH BODALLIN,O'Connor,Mr Rick Wilson MP,rick.wilson.mp@aph.gov.au,,,,,,,,,,,,,,
WA,6353,NORTH BURNGUP,O'Connor,Mr Rick Wilson MP,rick.wilson.mp@aph.gov.au,,,,,,,,,,,,,,
WA,6445,NORTH CASCADE,O'Connor,Mr Rick Wilson MP,rick.wilson.mp@aph.gov.au,,,,,,,,,,,,,,
WA,6254,NORTH GREENBUSHES,O'Connor,Mr Rick Wilson MP,rick.wilson.mp@aph.gov.au,,,,,,,,,,,,,,
WA,6410,NORTH KELLERBERRIN,O'Connor,Mr Rick Wilson MP,rick.wilson.mp@aph.gov.au,,,,,,,,,,,,,,
WA,6352,NORTH KUKERIN,O'Connor,Mr Rick Wilson MP,rick.wilson.mp@aph.gov.au,,,,,,,,,,,,,,
WA,6489,NORTH KUNUNOPPIN,O'Connor,Mr Rick Wilson MP,rick.wilson.mp@aph.gov.au,,,,,,,,,,,,,,
WA,6353,NORTH LAKE GRACE,O'Connor,Mr Rick Wilson MP,rick.wilson.mp@aph.gov.au,,,,,,,,,,,,,,
WA,6351,NORTH MOULYINNING,O'Connor,Mr Rick Wilson MP,rick.wilson.mp@aph.gov.au,,,,,,,,,,,,,,
WA,6338,NORTH STIRLINGS,O'Connor,Mr Rick Wilson MP,rick.wilson.mp@aph.gov.au,,,,,,,,,,,,,,
WA,6409,NORTH TAMMIN,O'Connor,Mr Rick Wilson MP,rick.wilson.mp@aph.gov.au,,,,,,,,,,,,,,
WA,6488,NORTH TRAYNING,O'Connor,Mr Rick Wilson MP,rick.wilson.mp@aph.gov.au,,,,,,,,,,,,,,
WA,6398,NORTH WALPOLE,O'Connor,Mr Rick Wilson MP,rick.wilson.mp@aph.gov.au,,,,,,,,,,,,,,
WA,6473,NORTH WIALKI,O'Connor,Mr Rick Wilson MP,rick.wilson.mp@aph.gov.au,,,,,,,,,,,,,,
WA,6487,NORTH YELBENI,O'Connor,Mr Rick Wilson MP,rick.wilson.mp@aph.gov.au,,,,,,,,,,,,,,
WA,6262,NORTHCLIFFE,O'Connor,Mr Rick Wilson MP,rick.wilson.mp@aph.gov.au,,,,,,,,,,,,,,
WA,6480,NUKARNI,O'Connor,Mr Rick Wilson MP,rick.wilson.mp@aph.gov.au,,,,,,,,,,,,,,
WA,6330,NULLAKI,O'Connor,Mr Rick Wilson MP,rick.wilson.mp@aph.gov.au,,,,,,,,,,,,,,
WA,6450,NULSEN,O'Connor,Mr Rick Wilson MP,rick.wilson.mp@aph.gov.au,,,,,,,,,,,,,,
WA,6490,NUNGARIN,O'Connor,Mr Rick Wilson MP,rick.wilson.mp@aph.gov.au,,,,,,,,,,,,,,
WA,6341,NYABING,O'Connor,Mr Rick Wilson MP,rick.wilson.mp@aph.gov.au,,,,,,,,,,,,,,
WA,6333,OCEAN BEACH,O'Connor,Mr Rick Wilson MP,rick.wilson.mp@aph.gov.au,,,,,,,,,,,,,,
WA,6336,ONGERUP,O'Connor,Mr Rick Wilson MP,rick.wilson.mp@aph.gov.au,,,,,,,,,,,,,,
WA,6431,ORA BANDA,O'Connor,Mr Rick Wilson MP,rick.wilson.mp@aph.gov.au,,,,,,,,,,,,,,
WA,6330,ORANA,O'Connor,Mr Rick Wilson MP,rick.wilson.mp@aph.gov.au,,,,,,,,,,,,,,
WA,6394,ORCHID VALLEY,O'Connor,Mr Rick Wilson MP,rick.wilson.mp@aph.gov.au,,,,,,,,,,,,,,
WA,6330,OYSTER HARBOUR,O'Connor,Mr Rick Wilson MP,rick.wilson.mp@aph.gov.au,,,,,,,,,,,,,,
WA,6258,PALGARUP,O'Connor,Mr Rick Wilson MP,rick.wilson.mp@aph.gov.au,,,,,,,,,,,,,,
WA,6335,PALLINUP,O'Connor,Mr Rick Wilson MP,rick.wilson.mp@aph.gov.au,,,,,,,,,,,,,,
WA,6328,PALMDALE,O'Connor,Mr Rick Wilson MP,rick.wilson.mp@aph.gov.au,,,,,,,,,,,,,,
WA,6225,PALMER,O'Connor,Mr Rick Wilson MP,rick.wilson.mp@aph.gov.au,,,,,,,,,,,,,,
WA,6384,PANTAPIN,O'Connor,Mr Rick Wilson MP,rick.wilson.mp@aph.gov.au,,,,,,,,,,,,,,
WA,6434,PARKESTON,O'Connor,Mr Rick Wilson MP,rick.wilson.mp@aph.gov.au,,,,,,,,,,,,,,
WA,6333,PARRYVILLE,O'Connor,Mr Rick Wilson MP,rick.wilson.mp@aph.gov.au,,,,,,,,,,,,,,
WA,6333,PEACEFUL BAY,O'Connor,Mr Rick Wilson MP,rick.wilson.mp@aph.gov.au,,,,,,,,,,,,,,
WA,6260,PEERABEELUP,O'Connor,Mr Rick Wilson MP,rick.wilson.mp@aph.gov.au,,,,,,,,,,,,,,
WA,6260,PEMBERTON,O'Connor,Mr Rick Wilson MP,rick.wilson.mp@aph.gov.au,,,,,,,,,,,,,,
WA,6324,PERILLUP,O'Connor,Mr Rick Wilson MP,rick.wilson.mp@aph.gov.au,,,,,,,,,,,,,,
WA,6258,PERUP,O'Connor,Mr Rick Wilson MP,rick.wilson.mp@aph.gov.au,,,,,,,,,,,,,,
WA,6430,PICCADILLY,O'Connor,Mr Rick Wilson MP,rick.wilson.mp@aph.gov.au,,,,,,,,,,,,,,
WA,6315,PIESSEVILLE,O'Connor,Mr Rick Wilson MP,rick.wilson.mp@aph.gov.au,,,,,,,,,,,,,,
WA,6357,PINGARING,O'Connor,Mr Rick Wilson MP,rick.wilson.mp@aph.gov.au,,,,,,,,,,,,,,
WA,6308,PINGELLY,O'Connor,Mr Rick Wilson MP,rick.wilson.mp@aph.gov.au,,,,,,,,,,,,,,
WA,6343,PINGRUP,O'Connor,Mr Rick Wilson MP,rick.wilson.mp@aph.gov.au,,,,,,,,,,,,,,
WA,6450,PINK LAKE,O'Connor,Mr Rick Wilson MP,rick.wilson.mp@aph.gov.au,,,,,,,,,,,,,,
WA,6317,PINWERNYING,O'Connor,Mr Rick Wilson MP,rick.wilson.mp@aph.gov.au,,,,,,,,,,,,,,
WA,6431,PLUMRIDGE LAKES,O'Connor,Mr Rick Wilson MP,rick.wilson.mp@aph.gov.au,,,,,,,,,,,,,,
WA,6309,POPANYINNING,O'Connor,Mr Rick Wilson MP,rick.wilson.mp@aph.gov.au,,,,,,,,,,,,,,
WA,6324,PORONGURUP,O'Connor,Mr Rick Wilson MP,rick.wilson.mp@aph.gov.au,,,,,,,,,,,,,,
WA,6330,PORT ALBANY,O'Connor,Mr Rick Wilson MP,rick.wilson.mp@aph.gov.au,,,,,,,,,,,,,,
WA,6225,PRESTON SETTLEMENT,O'Connor,Mr Rick Wilson MP,rick.wilson.mp@aph.gov.au,,,,,,,,,,,,,,
WA,6308,PUMPHREYS BRIDGE,O'Connor,Mr Rick Wilson MP,rick.wilson.mp@aph.gov.au,,,,,,,,,,,,,,
WA,6383,QUAIRADING,O'Connor,Mr Rick Wilson MP,rick.wilson.mp@aph.gov.au,,,,,,,,,,,,,,
WA,6394,QUALEUP,O'Connor,Mr Rick Wilson MP,rick.wilson.mp@aph.gov.au,,,,,,,,,,,,,,
WA,6405,QUELAGETTING,O'Connor,Mr Rick Wilson MP,rick.wilson.mp@aph.gov.au,,,,,,,,,,,,,,
WA,6391,QUINDANNING,O'Connor,Mr Rick Wilson MP,rick.wilson.mp@aph.gov.au,,,,,,,,,,,,,,
WA,6258,QUINNINUP,O'Connor,Mr Rick Wilson MP,rick.wilson.mp@aph.gov.au,,,,,,,,,,,,,,
WA,6390,RANFORD,O'Connor,Mr Rick Wilson MP,rick.wilson.mp@aph.gov.au,,,,,,,,,,,,,,
WA,6346,RAVENSTHORPE,O'Connor,Mr Rick Wilson MP,rick.wilson.mp@aph.gov.au,,,,,,,,,,,,,,
WA,6434,RAWLINNA,O'Connor,Mr Rick Wilson MP,rick.wilson.mp@aph.gov.au,,,,,,,,,,,,,,
WA,6327,REDMOND,O'Connor,Mr Rick Wilson MP,rick.wilson.mp@aph.gov.au,,,,,,,,,,,,,,
WA,6327,REDMOND WEST,O'Connor,Mr Rick Wilson MP,rick.wilson.mp@aph.gov.au,,,,,,,,,,,,,,
WA,6472,REMLAP,O'Connor,Mr Rick Wilson MP,rick.wilson.mp@aph.gov.au,,,,,,,,,,,,,,
WA,6258,RINGBARK,O'Connor,Mr Rick Wilson MP,rick.wilson.mp@aph.gov.au,,,,,,,,,,,,,,
WA,6330,ROBINSON,O'Connor,Mr Rick Wilson MP,rick.wilson.mp@aph.gov.au,,,,,,,,,,,,,,
WA,6397,ROCKY GULLY,O'Connor,Mr Rick Wilson MP,rick.wilson.mp@aph.gov.au,,,,,,,,,,,,,,
WA,6395,RYANSBROOK,O'Connor,Mr Rick Wilson MP,rick.wilson.mp@aph.gov.au,,,,,,,,,,,,,,
WA,6445,SALMON GUMS,O'Connor,Mr Rick Wilson MP,rick.wilson.mp@aph.gov.au,,,,,,,,,,,,,,
WA,6330,SANDPATCH,O'Connor,Mr Rick Wilson MP,rick.wilson.mp@aph.gov.au,,,,,,,,,,,,,,
WA,6447,SCADDAN,O'Connor,Mr Rick Wilson MP,rick.wilson.mp@aph.gov.au,,,,,,,,,,,,,,
WA,6333,SCOTSDALE,O'Connor,Mr Rick Wilson MP,rick.wilson.mp@aph.gov.au,,,,,,,,,,,,,,
WA,6275,SCOTT RIVER EAST,O'Connor,Mr Rick Wilson MP,rick.wilson.mp@aph.gov.au,,,,,,,,,,,,,,
WA,6244,SCOTTS BROOK,O'Connor,Mr Rick Wilson MP,rick.wilson.mp@aph.gov.au,,,,,,,,,,,,,,
WA,6330,SEPPINGS,O'Connor,Mr Rick Wilson MP,rick.wilson.mp@aph.gov.au,,,,,,,,,,,,,,
WA,6386,SHACKLETON,O'Connor,Mr Rick Wilson MP,rick.wilson.mp@aph.gov.au,,,,,,,,,,,,,,
WA,6333,SHADFORTH,O'Connor,Mr Rick Wilson MP,rick.wilson.mp@aph.gov.au,,,,,,,,,,,,,,
WA,6262,SHANNON,O'Connor,Mr Rick Wilson MP,rick.wilson.mp@aph.gov.au,,,,,,,,,,,,,,
WA,6225,SHOTTS,O'Connor,Mr Rick Wilson MP,rick.wilson.mp@aph.gov.au,,,,,,,,,,,,,,
WA,6450,SINCLAIR,O'Connor,Mr Rick Wilson MP,rick.wilson.mp@aph.gov.au,,,,,,,,,,,,,,
WA,6437,SIR SAMUEL,O'Connor,Mr Rick Wilson MP,rick.wilson.mp@aph.gov.au,,,,,,,,,,,,,,
WA,6426,SKELETON ROCK,O'Connor,Mr Rick Wilson MP,rick.wilson.mp@aph.gov.au,,,,,,,,,,,,,,
WA,6258,SMITH BROOK,O'Connor,Mr Rick Wilson MP,rick.wilson.mp@aph.gov.au,,,,,,,,,,,,,,
WA,6430,SOMERVILLE,O'Connor,Mr Rick Wilson MP,rick.wilson.mp@aph.gov.au,,,,,,,,,,,,,,
WA,6424,SOUTH BODALLIN,O'Connor,Mr Rick Wilson MP,rick.wilson.mp@aph.gov.au,,,,,,,,,,,,,,
WA,6432,SOUTH BOULDER,O'Connor,Mr Rick Wilson MP,rick.wilson.mp@aph.gov.au,,,,,,,,,,,,,,
WA,6421,SOUTH BURRACOPPIN,O'Connor,Mr Rick Wilson MP,rick.wilson.mp@aph.gov.au,,,,,,,,,,,,,,
WA,6317,SOUTH DATATINE,O'Connor,Mr Rick Wilson MP,rick.wilson.mp@aph.gov.au,,,,,,,,,,,,,,
WA,6411,SOUTH DOODLAKINE,O'Connor,Mr Rick Wilson MP,rick.wilson.mp@aph.gov.au,,,,,,,,,,,,,,
WA,6317,SOUTH GLENCOE,O'Connor,Mr Rick Wilson MP,rick.wilson.mp@aph.gov.au,,,,,,,,,,,,,,
WA,6430,SOUTH KALGOORLIE,O'Connor,Mr Rick Wilson MP,rick.wilson.mp@aph.gov.au,,,,,,,,,,,,,,
WA,6352,SOUTH KUKERIN,O'Connor,Mr Rick Wilson MP,rick.wilson.mp@aph.gov.au,,,,,,,,,,,,,,
WA,6368,SOUTH KUMMININ,O'Connor,Mr Rick Wilson MP,rick.wilson.mp@aph.gov.au,,,,,,,,,,,,,,
WA,6489,SOUTH KUNUNOPPIN,O'Connor,Mr Rick Wilson MP,rick.wilson.mp@aph.gov.au,,,,,,,,,,,,,,
WA,6353,SOUTH LAKE GRACE,O'Connor,Mr Rick Wilson MP,rick.wilson.mp@aph.gov.au,,,,,,,,,,,,,,
WA,6355,SOUTH NEWDEGATE,O'Connor,Mr Rick Wilson MP,rick.wilson.mp@aph.gov.au,,,,,,,,,,,,,,
WA,6383,SOUTH QUAIRADING,O'Connor,Mr Rick Wilson MP,rick.wilson.mp@aph.gov.au,,,,,,,,,,,,,,
WA,6324,SOUTH STIRLING,O'Connor,Mr Rick Wilson MP,rick.wilson.mp@aph.gov.au,,,,,,,,,,,,,,
WA,6409,SOUTH TAMMIN,O'Connor,Mr Rick Wilson MP,rick.wilson.mp@aph.gov.au,,,,,,,,,,,,,,
WA,6488,SOUTH TRAYNING,O'Connor,Mr Rick Wilson MP,rick.wilson.mp@aph.gov.au,,,,,,,,,,,,,,
WA,6487,SOUTH YELBENI,O'Connor,Mr Rick Wilson MP,rick.wilson.mp@aph.gov.au,,,,,,,,,,,,,,
WA,6426,SOUTH YILGARN,O'Connor,Mr Rick Wilson MP,rick.wilson.mp@aph.gov.au,,,,,,,,,,,,,,
WA,6426,SOUTHERN CROSS,O'Connor,Mr Rick Wilson MP,rick.wilson.mp@aph.gov.au,,,,,,,,,,,,,,
WA,6330,SPENCER PARK,O'Connor,Mr Rick Wilson MP,rick.wilson.mp@aph.gov.au,,,,,,,,,,,,,,
WA,6308,SPRINGS,O'Connor,Mr Rick Wilson MP,rick.wilson.mp@aph.gov.au,,,,,,,,,,,,,,
WA,6338,STIRLING RANGE NAT PARK,O'Connor,Mr Rick Wilson MP,rick.wilson.mp@aph.gov.au,,,,,,,,,,,,,,
WA,6309,STRATHERNE,O'Connor,Mr Rick Wilson MP,rick.wilson.mp@aph.gov.au,,,,,,,,,,,,,,
WA,6256,SUNNYSIDE,O'Connor,Mr Rick Wilson MP,rick.wilson.mp@aph.gov.au,,,,,,,,,,,,,,
WA,6324,TAKALARUP,O'Connor,Mr Rick Wilson MP,rick.wilson.mp@aph.gov.au,,,,,,,,,,,,,,
WA,6302,TALBOT WEST,O'Connor,Mr Rick Wilson MP,rick.wilson.mp@aph.gov.au,,,,,,,,,,,,,,
WA,6490,TALGOMINE,O'Connor,Mr Rick Wilson MP,rick.wilson.mp@aph.gov.au,,,,,,,,,,,,,,
WA,6320,TAMBELLUP,O'Connor,Mr Rick Wilson MP,rick.wilson.mp@aph.gov.au,,,,,,,,,,,,,,
WA,6409,TAMMIN,O'Connor,Mr Rick Wilson MP,rick.wilson.mp@aph.gov.au,,,,,,,,,,,,,,
WA,6472,TAMPU,O'Connor,Mr Rick Wilson MP,rick.wilson.mp@aph.gov.au,,,,,,,,,,,,,,
WA,6415,TANDEGIN,O'Connor,Mr Rick Wilson MP,rick.wilson.mp@aph.gov.au,,,,,,,,,,,,,,
WA,6353,TARIN ROCK,O'Connor,Mr Rick Wilson MP,rick.wilson.mp@aph.gov.au,,,,,,,,,,,,,,
WA,6322,TENTERDEN,O'Connor,Mr Rick Wilson MP,rick.wilson.mp@aph.gov.au,,,,,,,,,,,,,,
WA,6361,TINCURRIN,O'Connor,Mr Rick Wilson MP,rick.wilson.mp@aph.gov.au,,,,,,,,,,,,,,
WA,6333,TINGLEDALE,O'Connor,Mr Rick Wilson MP,rick.wilson.mp@aph.gov.au,,,,,,,,,,,,,,
WA,6244,TONEBRIDGE,O'Connor,Mr Rick Wilson MP,rick.wilson.mp@aph.gov.au,,,,,,,,,,,,,,
WA,6312,TOOLIBIN,O'Connor,Mr Rick Wilson MP,rick.wilson.mp@aph.gov.au,,,,,,,,,,,,,,
WA,6336,TOOMPUP,O'Connor,Mr Rick Wilson MP,rick.wilson.mp@aph.gov.au,,,,,,,,,,,,,,
WA,6330,TORBAY,O'Connor,Mr Rick Wilson MP,rick.wilson.mp@aph.gov.au,,,,,,,,,,,,,,
WA,6330,TORNDIRRUP,O'Connor,Mr Rick Wilson MP,rick.wilson.mp@aph.gov.au,,,,,,,,,,,,,,
WA,6311,TOWNSENDALE,O'Connor,Mr Rick Wilson MP,rick.wilson.mp@aph.gov.au,,,,,,,,,,,,,,
WA,6488,TRAYNING,O'Connor,Mr Rick Wilson MP,rick.wilson.mp@aph.gov.au,,,,,,,,,,,,,,
WA,6333,TRENT,O'Connor,Mr Rick Wilson MP,rick.wilson.mp@aph.gov.au,,,,,,,,,,,,,,
WA,6244,TRIGWELL,O'Connor,Mr Rick Wilson MP,rick.wilson.mp@aph.gov.au,,,,,,,,,,,,,,
WA,6426,TURKEY HILL,O'Connor,Mr Rick Wilson MP,rick.wilson.mp@aph.gov.au,,,,,,,,,,,,,,
WA,6330,TWO PEOPLES BAY,O'Connor,Mr Rick Wilson MP,rick.wilson.mp@aph.gov.au,,,,,,,,,,,,,,
WA,6436,ULARRING,O'Connor,Mr Rick Wilson MP,rick.wilson.mp@aph.gov.au,,,,,,,,,,,,,,
WA,6390,UPPER MURRAY,O'Connor,Mr Rick Wilson MP,rick.wilson.mp@aph.gov.au,,,,,,,,,,,,,,
WA,6258,UPPER WARREN,O'Connor,Mr Rick Wilson MP,rick.wilson.mp@aph.gov.au,,,,,,,,,,,,,,
WA,6330,VANCOUVER PENINSULA,O'Connor,Mr Rick Wilson MP,rick.wilson.mp@aph.gov.au,,,,,,,,,,,,,,
WA,6355,VARLEY,O'Connor,Mr Rick Wilson MP,rick.wilson.mp@aph.gov.au,,,,,,,,,,,,,,
WA,6432,VICTORY HEIGHTS,O'Connor,Mr Rick Wilson MP,rick.wilson.mp@aph.gov.au,,,,,,,,,,,,,,
WA,6369,WADDERIN,O'Connor,Mr Rick Wilson MP,rick.wilson.mp@aph.gov.au,,,,,,,,,,,,,,
WA,6407,WAEEL,O'Connor,Mr Rick Wilson MP,rick.wilson.mp@aph.gov.au,,,,,,,,,,,,,,
WA,6315,WAGIN,O'Connor,Mr Rick Wilson MP,rick.wilson.mp@aph.gov.au,,,,,,,,,,,,,,
WA,6422,WALGOOLAN,O'Connor,Mr Rick Wilson MP,rick.wilson.mp@aph.gov.au,,,,,,,,,,,,,,
WA,6330,WALMSLEY,O'Connor,Mr Rick Wilson MP,rick.wilson.mp@aph.gov.au,,,,,,,,,,,,,,
WA,6398,WALPOLE,O'Connor,Mr Rick Wilson MP,rick.wilson.mp@aph.gov.au,,,,,,,,,,,,,,
WA,6363,WALYURIN,O'Connor,Mr Rick Wilson MP,rick.wilson.mp@aph.gov.au,,,,,,,,,,,,,,
WA,6383,WAMENUSKING,O'Connor,Mr Rick Wilson MP,rick.wilson.mp@aph.gov.au,,,,,,,,,,,,,,
WA,6308,WANDERING,O'Connor,Mr Rick Wilson MP,rick.wilson.mp@aph.gov.au,,,,,,,,,,,,,,
WA,6256,WANDILLUP,O'Connor,Mr Rick Wilson MP,rick.wilson.mp@aph.gov.au,,,,,,,,,,,,,,
WA,6320,WANSBROUGH,O'Connor,Mr Rick Wilson MP,rick.wilson.mp@aph.gov.au,,,,,,,,,,,,,,
WA,6431,WARBURTON,O'Connor,Mr Rick Wilson MP,rick.wilson.mp@aph.gov.au,,,,,,,,,,,,,,
WA,6311,WARDERING,O'Connor,Mr Rick Wilson MP,rick.wilson.mp@aph.gov.au,,,,,,,,,,,,,,
WA,6405,WARDING EAST,O'Connor,Mr Rick Wilson MP,rick.wilson.mp@aph.gov.au,,,,,,,,,,,,,,
WA,6423,WARRACHUPPIN,O'Connor,Mr Rick Wilson MP,rick.wilson.mp@aph.gov.au,,,,,,,,,,,,,,
WA,6421,WARRALAKIN,O'Connor,Mr Rick Wilson MP,rick.wilson.mp@aph.gov.au,,,,,,,,,,,,,,
WA,6330,WARRENUP,O'Connor,Mr Rick Wilson MP,rick.wilson.mp@aph.gov.au,,,,,,,,,,,,,,
WA,6407,WATERCARRIN,O'Connor,Mr Rick Wilson MP,rick.wilson.mp@aph.gov.au,,,,,,,,,,,,,,
WA,6479,WATTONING,O'Connor,Mr Rick Wilson MP,rick.wilson.mp@aph.gov.au,,,,,,,,,,,,,,
WA,6315,WEDGECARRUP,O'Connor,Mr Rick Wilson MP,rick.wilson.mp@aph.gov.au,,,,,,,,,,,,,,
WA,6477,WELBUNGIN,O'Connor,Mr Rick Wilson MP,rick.wilson.mp@aph.gov.au,,,,,,,,,,,,,,
WA,6328,WELLSTEAD,O'Connor,Mr Rick Wilson MP,rick.wilson.mp@aph.gov.au,,,,,,,,,,,,,,
WA,6450,WEST BEACH,O'Connor,Mr Rick Wilson MP,rick.wilson.mp@aph.gov.au,,,,,,,,,,,,,,
WA,6330,WEST CAPE HOWE,O'Connor,Mr Rick Wilson MP,rick.wilson.mp@aph.gov.au,,,,,,,,,,,,,,
WA,6337,WEST FITZGERALD,O'Connor,Mr Rick Wilson MP,rick.wilson.mp@aph.gov.au,,,,,,,,,,,,,,
WA,6369,WEST HOLLETON,O'Connor,Mr Rick Wilson MP,rick.wilson.mp@aph.gov.au,,,,,,,,,,,,,,
WA,6430,WEST KALGOORLIE,O'Connor,Mr Rick Wilson MP,rick.wilson.mp@aph.gov.au,,,,,,,,,,,,,,
WA,6430,WEST LAMINGTON,O'Connor,Mr Rick Wilson MP,rick.wilson.mp@aph.gov.au,,,,,,,,,,,,,,
WA,6308,WEST PINGELLY,O'Connor,Mr Rick Wilson MP,rick.wilson.mp@aph.gov.au,,,,,,,,,,,,,,
WA,6309,WEST POPANYINNING,O'Connor,Mr Rick Wilson MP,rick.wilson.mp@aph.gov.au,,,,,,,,,,,,,,
WA,6346,WEST RIVER,O'Connor,Mr Rick Wilson MP,rick.wilson.mp@aph.gov.au,,,,,,,,,,,,,,
WA,6304,WESTDALE,O'Connor,Mr Rick Wilson MP,rick.wilson.mp@aph.gov.au,,,,,,,,,,,,,,
WA,6423,WESTONIA,O'Connor,Mr Rick Wilson MP,rick.wilson.mp@aph.gov.au,,,,,,,,,,,,,,
WA,6316,WESTWOOD,O'Connor,Mr Rick Wilson MP,rick.wilson.mp@aph.gov.au,,,,,,,,,,,,,,
WA,6473,WIALKI,O'Connor,Mr Rick Wilson MP,rick.wilson.mp@aph.gov.au,,,,,,,,,,,,,,
WA,6370,WICKEPIN,O'Connor,Mr Rick Wilson MP,rick.wilson.mp@aph.gov.au,,,,,,,,,,,,,,
WA,6443,WIDGIEMOOLTHA,O'Connor,Mr Rick Wilson MP,rick.wilson.mp@aph.gov.au,,,,,,,,,,,,,,
WA,6243,WILGA,O'Connor,Mr Rick Wilson MP,rick.wilson.mp@aph.gov.au,,,,,,,,,,,,,,
WA,6258,WILGARRUP,O'Connor,Mr Rick Wilson MP,rick.wilson.mp@aph.gov.au,,,,,,,,,,,,,,
WA,6479,WILGOYNE,O'Connor,Mr Rick Wilson MP,rick.wilson.mp@aph.gov.au,,,,,,,,,,,,,,
WA,6333,WILLIAM BAY,O'Connor,Mr Rick Wilson MP,rick.wilson.mp@aph.gov.au,,,,,,,,,,,,,,
WA,6391,WILLIAMS,O'Connor,Mr Rick Wilson MP,rick.wilson.mp@aph.gov.au,,,,,,,,,,,,,,
WA,6430,WILLIAMSTOWN,O'Connor,Mr Rick Wilson MP,rick.wilson.mp@aph.gov.au,,,,,,,,,,,,,,
WA,6330,WILLYUNG,O'Connor,Mr Rick Wilson MP,rick.wilson.mp@aph.gov.au,,,,,,,,,,,,,,
WA,6646,WILUNA,O'Connor,Mr Rick Wilson MP,rick.wilson.mp@aph.gov.au,,,,,,,,,,,,,,
WA,6450,WINDABOUT,O'Connor,Mr Rick Wilson MP,rick.wilson.mp@aph.gov.au,,,,,,,,,,,,,,
WA,6262,WINDY HARBOUR,O'Connor,Mr Rick Wilson MP,rick.wilson.mp@aph.gov.au,,,,,,,,,,,,,,
WA,6255,WINNEJUP,O'Connor,Mr Rick Wilson MP,rick.wilson.mp@aph.gov.au,,,,,,,,,,,,,,
WA,6447,WITTENOOM HILLS,O'Connor,Mr Rick Wilson MP,rick.wilson.mp@aph.gov.au,,,,,,,,,,,,,,
WA,6370,WOGOLIN,O'Connor,Mr Rick Wilson MP,rick.wilson.mp@aph.gov.au,,,,,,,,,,,,,,
WA,6316,WOODANILLING,O'Connor,Mr Rick Wilson MP,rick.wilson.mp@aph.gov.au,,,,,,,,,,,,,,
WA,6450,WOODY ISLAND,O'Connor,Mr Rick Wilson MP,rick.wilson.mp@aph.gov.au,,,,,,,,,,,,,,
WA,6324,WOOGENELLUP,O'Connor,Mr Rick Wilson MP,rick.wilson.mp@aph.gov.au,,,,,,,,,,,,,,
WA,6369,WOOLOCUTTY,O'Connor,Mr Rick Wilson MP,rick.wilson.mp@aph.gov.au,,,,,,,,,,,,,,
WA,6225,WORSLEY,O'Connor,Mr Rick Wilson MP,rick.wilson.mp@aph.gov.au,,,,,,,,,,,,,,
WA,6390,WURAMING,O'Connor,Mr Rick Wilson MP,rick.wilson.mp@aph.gov.au,,,,,,,,,,,,,,
WA,6485,WYALKATCHEM,O'Connor,Mr Rick Wilson MP,rick.wilson.mp@aph.gov.au,,,,,,,,,,,,,,
WA,6407,WYOLA WEST,O'Connor,Mr Rick Wilson MP,rick.wilson.mp@aph.gov.au,,,,,,,,,,,,,,
WA,6330,YAKAMIA,O'Connor,Mr Rick Wilson MP,rick.wilson.mp@aph.gov.au,,,,,,,,,,,,,,
WA,6258,YANMAH,O'Connor,Mr Rick Wilson MP,rick.wilson.mp@aph.gov.au,,,,,,,,,,,,,,
WA,6431,YARRI,O'Connor,Mr Rick Wilson MP,rick.wilson.mp@aph.gov.au,,,,,,,,,,,,,,
WA,6260,YEAGARUP,O'Connor,Mr Rick Wilson MP,rick.wilson.mp@aph.gov.au,,,,,,,,,,,,,,
WA,6372,YEALERING,O'Connor,Mr Rick Wilson MP,rick.wilson.mp@aph.gov.au,,,,,,,,,,,,,,
WA,6487,YELBENI,O'Connor,Mr Rick Wilson MP,rick.wilson.mp@aph.gov.au,,,,,,,,,,,,,,
WA,6426,YELLOWDINE,O'Connor,Mr Rick Wilson MP,rick.wilson.mp@aph.gov.au,,,,,,,,,,,,,,
WA,6430,YILKARI,O'Connor,Mr Rick Wilson MP,rick.wilson.mp@aph.gov.au,,,,,,,,,,,,,,
WA,6312,YILLIMINNING,O'Connor,Mr Rick Wilson MP,rick.wilson.mp@aph.gov.au,,,,,,,,,,,,,,
WA,6311,YORNANING,O'Connor,Mr Rick Wilson MP,rick.wilson.mp@aph.gov.au,,,,,,,,,,,,,,
WA,6256,YORNUP,O'Connor,Mr Rick Wilson MP,rick.wilson.mp@aph.gov.au,,,,,,,,,,,,,,
WA,6383,YOTING,O'Connor,Mr Rick Wilson MP,rick.wilson.mp@aph.gov.au,,,,,,,,,,,,,,
WA,6407,YOUNDEGIN,O'Connor,Mr Rick Wilson MP,rick.wilson.mp@aph.gov.au,,,,,,,,,,,,,,
WA,6330,YOUNGS SIDING,O'Connor,Mr Rick Wilson MP,rick.wilson.mp@aph.gov.au,,,,,,,,,,,,,,
WA,6225,YOURDAMUNG LAKE,O'Connor,Mr Rick Wilson MP,rick.wilson.mp@aph.gov.au,,,,,,,,,,,,,,
WA,6167,ANKETELL,Brand,Hon Madeleine King MP,Madeleine.King.MP@aph.gov.au,,,,,,,,,,,,,,
WA,6171,BALDIVIS,Brand,Hon Madeleine King MP,Madeleine.King.MP@aph.gov.au,,,,,,,,,,,,,,
WA,6167,BERTRAM,Brand,Hon Madeleine King MP,Madeleine.King.MP@aph.gov.au,,,,,,,,,,,,,,
WA,6167,CALISTA,Brand,Hon Madeleine King MP,Madeleine.King.MP@aph.gov.au,,,,,,,,,,,,,,
WA,6167,CASUARINA,Brand,Hon Madeleine King MP,Madeleine.King.MP@aph.gov.au,,,,,,,,,,,,,,
WA,6168,COOLOONGUP,Brand,Hon Madeleine King MP,Madeleine.King.MP@aph.gov.au,,,,,,,,,,,,,,
WA,6168,EAST ROCKINGHAM,Brand,Hon Madeleine King MP,Madeleine.King.MP@aph.gov.au,,,,,,,,,,,,,,
WA,6168,GARDEN ISLAND,Brand,Hon Madeleine King MP,Madeleine.King.MP@aph.gov.au,,,,,,,,,,,,,,
WA,6174,GOLDEN BAY,Brand,Hon Madeleine King MP,Madeleine.King.MP@aph.gov.au,,,,,,,,,,,,,,
WA,6168,HILLMAN,Brand,Hon Madeleine King MP,Madeleine.King.MP@aph.gov.au,,,,,,,,,,,,,,
WA,6165,HOPE VALLEY,Brand,Hon Madeleine King MP,Madeleine.King.MP@aph.gov.au,,,,,,,,,,,,,,
WA,6176,KARNUP,Brand,Hon Madeleine King MP,Madeleine.King.MP@aph.gov.au,,,,,,,,,,,,,,
WA,6182,KERALUP,Brand,Hon Madeleine King MP,Madeleine.King.MP@aph.gov.au,,,,,,,,,,,,,,
WA,6167,KWINANA BEACH,Brand,Hon Madeleine King MP,Madeleine.King.MP@aph.gov.au,,,,,,,,,,,,,,
WA,6167,KWINANA TOWN CENTRE,Brand,Hon Madeleine King MP,Madeleine.King.MP@aph.gov.au,,,,,,,,,,,,,,
WA,6170,LEDA,Brand,Hon Madeleine King MP,Madeleine.King.MP@aph.gov.au,,,,,,,,,,,,,,
WA,6167,MANDOGALUP,Brand,Hon Madeleine King MP,Madeleine.King.MP@aph.gov.au,,,,,,,,,,,,,,
WA,6167,MEDINA,Brand,Hon Madeleine King MP,Madeleine.King.MP@aph.gov.au,,,,,,,,,,,,,,
WA,6165,NAVAL BASE,Brand,Hon Madeleine King MP,Madeleine.King.MP@aph.gov.au,,,,,,,,,,,,,,
WA,6167,ORELIA,Brand,Hon Madeleine King MP,Madeleine.King.MP@aph.gov.au,,,,,,,,,,,,,,
WA,6167,PARMELIA,Brand,Hon Madeleine King MP,Madeleine.King.MP@aph.gov.au,,,,,,,,,,,,,,
WA,6168,PERON,Brand,Hon Madeleine King MP,Madeleine.King.MP@aph.gov.au,,,,,,,,,,,,,,
WA,6168,POINT PERON,Brand,Hon Madeleine King MP,Madeleine.King.MP@aph.gov.au,,,,,,,,,,,,,,
WA,6172,PORT KENNEDY,Brand,Hon Madeleine King MP,Madeleine.King.MP@aph.gov.au,,,,,,,,,,,,,,
WA,6167,POSTANS,Brand,Hon Madeleine King MP,Madeleine.King.MP@aph.gov.au,,,,,,,,,,,,,,
WA,6168,ROCKINGHAM,Brand,Hon Madeleine King MP,Madeleine.King.MP@aph.gov.au,,,,,,,,,,,,,,
WA,6169,SAFETY BAY,Brand,Hon Madeleine King MP,Madeleine.King.MP@aph.gov.au,,,,,,,,,,,,,,
WA,6173,SECRET HARBOUR,Brand,Hon Madeleine King MP,Madeleine.King.MP@aph.gov.au,,,,,,,,,,,,,,
WA,6169,SHOALWATER,Brand,Hon Madeleine King MP,Madeleine.King.MP@aph.gov.au,,,,,,,,,,,,,,
WA,6175,SINGLETON,Brand,Hon Madeleine King MP,Madeleine.King.MP@aph.gov.au,,,,,,,,,,,,,,
WA,6167,THE SPECTACLES,Brand,Hon Madeleine King MP,Madeleine.King.MP@aph.gov.au,,,,,,,,,,,,,,
WA,6169,WAIKIKI,Brand,Hon Madeleine King MP,Madeleine.King.MP@aph.gov.au,,,,,,,,,,,,,,
WA,6167,WANDI,Brand,Hon Madeleine King MP,Madeleine.King.MP@aph.gov.au,,,,,,,,,,,,,,
WA,6169,WARNBRO,Brand,Hon Madeleine King MP,Madeleine.King.MP@aph.gov.au,,,,,,,,,,,,,,
WA,6170,WELLARD,Brand,Hon Madeleine King MP,Madeleine.King.MP@aph.gov.au,,,,,,,,,,,,,,
WA,6112,ARMADALE,Burt,Hon Matt Keogh MP,Matt.Keogh.MP@aph.gov.au,,,,,,,,,,,,,,
WA,6107,BECKENHAM,Burt,Hon Matt Keogh MP,Matt.Keogh.MP@aph.gov.au,,,,,,,,,,,,,,
WA,6112,BROOKDALE,Burt,Hon Matt Keogh MP,Matt.Keogh.MP@aph.gov.au,,,,,,,,,,,,,,
WA,6111,CAMILLO,Burt,Hon Matt Keogh MP,Matt.Keogh.MP@aph.gov.au,,,,,,,,,,,,,,
WA,6111,CHAMPION LAKES,Burt,Hon Matt Keogh MP,Matt.Keogh.MP@aph.gov.au,,,,,,,,,,,,,,
WA,6112,FORRESTDALE,Burt,Hon Matt Keogh MP,Matt.Keogh.MP@aph.gov.au,,,,,,,,,,,,,,
WA,6110,GOSNELLS,Burt,Hon Matt Keogh MP,Matt.Keogh.MP@aph.gov.au,,,,,,,,,,,,,,
WA,6112,HARRISDALE,Burt,Hon Matt Keogh MP,Matt.Keogh.MP@aph.gov.au,,,,,,,,,,,,,,
WA,6112,HAYNES,Burt,Hon Matt Keogh MP,Matt.Keogh.MP@aph.gov.au,,,,,,,,,,,,,,
WA,6112,HILBERT,Burt,Hon Matt Keogh MP,Matt.Keogh.MP@aph.gov.au,,,,,,,,,,,,,,
WA,6110,HUNTINGDALE,Burt,Hon Matt Keogh MP,Matt.Keogh.MP@aph.gov.au,,,,,,,,,,,,,,
WA,6111,KELMSCOTT,Burt,Hon Matt Keogh MP,Matt.Keogh.MP@aph.gov.au,,,,,,,,,,,,,,
WA,6107,KENWICK,Burt,Hon Matt Keogh MP,Matt.Keogh.MP@aph.gov.au,,,,,,,,,,,,,,
WA,6147,LANGFORD,Burt,Hon Matt Keogh MP,Matt.Keogh.MP@aph.gov.au,,,,,,,,,,,,,,
WA,6109,MADDINGTON,Burt,Hon Matt Keogh MP,Matt.Keogh.MP@aph.gov.au,,,,,,,,,,,,,,
WA,6110,MARTIN,Burt,Hon Matt Keogh MP,Matt.Keogh.MP@aph.gov.au,,,,,,,,,,,,,,
WA,6112,MT NASURA,Burt,Hon Matt Keogh MP,Matt.Keogh.MP@aph.gov.au,,,,,,,,,,,,,,
WA,6109,ORANGE GROVE,Burt,Hon Matt Keogh MP,Matt.Keogh.MP@aph.gov.au,,,,,,,,,,,,,,
WA,6112,PIARA WATERS,Burt,Hon Matt Keogh MP,Matt.Keogh.MP@aph.gov.au,,,,,,,,,,,,,,
WA,6112,SEVILLE GROVE,Burt,Hon Matt Keogh MP,Matt.Keogh.MP@aph.gov.au,,,,,,,,,,,,,,
WA,6110,SOUTHERN RIVER,Burt,Hon Matt Keogh MP,Matt.Keogh.MP@aph.gov.au,,,,,,,,,,,,,,
WA,6108,THORNLIE,Burt,Hon Matt Keogh MP,Matt.Keogh.MP@aph.gov.au,,,,,,,,,,,,,,
WA,6112,WUNGONG,Burt,Hon Matt Keogh MP,Matt.Keogh.MP@aph.gov.au,,,,,,,,,,,,,,
WA,6111,ASHENDON,Canning,Hon Andrew Hastie MP,Andrew.Hastie.MP@aph.gov.au,,,,,,,,,,,,,,
WA,6209,BARRAGUP,Canning,Hon Andrew Hastie MP,Andrew.Hastie.MP@aph.gov.au,,,,,,,,,,,,,,
WA,6112,BEDFORDALE,Canning,Hon Andrew Hastie MP,Andrew.Hastie.MP@aph.gov.au,,,,,,,,,,,,,,
WA,6214,BIRCHMONT,Canning,Hon Andrew Hastie MP,Andrew.Hastie.MP@aph.gov.au,,,,,,,,,,,,,,
WA,6208,BLYTHEWOOD,Canning,Hon Andrew Hastie MP,Andrew.Hastie.MP@aph.gov.au,,,,,,,,,,,,,,
WA,6211,BOUVARD,Canning,Hon Andrew Hastie MP,Andrew.Hastie.MP@aph.gov.au,,,,,,,,,,,,,,
WA,6122,BYFORD,Canning,Hon Andrew Hastie MP,Andrew.Hastie.MP@aph.gov.au,,,,,,,,,,,,,,
WA,6111,CANNING MILLS,Canning,Hon Andrew Hastie MP,Andrew.Hastie.MP@aph.gov.au,,,,,,,,,,,,,,
WA,6122,CARDUP,Canning,Hon Andrew Hastie MP,Andrew.Hastie.MP@aph.gov.au,,,,,,,,,,,,,,
WA,6076,CARMEL,Canning,Hon Andrew Hastie MP,Andrew.Hastie.MP@aph.gov.au,,,,,,,,,,,,,,
WA,6210,COODANUP,Canning,Hon Andrew Hastie MP,Andrew.Hastie.MP@aph.gov.au,,,,,,,,,,,,,,
WA,6214,COOLUP,Canning,Hon Andrew Hastie MP,Andrew.Hastie.MP@aph.gov.au,,,,,,,,,,,,,,
WA,6122,DARLING DOWNS,Canning,Hon Andrew Hastie MP,Andrew.Hastie.MP@aph.gov.au,,,,,,,,,,,,,,
WA,6211,DAWESVILLE,Canning,Hon Andrew Hastie MP,Andrew.Hastie.MP@aph.gov.au,,,,,,,,,,,,,,
WA,6210,DUDLEY PARK,Canning,Hon Andrew Hastie MP,Andrew.Hastie.MP@aph.gov.au,,,,,,,,,,,,,,
WA,6213,DWELLINGUP,Canning,Hon Andrew Hastie MP,Andrew.Hastie.MP@aph.gov.au,,,,,,,,,,,,,,
WA,6210,ERSKINE,Canning,Hon Andrew Hastie MP,Andrew.Hastie.MP@aph.gov.au,,,,,,,,,,,,,,
WA,6208,FAIRBRIDGE,Canning,Hon Andrew Hastie MP,Andrew.Hastie.MP@aph.gov.au,,,,,,,,,,,,,,
WA,6210,FALCON,Canning,Hon Andrew Hastie MP,Andrew.Hastie.MP@aph.gov.au,,,,,,,,,,,,,,
WA,6209,FURNISSDALE,Canning,Hon Andrew Hastie MP,Andrew.Hastie.MP@aph.gov.au,,,,,,,,,,,,,,
WA,6210,GREENFIELDS,Canning,Hon Andrew Hastie MP,Andrew.Hastie.MP@aph.gov.au,,,,,,,,,,,,,,
WA,6210,HALLS HEAD,Canning,Hon Andrew Hastie MP,Andrew.Hastie.MP@aph.gov.au,,,,,,,,,,,,,,
WA,6215,HAMEL,Canning,Hon Andrew Hastie MP,Andrew.Hastie.MP@aph.gov.au,,,,,,,,,,,,,,
WA,6211,HERRON,Canning,Hon Andrew Hastie MP,Andrew.Hastie.MP@aph.gov.au,,,,,,,,,,,,,,
WA,6112,HILBERT,Canning,Hon Andrew Hastie MP,Andrew.Hastie.MP@aph.gov.au,,,,,,,,,,,,,,
WA,6213,HOLYOAKE,Canning,Hon Andrew Hastie MP,Andrew.Hastie.MP@aph.gov.au,,,,,,,,,,,,,,
WA,6125,HOPELAND,Canning,Hon Andrew Hastie MP,Andrew.Hastie.MP@aph.gov.au,,,,,,,,,,,,,,
WA,6213,INGLEHOPE,Canning,Hon Andrew Hastie MP,Andrew.Hastie.MP@aph.gov.au,,,,,,,,,,,,,,
WA,6124,JARRAHDALE,Canning,Hon Andrew Hastie MP,Andrew.Hastie.MP@aph.gov.au,,,,,,,,,,,,,,
WA,6111,KARRAGULLEN,Canning,Hon Andrew Hastie MP,Andrew.Hastie.MP@aph.gov.au,,,,,,,,,,,,,,
WA,6122,KARRAKUP,Canning,Hon Andrew Hastie MP,Andrew.Hastie.MP@aph.gov.au,,,,,,,,,,,,,,
WA,6126,KEYSBROOK,Canning,Hon Andrew Hastie MP,Andrew.Hastie.MP@aph.gov.au,,,,,,,,,,,,,,
WA,6215,LAKE CLIFTON,Canning,Hon Andrew Hastie MP,Andrew.Hastie.MP@aph.gov.au,,,,,,,,,,,,,,
WA,6180,LAKELANDS,Canning,Hon Andrew Hastie MP,Andrew.Hastie.MP@aph.gov.au,,,,,,,,,,,,,,
WA,6210,MADORA BAY,Canning,Hon Andrew Hastie MP,Andrew.Hastie.MP@aph.gov.au,,,,,,,,,,,,,,
WA,6210,MANDURAH,Canning,Hon Andrew Hastie MP,Andrew.Hastie.MP@aph.gov.au,,,,,,,,,,,,,,
WA,6125,MARDELLA,Canning,Hon Andrew Hastie MP,Andrew.Hastie.MP@aph.gov.au,,,,,,,,,,,,,,
WA,6213,MARRINUP,Canning,Hon Andrew Hastie MP,Andrew.Hastie.MP@aph.gov.au,,,,,,,,,,,,,,
WA,6110,MARTIN,Canning,Hon Andrew Hastie MP,Andrew.Hastie.MP@aph.gov.au,,,,,,,,,,,,,,
WA,6210,MEADOW SPRINGS,Canning,Hon Andrew Hastie MP,Andrew.Hastie.MP@aph.gov.au,,,,,,,,,,,,,,
WA,6208,MEELON,Canning,Hon Andrew Hastie MP,Andrew.Hastie.MP@aph.gov.au,,,,,,,,,,,,,,
WA,6112,MT RICHON,Canning,Hon Andrew Hastie MP,Andrew.Hastie.MP@aph.gov.au,,,,,,,,,,,,,,
WA,6123,MUNDIJONG,Canning,Hon Andrew Hastie MP,Andrew.Hastie.MP@aph.gov.au,,,,,,,,,,,,,,
WA,6207,MYARA,Canning,Hon Andrew Hastie MP,Andrew.Hastie.MP@aph.gov.au,,,,,,,,,,,,,,
WA,6207,NAMBEELUP,Canning,Hon Andrew Hastie MP,Andrew.Hastie.MP@aph.gov.au,,,,,,,,,,,,,,
WA,6215,NANGA BROOK,Canning,Hon Andrew Hastie MP,Andrew.Hastie.MP@aph.gov.au,,,,,,,,,,,,,,
WA,6208,NIRIMBA,Canning,Hon Andrew Hastie MP,Andrew.Hastie.MP@aph.gov.au,,,,,,,,,,,,,,
WA,6207,NORTH DANDALUP,Canning,Hon Andrew Hastie MP,Andrew.Hastie.MP@aph.gov.au,,,,,,,,,,,,,,
WA,6208,NORTH YUNDERUP,Canning,Hon Andrew Hastie MP,Andrew.Hastie.MP@aph.gov.au,,,,,,,,,,,,,,
WA,6121,OAKFORD,Canning,Hon Andrew Hastie MP,Andrew.Hastie.MP@aph.gov.au,,,,,,,,,,,,,,
WA,6208,OAKLEY,Canning,Hon Andrew Hastie MP,Andrew.Hastie.MP@aph.gov.au,,,,,,,,,,,,,,
WA,6121,OLDBURY,Canning,Hon Andrew Hastie MP,Andrew.Hastie.MP@aph.gov.au,,,,,,,,,,,,,,
WA,6180,PARKLANDS,Canning,Hon Andrew Hastie MP,Andrew.Hastie.MP@aph.gov.au,,,,,,,,,,,,,,
WA,6076,PICKERING BROOK,Canning,Hon Andrew Hastie MP,Andrew.Hastie.MP@aph.gov.au,,,,,,,,,,,,,,
WA,6208,PINJARRA,Canning,Hon Andrew Hastie MP,Andrew.Hastie.MP@aph.gov.au,,,,,,,,,,,,,,
WA,6208,POINT GREY,Canning,Hon Andrew Hastie MP,Andrew.Hastie.MP@aph.gov.au,,,,,,,,,,,,,,
WA,6215,PRESTON BEACH,Canning,Hon Andrew Hastie MP,Andrew.Hastie.MP@aph.gov.au,,,,,,,,,,,,,,
WA,6208,RAVENSWOOD,Canning,Hon Andrew Hastie MP,Andrew.Hastie.MP@aph.gov.au,,,,,,,,,,,,,,
WA,6111,ROLEYSTONE,Canning,Hon Andrew Hastie MP,Andrew.Hastie.MP@aph.gov.au,,,,,,,,,,,,,,
WA,6210,SAN REMO,Canning,Hon Andrew Hastie MP,Andrew.Hastie.MP@aph.gov.au,,,,,,,,,,,,,,
WA,6125,SERPENTINE,Canning,Hon Andrew Hastie MP,Andrew.Hastie.MP@aph.gov.au,,,,,,,,,,,,,,
WA,6210,SILVER SANDS,Canning,Hon Andrew Hastie MP,Andrew.Hastie.MP@aph.gov.au,,,,,,,,,,,,,,
WA,6208,SOUTH YUNDERUP,Canning,Hon Andrew Hastie MP,Andrew.Hastie.MP@aph.gov.au,,,,,,,,,,,,,,
WA,6181,STAKE HILL,Canning,Hon Andrew Hastie MP,Andrew.Hastie.MP@aph.gov.au,,,,,,,,,,,,,,
WA,6213,TEESDALE,Canning,Hon Andrew Hastie MP,Andrew.Hastie.MP@aph.gov.au,,,,,,,,,,,,,,
WA,6215,WAGERUP,Canning,Hon Andrew Hastie MP,Andrew.Hastie.MP@aph.gov.au,,,,,,,,,,,,,,
WA,6210,WANNANUP,Canning,Hon Andrew Hastie MP,Andrew.Hastie.MP@aph.gov.au,,,,,,,,,,,,,,
WA,6215,WAROONA,Canning,Hon Andrew Hastie MP,Andrew.Hastie.MP@aph.gov.au,,,,,,,,,,,,,,
WA,6214,WEST COOLUP,Canning,Hon Andrew Hastie MP,Andrew.Hastie.MP@aph.gov.au,,,,,,,,,,,,,,
WA,6208,WEST PINJARRA,Canning,Hon Andrew Hastie MP,Andrew.Hastie.MP@aph.gov.au,,,,,,,,,,,,,,
WA,6123,WHITBY,Canning,Hon Andrew Hastie MP,Andrew.Hastie.MP@aph.gov.au,,,,,,,,,,,,,,
WA,6207,WHITTAKER,Canning,Hon Andrew Hastie MP,Andrew.Hastie.MP@aph.gov.au,,,,,,,,,,,,,,
WA,6112,WUNGONG,Canning,Hon Andrew Hastie MP,Andrew.Hastie.MP@aph.gov.au,,,,,,,,,,,,,,
WA,6064,ALEXANDER HEIGHTS,Cowan,Hon Dr Anne Aly MP,Anne.Aly.MP@aph.gov.au,,,,,,,,,,,,,,
WA,6021,BALCATTA,Cowan,Hon Dr Anne Aly MP,Anne.Aly.MP@aph.gov.au,,,,,,,,,,,,,,
WA,6061,BALGA,Cowan,Hon Dr Anne Aly MP,Anne.Aly.MP@aph.gov.au,,,,,,,,,,,,,,
WA,6066,BALLAJURA,Cowan,Hon Dr Anne Aly MP,Anne.Aly.MP@aph.gov.au,,,,,,,,,,,,,,
WA,6063,BEECHBORO,Cowan,Hon Dr Anne Aly MP,Anne.Aly.MP@aph.gov.au,,,,,,,,,,,,,,
WA,6059,DIANELLA,Cowan,Hon Dr Anne Aly MP,Anne.Aly.MP@aph.gov.au,,,,,,,,,,,,,,
WA,6059,DIANELLA HEIGHTS,Cowan,Hon Dr Anne Aly MP,Anne.Aly.MP@aph.gov.au,,,,,,,,,,,,,,
WA,6064,GIRRAWHEEN,Cowan,Hon Dr Anne Aly MP,Anne.Aly.MP@aph.gov.au,,,,,,,,,,,,,,
WA,6024,GREENWOOD,Cowan,Hon Dr Anne Aly MP,Anne.Aly.MP@aph.gov.au,,,,,,,,,,,,,,
WA,6022,HAMERSLEY,Cowan,Hon Dr Anne Aly MP,Anne.Aly.MP@aph.gov.au,,,,,,,,,,,,,,
WA,6054,KIARA,Cowan,Hon Dr Anne Aly MP,Anne.Aly.MP@aph.gov.au,,,,,,,,,,,,,,
WA,6064,KOONDOOLA,Cowan,Hon Dr Anne Aly MP,Anne.Aly.MP@aph.gov.au,,,,,,,,,,,,,,
WA,6054,LOCKRIDGE,Cowan,Hon Dr Anne Aly MP,Anne.Aly.MP@aph.gov.au,,,,,,,,,,,,,,
WA,6090,MALAGA,Cowan,Hon Dr Anne Aly MP,Anne.Aly.MP@aph.gov.au,,,,,,,,,,,,,,
WA,6064,MARANGAROO,Cowan,Hon Dr Anne Aly MP,Anne.Aly.MP@aph.gov.au,,,,,,,,,,,,,,
WA,6061,MIRRABOOKA,Cowan,Hon Dr Anne Aly MP,Anne.Aly.MP@aph.gov.au,,,,,,,,,,,,,,
WA,6062,MORLEY,Cowan,Hon Dr Anne Aly MP,Anne.Aly.MP@aph.gov.au,,,,,,,,,,,,,,
WA,6061,NOLLAMARA,Cowan,Hon Dr Anne Aly MP,Anne.Aly.MP@aph.gov.au,,,,,,,,,,,,,,
WA,6062,NORANDA,Cowan,Hon Dr Anne Aly MP,Anne.Aly.MP@aph.gov.au,,,,,,,,,,,,,,
WA,6017,OSBORNE PARK,Cowan,Hon Dr Anne Aly MP,Anne.Aly.MP@aph.gov.au,,,,,,,,,,,,,,
WA,6021,STIRLING,Cowan,Hon Dr Anne Aly MP,Anne.Aly.MP@aph.gov.au,,,,,,,,,,,,,,
WA,6024,WARWICK,Cowan,Hon Dr Anne Aly MP,Anne.Aly.MP@aph.gov.au,,,,,,,,,,,,,,
WA,6061,WESTMINSTER,Cowan,Hon Dr Anne Aly MP,Anne.Aly.MP@aph.gov.au,,,,,,,,,,,,,,
WA,6018,CHURCHLANDS,Curtin,Ms Kate Chaney MP,Kate.Chaney.MP@aph.gov.au,,,,,,,,,,,,,,
WA,6015,CITY BEACH,Curtin,Ms Kate Chaney MP,Kate.Chaney.MP@aph.gov.au,,,,,,,,,,,,,,
WA,6010,CLAREMONT,Curtin,Ms Kate Chaney MP,Kate.Chaney.MP@aph.gov.au,,,,,,,,,,,,,,
WA,6011,COTTESLOE,Curtin,Ms Kate Chaney MP,Kate.Chaney.MP@aph.gov.au,,,,,,,,,,,,,,
WA,6009,CRAWLEY,Curtin,Ms Kate Chaney MP,Kate.Chaney.MP@aph.gov.au,,,,,,,,,,,,,,
WA,6008,DAGLISH,Curtin,Ms Kate Chaney MP,Kate.Chaney.MP@aph.gov.au,,,,,,,,,,,,,,
WA,6009,DALKEITH,Curtin,Ms Kate Chaney MP,Kate.Chaney.MP@aph.gov.au,,,,,,,,,,,,,,
WA,6018,DOUBLEVIEW,Curtin,Ms Kate Chaney MP,Kate.Chaney.MP@aph.gov.au,,,,,,,,,,,,,,
WA,6014,FLOREAT,Curtin,Ms Kate Chaney MP,Kate.Chaney.MP@aph.gov.au,,,,,,,,,,,,,,
WA,6016,GLENDALOUGH,Curtin,Ms Kate Chaney MP,Kate.Chaney.MP@aph.gov.au,,,,,,,,,,,,,,
WA,6018,GWELUP,Curtin,Ms Kate Chaney MP,Kate.Chaney.MP@aph.gov.au,,,,,,,,,,,,,,
WA,6018,INNALOO,Curtin,Ms Kate Chaney MP,Kate.Chaney.MP@aph.gov.au,,,,,,,,,,,,,,
WA,6014,JOLIMONT,Curtin,Ms Kate Chaney MP,Kate.Chaney.MP@aph.gov.au,,,,,,,,,,,,,,
WA,6010,KARRAKATTA,Curtin,Ms Kate Chaney MP,Kate.Chaney.MP@aph.gov.au,,,,,,,,,,,,,,
WA,6018,KARRINYUP,Curtin,Ms Kate Chaney MP,Kate.Chaney.MP@aph.gov.au,,,,,,,,,,,,,,
WA,6012,MOSMAN PARK,Curtin,Ms Kate Chaney MP,Kate.Chaney.MP@aph.gov.au,,,,,,,,,,,,,,
WA,6010,MT CLAREMONT,Curtin,Ms Kate Chaney MP,Kate.Chaney.MP@aph.gov.au,,,,,,,,,,,,,,
WA,6009,NEDLANDS,Curtin,Ms Kate Chaney MP,Kate.Chaney.MP@aph.gov.au,,,,,,,,,,,,,,
WA,6017,OSBORNE PARK,Curtin,Ms Kate Chaney MP,Kate.Chaney.MP@aph.gov.au,,,,,,,,,,,,,,
WA,6011,PEPPERMINT GROVE,Curtin,Ms Kate Chaney MP,Kate.Chaney.MP@aph.gov.au,,,,,,,,,,,,,,
WA,6019,SCARBOROUGH,Curtin,Ms Kate Chaney MP,Kate.Chaney.MP@aph.gov.au,,,,,,,,,,,,,,
WA,6008,SHENTON PARK,Curtin,Ms Kate Chaney MP,Kate.Chaney.MP@aph.gov.au,,,,,,,,,,,,,,
WA,6008,SUBIACO,Curtin,Ms Kate Chaney MP,Kate.Chaney.MP@aph.gov.au,,,,,,,,,,,,,,
WA,6010,SWANBOURNE,Curtin,Ms Kate Chaney MP,Kate.Chaney.MP@aph.gov.au,,,,,,,,,,,,,,
WA,6029,TRIGG,Curtin,Ms Kate Chaney MP,Kate.Chaney.MP@aph.gov.au,,,,,,,,,,,,,,
WA,6014,WEMBLEY,Curtin,Ms Kate Chaney MP,Kate.Chaney.MP@aph.gov.au,,,,,,,,,,,,,,
WA,6019,WEMBLEY DOWNS,Curtin,Ms Kate Chaney MP,Kate.Chaney.MP@aph.gov.au,,,,,,,,,,,,,,
WA,6007,WEST LEEDERVILLE,Curtin,Ms Kate Chaney MP,Kate.Chaney.MP@aph.gov.au,,,,,,,,,,,,,,
WA,6018,WOODLANDS,Curtin,Ms Kate Chaney MP,Kate.Chaney.MP@aph.gov.au,,,,,,,,,,,,,,
WA,6532,AJANA,Durack,Hon Melissa Price MP,Melissa.Price.MP@aph.gov.au,,,,,,,,,,,,,,
WA,6525,ALLANOOKA,Durack,Hon Melissa Price MP,Melissa.Price.MP@aph.gov.au,,,,,,,,,,,,,,
WA,6535,ALMA,Durack,Hon Melissa Price MP,Melissa.Price.MP@aph.gov.au,,,,,,,,,,,,,,
WA,6632,AMBANIA,Durack,Hon Melissa Price MP,Melissa.Price.MP@aph.gov.au,,,,,,,,,,,,,,
WA,6642,ANGELO RIVER,Durack,Hon Melissa Price MP,Melissa.Price.MP@aph.gov.au,,,,,,,,,,,,,,
WA,6519,ARRINO,Durack,Hon Melissa Price MP,Melissa.Price.MP@aph.gov.au,,,,,,,,,,,,,,
WA,6525,ARROWSMITH,Durack,Hon Melissa Price MP,Melissa.Price.MP@aph.gov.au,,,,,,,,,,,,,,
WA,6519,ARROWSMITH EAST,Durack,Hon Melissa Price MP,Melissa.Price.MP@aph.gov.au,,,,,,,,,,,,,,
WA,6084,AVON VALLEY NATIONAL PARK,Durack,Hon Melissa Price MP,Melissa.Price.MP@aph.gov.au,,,,,,,,,,,,,,
WA,6701,BABBAGE ISLAND,Durack,Hon Melissa Price MP,Melissa.Price.MP@aph.gov.au,,,,,,,,,,,,,,
WA,6302,BADGIN,Durack,Hon Melissa Price MP,Melissa.Price.MP@aph.gov.au,,,,,,,,,,,,,,
WA,6521,BADGINGARRA,Durack,Hon Melissa Price MP,Melissa.Price.MP@aph.gov.au,,,,,,,,,,,,,,
WA,6562,BAKERS HILL,Durack,Hon Melissa Price MP,Melissa.Price.MP@aph.gov.au,,,,,,,,,,,,,,
WA,6714,BALLA BALLA,Durack,Hon Melissa Price MP,Melissa.Price.MP@aph.gov.au,,,,,,,,,,,,,,
WA,6302,BALLADONG,Durack,Hon Melissa Price MP,Melissa.Price.MP@aph.gov.au,,,,,,,,,,,,,,
WA,6606,BALLIDU,Durack,Hon Melissa Price MP,Melissa.Price.MP@aph.gov.au,,,,,,,,,,,,,,
WA,6503,BAMBUN,Durack,Hon Melissa Price MP,Melissa.Price.MP@aph.gov.au,,,,,,,,,,,,,,
WA,6510,BARBERTON,Durack,Hon Melissa Price MP,Melissa.Price.MP@aph.gov.au,,,,,,,,,,,,,,
WA,6712,BARROW ISLAND,Durack,Hon Melissa Price MP,Melissa.Price.MP@aph.gov.au,,,,,,,,,,,,,,
WA,6714,BAYNTON,Durack,Hon Melissa Price MP,Melissa.Price.MP@aph.gov.au,,,,,,,,,,,,,,
WA,6765,BAYULU,Durack,Hon Melissa Price MP,Melissa.Price.MP@aph.gov.au,,,,,,,,,,,,,,
WA,6530,BEACHLANDS,Durack,Hon Melissa Price MP,Melissa.Price.MP@aph.gov.au,,,,,,,,,,,,,,
WA,6725,BEAGLE BAY,Durack,Hon Melissa Price MP,Melissa.Price.MP@aph.gov.au,,,,,,,,,,,,,,
WA,6503,BEERMULLAH,Durack,Hon Melissa Price MP,Melissa.Price.MP@aph.gov.au,,,,,,,,,,,,,,
WA,6566,BEJOORDING,Durack,Hon Melissa Price MP,Melissa.Price.MP@aph.gov.au,,,,,,,,,,,,,,
WA,6530,BERESFORD,Durack,Hon Melissa Price MP,Melissa.Price.MP@aph.gov.au,,,,,,,,,,,,,,
WA,6510,BERKSHIRE VALLEY,Durack,Hon Melissa Price MP,Melissa.Price.MP@aph.gov.au,,,,,,,,,,,,,,
WA,6725,BIDYADANGA,Durack,Hon Melissa Price MP,Melissa.Price.MP@aph.gov.au,,,,,,,,,,,,,,
WA,6725,BILINGURR,Durack,Hon Melissa Price MP,Melissa.Price.MP@aph.gov.au,,,,,,,,,,,,,,
WA,6574,BINDI BINDI,Durack,Hon Melissa Price MP,Melissa.Price.MP@aph.gov.au,,,,,,,,,,,,,,
WA,6502,BINDOON,Durack,Hon Melissa Price MP,Melissa.Price.MP@aph.gov.au,,,,,,,,,,,,,,
WA,6502,BINDOON TRAINING AREA,Durack,Hon Melissa Price MP,Melissa.Price.MP@aph.gov.au,,,,,,,,,,,,,,
WA,6532,BINNU,Durack,Hon Melissa Price MP,Melissa.Price.MP@aph.gov.au,,,,,,,,,,,,,,
WA,6530,BLUFF POINT,Durack,Hon Melissa Price MP,Melissa.Price.MP@aph.gov.au,,,,,,,,,,,,,,
WA,6568,BOLGART,Durack,Hon Melissa Price MP,Melissa.Price.MP@aph.gov.au,,,,,,,,,,,,,,
WA,6525,BONNIEFIELD,Durack,Hon Melissa Price MP,Melissa.Price.MP@aph.gov.au,,,,,,,,,,,,,,
WA,6722,BOODARIE,Durack,Hon Melissa Price MP,Melissa.Price.MP@aph.gov.au,,,,,,,,,,,,,,
WA,6525,BOOKARA,Durack,Hon Melissa Price MP,Melissa.Price.MP@aph.gov.au,,,,,,,,,,,,,,
WA,6503,BOONANARRING,Durack,Hon Melissa Price MP,Melissa.Price.MP@aph.gov.au,,,,,,,,,,,,,,
WA,6532,BOOTENAL,Durack,Hon Melissa Price MP,Melissa.Price.MP@aph.gov.au,,,,,,,,,,,,,,
WA,6521,BOOTHENDARRA,Durack,Hon Melissa Price MP,Melissa.Price.MP@aph.gov.au,,,,,,,,,,,,,,
WA,6535,BOWES,Durack,Hon Melissa Price MP,Melissa.Price.MP@aph.gov.au,,,,,,,,,,,,,,
WA,6623,BOWGADA,Durack,Hon Melissa Price MP,Melissa.Price.MP@aph.gov.au,,,,,,,,,,,,,,
WA,6503,BREERA,Durack,Hon Melissa Price MP,Melissa.Price.MP@aph.gov.au,,,,,,,,,,,,,,
WA,6043,BRETON BAY,Durack,Hon Melissa Price MP,Melissa.Price.MP@aph.gov.au,,,,,,,,,,,,,,
WA,6532,BRINGO,Durack,Hon Melissa Price MP,Melissa.Price.MP@aph.gov.au,,,,,,,,,,,,,,
WA,6701,BROCKMAN,Durack,Hon Melissa Price MP,Melissa.Price.MP@aph.gov.au,,,,,,,,,,,,,,
WA,6725,BROOME,Durack,Hon Melissa Price MP,Melissa.Price.MP@aph.gov.au,,,,,,,,,,,,,,
WA,6701,BROWN RANGE,Durack,Hon Melissa Price MP,Melissa.Price.MP@aph.gov.au,,,,,,,,,,,,,,
WA,6401,BUCKLAND,Durack,Hon Melissa Price MP,Melissa.Price.MP@aph.gov.au,,,,,,,,,,,,,,
WA,6714,BULGARRA,Durack,Hon Melissa Price MP,Melissa.Price.MP@aph.gov.au,,,,,,,,,,,,,,
WA,6532,BULLER,Durack,Hon Melissa Price MP,Melissa.Price.MP@aph.gov.au,,,,,,,,,,,,,,
WA,6084,BULLSBROOK,Durack,Hon Melissa Price MP,Melissa.Price.MP@aph.gov.au,,,,,,,,,,,,,,
WA,6522,BUNDANOON,Durack,Hon Melissa Price MP,Melissa.Price.MP@aph.gov.au,,,,,,,,,,,,,,
WA,6623,BUNJIL,Durack,Hon Melissa Price MP,Melissa.Price.MP@aph.gov.au,,,,,,,,,,,,,,
WA,6613,BUNTINE,Durack,Hon Melissa Price MP,Melissa.Price.MP@aph.gov.au,,,,,,,,,,,,,,
WA,6467,BURAKIN,Durack,Hon Melissa Price MP,Melissa.Price.MP@aph.gov.au,,,,,,,,,,,,,,
WA,6302,BURGES,Durack,Hon Melissa Price MP,Melissa.Price.MP@aph.gov.au,,,,,,,,,,,,,,
WA,6401,BURLONG,Durack,Hon Melissa Price MP,Melissa.Price.MP@aph.gov.au,,,,,,,,,,,,,,
WA,6532,BURMA ROAD,Durack,Hon Melissa Price MP,Melissa.Price.MP@aph.gov.au,,,,,,,,,,,,,,
WA,6714,BURRUP,Durack,Hon Melissa Price MP,Melissa.Price.MP@aph.gov.au,,,,,,,,,,,,,,
WA,6726,CABLE BEACH,Durack,Hon Melissa Price MP,Melissa.Price.MP@aph.gov.au,,,,,,,,,,,,,,
WA,6466,CADOUX,Durack,Hon Melissa Price MP,Melissa.Price.MP@aph.gov.au,,,,,,,,,,,,,,
WA,6569,CALINGIRI,Durack,Hon Melissa Price MP,Melissa.Price.MP@aph.gov.au,,,,,,,,,,,,,,
WA,6302,CALJIE,Durack,Hon Melissa Price MP,Melissa.Price.MP@aph.gov.au,,,,,,,,,,,,,,
WA,6728,CAMBALLIN,Durack,Hon Melissa Price MP,Melissa.Price.MP@aph.gov.au,,,,,,,,,,,,,,
WA,6743,CAMBRIDGE GULF,Durack,Hon Melissa Price MP,Melissa.Price.MP@aph.gov.au,,,,,,,,,,,,,,
WA,6710,CANE,Durack,Hon Melissa Price MP,Melissa.Price.MP@aph.gov.au,,,,,,,,,,,,,,
WA,6627,CANNA,Durack,Hon Melissa Price MP,Melissa.Price.MP@aph.gov.au,,,,,,,,,,,,,,
WA,6532,CAPE BURNEY,Durack,Hon Melissa Price MP,Melissa.Price.MP@aph.gov.au,,,,,,,,,,,,,,
WA,6707,CAPE RANGE NATIONAL PARK,Durack,Hon Melissa Price MP,Melissa.Price.MP@aph.gov.au,,,,,,,,,,,,,,
WA,6642,CAPRICORN,Durack,Hon Melissa Price MP,Melissa.Price.MP@aph.gov.au,,,,,,,,,,,,,,
WA,6041,CARABAN,Durack,Hon Melissa Price MP,Melissa.Price.MP@aph.gov.au,,,,,,,,,,,,,,
WA,6566,CARANI,Durack,Hon Melissa Price MP,Melissa.Price.MP@aph.gov.au,,,,,,,,,,,,,,
WA,6701,CARBLA,Durack,Hon Melissa Price MP,Melissa.Price.MP@aph.gov.au,,,,,,,,,,,,,,
WA,6517,CARNAMAH,Durack,Hon Melissa Price MP,Melissa.Price.MP@aph.gov.au,,,,,,,,,,,,,,
WA,6701,CARNARVON,Durack,Hon Melissa Price MP,Melissa.Price.MP@aph.gov.au,,,,,,,,,,,,,,
WA,6532,CARRARANG,Durack,Hon Melissa Price MP,Melissa.Price.MP@aph.gov.au,,,,,,,,,,,,,,
WA,6507,CATABY,Durack,Hon Melissa Price MP,Melissa.Price.MP@aph.gov.au,,,,,,,,,,,,,,
WA,6511,CERVANTES,Durack,Hon Melissa Price MP,Melissa.Price.MP@aph.gov.au,,,,,,,,,,,,,,
WA,6751,CHICHESTER,Durack,Hon Melissa Price MP,Melissa.Price.MP@aph.gov.au,,,,,,,,,,,,,,
WA,6084,CHITTERING,Durack,Hon Melissa Price MP,Melissa.Price.MP@aph.gov.au,,,,,,,,,,,,,,
WA,6564,CLACKLINE,Durack,Hon Melissa Price MP,Melissa.Price.MP@aph.gov.au,,,,,,,,,,,,,,
WA,6532,COBURN,Durack,Hon Melissa Price MP,Melissa.Price.MP@aph.gov.au,,,,,,,,,,,,,,
WA,6302,COLD HARBOUR,Durack,Hon Melissa Price MP,Melissa.Price.MP@aph.gov.au,,,,,,,,,,,,,,
WA,6638,COOLADAR HILL,Durack,Hon Melissa Price MP,Melissa.Price.MP@aph.gov.au,,,,,,,,,,,,,,
WA,6532,COOLCALALAYA,Durack,Hon Melissa Price MP,Melissa.Price.MP@aph.gov.au,,,,,,,,,,,,,,
WA,6507,COOLJARLOO,Durack,Hon Melissa Price MP,Melissa.Price.MP@aph.gov.au,,,,,,,,,,,,,,
WA,6512,COOMBERDALE,Durack,Hon Melissa Price MP,Melissa.Price.MP@aph.gov.au,,,,,,,,,,,,,,
WA,6503,COONABIDGEE,Durack,Hon Melissa Price MP,Melissa.Price.MP@aph.gov.au,,,,,,,,,,,,,,
WA,6566,COONDLE,Durack,Hon Melissa Price MP,Melissa.Price.MP@aph.gov.au,,,,,,,,,,,,,,
WA,6515,COOROW,Durack,Hon Melissa Price MP,Melissa.Price.MP@aph.gov.au,,,,,,,,,,,,,,
WA,6714,COOYA POOYA,Durack,Hon Melissa Price MP,Melissa.Price.MP@aph.gov.au,,,,,,,,,,,,,,
WA,6562,COPLEY,Durack,Hon Melissa Price MP,Melissa.Price.MP@aph.gov.au,,,,,,,,,,,,,,
WA,6701,CORAL BAY,Durack,Hon Melissa Price MP,Melissa.Price.MP@aph.gov.au,,,,,,,,,,,,,,
WA,6720,COSSACK,Durack,Hon Melissa Price MP,Melissa.Price.MP@aph.gov.au,,,,,,,,,,,,,,
WA,6503,COWALLA,Durack,Hon Melissa Price MP,Melissa.Price.MP@aph.gov.au,,,,,,,,,,,,,,
WA,6640,CUE,Durack,Hon Melissa Price MP,Melissa.Price.MP@aph.gov.au,,,,,,,,,,,,,,
WA,6566,CULHAM,Durack,Hon Melissa Price MP,Melissa.Price.MP@aph.gov.au,,,,,,,,,,,,,,
WA,6503,CULLALLA,Durack,Hon Melissa Price MP,Melissa.Price.MP@aph.gov.au,,,,,,,,,,,,,,
WA,6401,CUNJARDINE,Durack,Hon Melissa Price MP,Melissa.Price.MP@aph.gov.au,,,,,,,,,,,,,,
WA,6638,DAGGAR HILLS,Durack,Hon Melissa Price MP,Melissa.Price.MP@aph.gov.au,,,,,,,,,,,,,,
WA,6302,DALIAK,Durack,Hon Melissa Price MP,Melissa.Price.MP@aph.gov.au,,,,,,,,,,,,,,
WA,6609,DALWALLINU,Durack,Hon Melissa Price MP,Melissa.Price.MP@aph.gov.au,,,,,,,,,,,,,,
WA,6713,DAMPIER,Durack,Hon Melissa Price MP,Melissa.Price.MP@aph.gov.au,,,,,,,,,,,,,,
WA,6725,DAMPIER PENINSULA,Durack,Hon Melissa Price MP,Melissa.Price.MP@aph.gov.au,,,,,,,,,,,,,,
WA,6507,DANDARAGAN,Durack,Hon Melissa Price MP,Melissa.Price.MP@aph.gov.au,,,,,,,,,,,,,,
WA,6532,DARTMOOR,Durack,Hon Melissa Price MP,Melissa.Price.MP@aph.gov.au,,,,,,,,,,,,,,
WA,6722,DE GREY,Durack,Hon Melissa Price MP,Melissa.Price.MP@aph.gov.au,,,,,,,,,,,,,,
WA,6532,DEEPDALE,Durack,Hon Melissa Price MP,Melissa.Price.MP@aph.gov.au,,,,,,,,,,,,,,
WA,6537,DENHAM,Durack,Hon Melissa Price MP,Melissa.Price.MP@aph.gov.au,,,,,,,,,,,,,,
WA,6728,DERBY,Durack,Hon Melissa Price MP,Melissa.Price.MP@aph.gov.au,,,,,,,,,,,,,,
WA,6630,DEVILS CREEK,Durack,Hon Melissa Price MP,Melissa.Price.MP@aph.gov.au,,,,,,,,,,,,,,
WA,6567,DEWARS POOL,Durack,Hon Melissa Price MP,Melissa.Price.MP@aph.gov.au,,,,,,,,,,,,,,
WA,6532,DINDILOA,Durack,Hon Melissa Price MP,Melissa.Price.MP@aph.gov.au,,,,,,,,,,,,,,
WA,6537,DIRK HARTOG ISLAND,Durack,Hon Melissa Price MP,Melissa.Price.MP@aph.gov.au,,,,,,,,,,,,,,
WA,6725,DJARINDJIN COMMUNITY,Durack,Hon Melissa Price MP,Melissa.Price.MP@aph.gov.au,,,,,,,,,,,,,,
WA,6725,DJUGUN,Durack,Hon Melissa Price MP,Melissa.Price.MP@aph.gov.au,,,,,,,,,,,,,,
WA,6525,DONGARA,Durack,Hon Melissa Price MP,Melissa.Price.MP@aph.gov.au,,,,,,,,,,,,,,
WA,6461,DOWERIN,Durack,Hon Melissa Price MP,Melissa.Price.MP@aph.gov.au,,,,,,,,,,,,,,
WA,6532,DRUMMOND COVE,Durack,Hon Melissa Price MP,Melissa.Price.MP@aph.gov.au,,,,,,,,,,,,,,
WA,6740,DRYSDALE RIVER,Durack,Hon Melissa Price MP,Melissa.Price.MP@aph.gov.au,,,,,,,,,,,,,,
WA,6519,DUDAWA,Durack,Hon Melissa Price MP,Melissa.Price.MP@aph.gov.au,,,,,,,,,,,,,,
WA,6566,DUMBARTON,Durack,Hon Melissa Price MP,Melissa.Price.MP@aph.gov.au,,,,,,,,,,,,,,
WA,6743,DURACK,Durack,Hon Melissa Price MP,Melissa.Price.MP@aph.gov.au,,,,,,,,,,,,,,
WA,6532,DURAWAH,Durack,Hon Melissa Price MP,Melissa.Price.MP@aph.gov.au,,,,,,,,,,,,,,
WA,6606,EAST BALLIDU,Durack,Hon Melissa Price MP,Melissa.Price.MP@aph.gov.au,,,,,,,,,,,,,,
WA,6535,EAST BOWES,Durack,Hon Melissa Price MP,Melissa.Price.MP@aph.gov.au,,,,,,,,,,,,,,
WA,6701,EAST CARNARVON,Durack,Hon Melissa Price MP,Melissa.Price.MP@aph.gov.au,,,,,,,,,,,,,,
WA,6532,EAST CHAPMAN,Durack,Hon Melissa Price MP,Melissa.Price.MP@aph.gov.au,,,,,,,,,,,,,,
WA,6608,EAST DAMBORING,Durack,Hon Melissa Price MP,Melissa.Price.MP@aph.gov.au,,,,,,,,,,,,,,
WA,6705,EAST LYONS RIVER,Durack,Hon Melissa Price MP,Melissa.Price.MP@aph.gov.au,,,,,,,,,,,,,,
WA,6640,EAST MURCHISON,Durack,Hon Melissa Price MP,Melissa.Price.MP@aph.gov.au,,,,,,,,,,,,,,
WA,6532,EAST NABAWA,Durack,Hon Melissa Price MP,Melissa.Price.MP@aph.gov.au,,,,,,,,,,,,,,
WA,6532,EAST YUNA,Durack,Hon Melissa Price MP,Melissa.Price.MP@aph.gov.au,,,,,,,,,,,,,,
WA,6515,EGANU,Durack,Hon Melissa Price MP,Melissa.Price.MP@aph.gov.au,,,,,,,,,,,,,,
WA,6725,EIGHTY MILE BEACH,Durack,Hon Melissa Price MP,Melissa.Price.MP@aph.gov.au,,,,,,,,,,,,,,
WA,6532,ELLENDALE,Durack,Hon Melissa Price MP,Melissa.Price.MP@aph.gov.au,,,,,,,,,,,,,,
WA,6518,ENEABBA,Durack,Hon Melissa Price MP,Melissa.Price.MP@aph.gov.au,,,,,,,,,,,,,,
WA,6532,ERADU,Durack,Hon Melissa Price MP,Melissa.Price.MP@aph.gov.au,,,,,,,,,,,,,,
WA,6532,ERADU SOUTH,Durack,Hon Melissa Price MP,Melissa.Price.MP@aph.gov.au,,,,,,,,,,,,,,
WA,6532,EURARDY,Durack,Hon Melissa Price MP,Melissa.Price.MP@aph.gov.au,,,,,,,,,,,,,,
WA,6707,EXMOUTH,Durack,Hon Melissa Price MP,Melissa.Price.MP@aph.gov.au,,,,,,,,,,,,,,
WA,6707,EXMOUTH GULF,Durack,Hon Melissa Price MP,Melissa.Price.MP@aph.gov.au,,,,,,,,,,,,,,
WA,6765,FITZROY CROSSING,Durack,Hon Melissa Price MP,Melissa.Price.MP@aph.gov.au,,,,,,,,,,,,,,
WA,6302,FLYNN,Durack,Hon Melissa Price MP,Melissa.Price.MP@aph.gov.au,,,,,,,,,,,,,,
WA,6716,FORTESCUE,Durack,Hon Melissa Price MP,Melissa.Price.MP@aph.gov.au,,,,,,,,,,,,,,
WA,6537,FRANCOIS PERON NAT PK,Durack,Hon Melissa Price MP,Melissa.Price.MP@aph.gov.au,,,,,,,,,,,,,,
WA,6574,GABALONG,Durack,Hon Melissa Price MP,Melissa.Price.MP@aph.gov.au,,,,,,,,,,,,,,
WA,6041,GABBADAH,Durack,Hon Melissa Price MP,Melissa.Price.MP@aph.gov.au,,,,,,,,,,,,,,
WA,6714,GAP RIDGE,Durack,Hon Melissa Price MP,Melissa.Price.MP@aph.gov.au,,,,,,,,,,,,,,
WA,6705,GASCOYNE JUNCTION,Durack,Hon Melissa Price MP,Melissa.Price.MP@aph.gov.au,,,,,,,,,,,,,,
WA,6705,GASCOYNE RIVER,Durack,Hon Melissa Price MP,Melissa.Price.MP@aph.gov.au,,,,,,,,,,,,,,
WA,6728,GEEGULLY CREEK,Durack,Hon Melissa Price MP,Melissa.Price.MP@aph.gov.au,,,,,,,,,,,,,,
WA,6532,GEORGINA,Durack,Hon Melissa Price MP,Melissa.Price.MP@aph.gov.au,,,,,,,,,,,,,,
WA,6530,GERALDTON,Durack,Hon Melissa Price MP,Melissa.Price.MP@aph.gov.au,,,,,,,,,,,,,,
WA,6743,GIBB,Durack,Hon Melissa Price MP,Melissa.Price.MP@aph.gov.au,,,,,,,,,,,,,,
WA,872,GIBSON DESERT NORTH,Durack,Hon Melissa Price MP,Melissa.Price.MP@aph.gov.au,,,,,,,,,,,,,,
WA,6302,GILGERING,Durack,Hon Melissa Price MP,Melissa.Price.MP@aph.gov.au,,,,,,,,,,,,,,
WA,6510,GILLINGARRA,Durack,Hon Melissa Price MP,Melissa.Price.MP@aph.gov.au,,,,,,,,,,,,,,
WA,6701,GILROYD,Durack,Hon Melissa Price MP,Melissa.Price.MP@aph.gov.au,,,,,,,,,,,,,,
WA,6725,GINGERAH,Durack,Hon Melissa Price MP,Melissa.Price.MP@aph.gov.au,,,,,,,,,,,,,,
WA,6503,GINGIN,Durack,Hon Melissa Price MP,Melissa.Price.MP@aph.gov.au,,,,,,,,,,,,,,
WA,6503,GINGINUP,Durack,Hon Melissa Price MP,Melissa.Price.MP@aph.gov.au,,,,,,,,,,,,,,
WA,6532,GLENFIELD,Durack,Hon Melissa Price MP,Melissa.Price.MP@aph.gov.au,,,,,,,,,,,,,,
WA,6509,GLENTROMIE,Durack,Hon Melissa Price MP,Melissa.Price.MP@aph.gov.au,,,,,,,,,,,,,,
WA,6714,GNOOREA,Durack,Hon Melissa Price MP,Melissa.Price.MP@aph.gov.au,,,,,,,,,,,,,,
WA,6468,GOODLANDS,Durack,Hon Melissa Price MP,Melissa.Price.MP@aph.gov.au,,,,,,,,,,,,,,
WA,6460,GOOMALLING,Durack,Hon Melissa Price MP,Melissa.Price.MP@aph.gov.au,,,,,,,,,,,,,,
WA,6503,GRANVILLE,Durack,Hon Melissa Price MP,Melissa.Price.MP@aph.gov.au,,,,,,,,,,,,,,
WA,6403,GRASS VALLEY,Durack,Hon Melissa Price MP,Melissa.Price.MP@aph.gov.au,,,,,,,,,,,,,,
WA,6514,GREEN HEAD,Durack,Hon Melissa Price MP,Melissa.Price.MP@aph.gov.au,,,,,,,,,,,,,,
WA,6302,GREENHILLS,Durack,Hon Melissa Price MP,Melissa.Price.MP@aph.gov.au,,,,,,,,,,,,,,
WA,6532,GREENOUGH,Durack,Hon Melissa Price MP,Melissa.Price.MP@aph.gov.au,,,,,,,,,,,,,,
WA,6535,GREGORY,Durack,Hon Melissa Price MP,Melissa.Price.MP@aph.gov.au,,,,,,,,,,,,,,
WA,6521,GREY,Durack,Hon Melissa Price MP,Melissa.Price.MP@aph.gov.au,,,,,,,,,,,,,,
WA,6701,GREYS PLAIN,Durack,Hon Melissa Price MP,Melissa.Price.MP@aph.gov.au,,,,,,,,,,,,,,
WA,6041,GUILDERTON,Durack,Hon Melissa Price MP,Melissa.Price.MP@aph.gov.au,,,,,,,,,,,,,,
WA,6513,GUNYIDI,Durack,Hon Melissa Price MP,Melissa.Price.MP@aph.gov.au,,,,,,,,,,,,,,
WA,6623,GUTHA,Durack,Hon Melissa Price MP,Melissa.Price.MP@aph.gov.au,,,,,,,,,,,,,,
WA,6302,GWAMBYGINE,Durack,Hon Melissa Price MP,Melissa.Price.MP@aph.gov.au,,,,,,,,,,,,,,
WA,6770,HALLS CREEK,Durack,Hon Melissa Price MP,Melissa.Price.MP@aph.gov.au,,,,,,,,,,,,,,
WA,6532,HAMELIN POOL,Durack,Hon Melissa Price MP,Melissa.Price.MP@aph.gov.au,,,,,,,,,,,,,,
WA,6532,HICKETY,Durack,Hon Melissa Price MP,Melissa.Price.MP@aph.gov.au,,,,,,,,,,,,,,
WA,6521,HILL RIVER,Durack,Hon Melissa Price MP,Melissa.Price.MP@aph.gov.au,,,,,,,,,,,,,,
WA,6462,HINDMARSH,Durack,Hon Melissa Price MP,Melissa.Price.MP@aph.gov.au,,,,,,,,,,,,,,
WA,6566,HODDYS WELL,Durack,Hon Melissa Price MP,Melissa.Price.MP@aph.gov.au,,,,,,,,,,,,,,
WA,6522,HOLMWOOD,Durack,Hon Melissa Price MP,Melissa.Price.MP@aph.gov.au,,,,,,,,,,,,,,
WA,6535,HORROCKS,Durack,Hon Melissa Price MP,Melissa.Price.MP@aph.gov.au,,,,,,,,,,,,,,
WA,6532,HOWATHARRA,Durack,Hon Melissa Price MP,Melissa.Price.MP@aph.gov.au,,,,,,,,,,,,,,
WA,6460,HULONGINE,Durack,Hon Melissa Price MP,Melissa.Price.MP@aph.gov.au,,,,,,,,,,,,,,
WA,6522,IKEWA,Durack,Hon Melissa Price MP,Melissa.Price.MP@aph.gov.au,,,,,,,,,,,,,,
WA,6728,IMINTJI,Durack,Hon Melissa Price MP,Melissa.Price.MP@aph.gov.au,,,,,,,,,,,,,,
WA,6721,INDEE,Durack,Hon Melissa Price MP,Melissa.Price.MP@aph.gov.au,,,,,,,,,,,,,,
WA,6701,INGGARDA,Durack,Hon Melissa Price MP,Melissa.Price.MP@aph.gov.au,,,,,,,,,,,,,,
WA,6302,INKPEN,Durack,Hon Melissa Price MP,Melissa.Price.MP@aph.gov.au,,,,,,,,,,,,,,
WA,6751,INNAWANGA,Durack,Hon Melissa Price MP,Melissa.Price.MP@aph.gov.au,,,,,,,,,,,,,,
WA,6401,IRISHTOWN,Durack,Hon Melissa Price MP,Melissa.Price.MP@aph.gov.au,,,,,,,,,,,,,,
WA,6525,IRWIN,Durack,Hon Melissa Price MP,Melissa.Price.MP@aph.gov.au,,,,,,,,,,,,,,
WA,6535,ISSEKA,Durack,Hon Melissa Price MP,Melissa.Price.MP@aph.gov.au,,,,,,,,,,,,,,
WA,6728,JARLMADANGAH BURRU,Durack,Hon Melissa Price MP,Melissa.Price.MP@aph.gov.au,,,,,,,,,,,,,,
WA,6401,JENNACUBBINE,Durack,Hon Melissa Price MP,Melissa.Price.MP@aph.gov.au,,,,,,,,,,,,,,
WA,6401,JENNAPULLIN,Durack,Hon Melissa Price MP,Melissa.Price.MP@aph.gov.au,,,,,,,,,,,,,,
WA,6612,JIBBERDING,Durack,Hon Melissa Price MP,Melissa.Price.MP@aph.gov.au,,,,,,,,,,,,,,
WA,6753,JIGALONG,Durack,Hon Melissa Price MP,Melissa.Price.MP@aph.gov.au,,,,,,,,,,,,,,
WA,6567,JULIMAR,Durack,Hon Melissa Price MP,Melissa.Price.MP@aph.gov.au,,,,,,,,,,,,,,
WA,6751,JUNA DOWNS,Durack,Hon Melissa Price MP,Melissa.Price.MP@aph.gov.au,,,,,,,,,,,,,,
WA,6516,JURIEN BAY,Durack,Hon Melissa Price MP,Melissa.Price.MP@aph.gov.au,,,,,,,,,,,,,,
WA,6519,KADATHINNI,Durack,Hon Melissa Price MP,Melissa.Price.MP@aph.gov.au,,,,,,,,,,,,,,
WA,6468,KALANNIE,Durack,Hon Melissa Price MP,Melissa.Price.MP@aph.gov.au,,,,,,,,,,,,,,
WA,6536,KALBARRI,Durack,Hon Melissa Price MP,Melissa.Price.MP@aph.gov.au,,,,,,,,,,,,,,
WA,6536,KALBARRI NATIONAL PARK,Durack,Hon Melissa Price MP,Melissa.Price.MP@aph.gov.au,,,,,,,,,,,,,,
WA,6740,KALUMBURU,Durack,Hon Melissa Price MP,Melissa.Price.MP@aph.gov.au,,,,,,,,,,,,,,
WA,6044,KARAKIN,Durack,Hon Melissa Price MP,Melissa.Price.MP@aph.gov.au,,,,,,,,,,,,,,
WA,6705,KARALUNDI,Durack,Hon Melissa Price MP,Melissa.Price.MP@aph.gov.au,,,,,,,,,,,,,,
WA,6751,KARIJINI,Durack,Hon Melissa Price MP,Melissa.Price.MP@aph.gov.au,,,,,,,,,,,,,,
WA,6530,KARLOO,Durack,Hon Melissa Price MP,Melissa.Price.MP@aph.gov.au,,,,,,,,,,,,,,
WA,6460,KARRANADGIN,Durack,Hon Melissa Price MP,Melissa.Price.MP@aph.gov.au,,,,,,,,,,,,,,
WA,6714,KARRATHA,Durack,Hon Melissa Price MP,Melissa.Price.MP@aph.gov.au,,,,,,,,,,,,,,
WA,6714,KARRATHA INDUSTRIAL EST,Durack,Hon Melissa Price MP,Melissa.Price.MP@aph.gov.au,,,,,,,,,,,,,,
WA,6566,KATRINE,Durack,Hon Melissa Price MP,Melissa.Price.MP@aph.gov.au,,,,,,,,,,,,,,
WA,6302,KAURING,Durack,Hon Melissa Price MP,Melissa.Price.MP@aph.gov.au,,,,,,,,,,,,,,
WA,6701,KENNEDY RANGE,Durack,Hon Melissa Price MP,Melissa.Price.MP@aph.gov.au,,,,,,,,,,,,,,
WA,6728,KIMBOLTON,Durack,Hon Melissa Price MP,Melissa.Price.MP@aph.gov.au,,,,,,,,,,,,,,
WA,6728,KING LEOPOLD RANGES,Durack,Hon Melissa Price MP,Melissa.Price.MP@aph.gov.au,,,,,,,,,,,,,,
WA,6701,KINGSFORD,Durack,Hon Melissa Price MP,Melissa.Price.MP@aph.gov.au,,,,,,,,,,,,,,
WA,6532,KOJARENA,Durack,Hon Melissa Price MP,Melissa.Price.MP@aph.gov.au,,,,,,,,,,,,,,
WA,6605,KONDUT,Durack,Hon Melissa Price MP,Melissa.Price.MP@aph.gov.au,,,,,,,,,,,,,,
WA,6603,KONNONGORRING,Durack,Hon Melissa Price MP,Melissa.Price.MP@aph.gov.au,,,,,,,,,,,,,,
WA,6510,KOOJAN,Durack,Hon Melissa Price MP,Melissa.Price.MP@aph.gov.au,,,,,,,,,,,,,,
WA,6623,KOOLANOOKA,Durack,Hon Melissa Price MP,Melissa.Price.MP@aph.gov.au,,,,,,,,,,,,,,
WA,6461,KOOMBERKINE,Durack,Hon Melissa Price MP,Melissa.Price.MP@aph.gov.au,,,,,,,,,,,,,,
WA,6642,KUMARINA,Durack,Hon Melissa Price MP,Melissa.Price.MP@aph.gov.au,,,,,,,,,,,,,,
WA,6770,KUNDAT DJARU,Durack,Hon Melissa Price MP,Melissa.Price.MP@aph.gov.au,,,,,,,,,,,,,,
WA,6743,KUNUNURRA,Durack,Hon Melissa Price MP,Melissa.Price.MP@aph.gov.au,,,,,,,,,,,,,,
WA,6770,KUPARTIYA,Durack,Hon Melissa Price MP,Melissa.Price.MP@aph.gov.au,,,,,,,,,,,,,,
WA,6725,LAGRANGE,Durack,Hon Melissa Price MP,Melissa.Price.MP@aph.gov.au,,,,,,,,,,,,,,
WA,6743,LAKE ARGYLE,Durack,Hon Melissa Price MP,Melissa.Price.MP@aph.gov.au,,,,,,,,,,,,,,
WA,6640,LAKE AUSTIN,Durack,Hon Melissa Price MP,Melissa.Price.MP@aph.gov.au,,,,,,,,,,,,,,
WA,6603,LAKE HINDS,Durack,Hon Melissa Price MP,Melissa.Price.MP@aph.gov.au,,,,,,,,,,,,,,
WA,6603,LAKE NINAN,Durack,Hon Melissa Price MP,Melissa.Price.MP@aph.gov.au,,,,,,,,,,,,,,
WA,6044,LANCELIN,Durack,Hon Melissa Price MP,Melissa.Price.MP@aph.gov.au,,,,,,,,,,,,,,
WA,6616,LATHAM,Durack,Hon Melissa Price MP,Melissa.Price.MP@aph.gov.au,,,,,,,,,,,,,,
WA,6707,LEARMONTH,Durack,Hon Melissa Price MP,Melissa.Price.MP@aph.gov.au,,,,,,,,,,,,,,
WA,6043,LEDGE POINT,Durack,Hon Melissa Price MP,Melissa.Price.MP@aph.gov.au,,,,,,,,,,,,,,
WA,6514,LEEMAN,Durack,Hon Melissa Price MP,Melissa.Price.MP@aph.gov.au,,,,,,,,,,,,,,
WA,6503,LENNARD BROOK,Durack,Hon Melissa Price MP,Melissa.Price.MP@aph.gov.au,,,,,,,,,,,,,,
WA,6522,LOCKIER,Durack,Hon Melissa Price MP,Melissa.Price.MP@aph.gov.au,,,,,,,,,,,,,,
WA,6725,LOOMA,Durack,Hon Melissa Price MP,Melissa.Price.MP@aph.gov.au,,,,,,,,,,,,,,
WA,6084,LOWER CHITTERING,Durack,Hon Melissa Price MP,Melissa.Price.MP@aph.gov.au,,,,,,,,,,,,,,
WA,6701,LYNDON,Durack,Hon Melissa Price MP,Melissa.Price.MP@aph.gov.au,,,,,,,,,,,,,,
WA,6701,MACLEOD,Durack,Hon Melissa Price MP,Melissa.Price.MP@aph.gov.au,,,,,,,,,,,,,,
WA,6530,MAHOMETS FLATS,Durack,Hon Melissa Price MP,Melissa.Price.MP@aph.gov.au,,,,,,,,,,,,,,
WA,6714,MAITLAND,Durack,Hon Melissa Price MP,Melissa.Price.MP@aph.gov.au,,,,,,,,,,,,,,
WA,6401,MALABAINE,Durack,Hon Melissa Price MP,Melissa.Price.MP@aph.gov.au,,,,,,,,,,,,,,
WA,6302,MALEBELLING,Durack,Hon Melissa Price MP,Melissa.Price.MP@aph.gov.au,,,,,,,,,,,,,,
WA,6465,MANMANNING,Durack,Hon Melissa Price MP,Melissa.Price.MP@aph.gov.au,,,,,,,,,,,,,,
WA,6760,MARBLE BAR,Durack,Hon Melissa Price MP,Melissa.Price.MP@aph.gov.au,,,,,,,,,,,,,,
WA,6515,MARCHAGEE,Durack,Hon Melissa Price MP,Melissa.Price.MP@aph.gov.au,,,,,,,,,,,,,,
WA,6714,MARDIE,Durack,Hon Melissa Price MP,Melissa.Price.MP@aph.gov.au,,,,,,,,,,,,,,
WA,6608,MARNE,Durack,Hon Melissa Price MP,Melissa.Price.MP@aph.gov.au,,,,,,,,,,,,,,
WA,6532,MARRAH,Durack,Hon Melissa Price MP,Melissa.Price.MP@aph.gov.au,,,,,,,,,,,,,,
WA,6701,MASSEY BAY,Durack,Hon Melissa Price MP,Melissa.Price.MP@aph.gov.au,,,,,,,,,,,,,,
WA,6614,MAYA,Durack,Hon Melissa Price MP,Melissa.Price.MP@aph.gov.au,,,,,,,,,,,,,,
WA,6770,MCBEATH,Durack,Hon Melissa Price MP,Melissa.Price.MP@aph.gov.au,,,,,,,,,,,,,,
WA,6532,MEADOW,Durack,Hon Melissa Price MP,Melissa.Price.MP@aph.gov.au,,,,,,,,,,,,,,
WA,6728,MEDA,Durack,Hon Melissa Price MP,Melissa.Price.MP@aph.gov.au,,,,,,,,,,,,,,
WA,6642,MEEKATHARRA,Durack,Hon Melissa Price MP,Melissa.Price.MP@aph.gov.au,,,,,,,,,,,,,,
WA,6401,MEENAAR,Durack,Hon Melissa Price MP,Melissa.Price.MP@aph.gov.au,,,,,,,,,,,,,,
WA,6625,MERKANOOKA,Durack,Hon Melissa Price MP,Melissa.Price.MP@aph.gov.au,,,,,,,,,,,,,,
WA,6530,MERU,Durack,Hon Melissa Price MP,Melissa.Price.MP@aph.gov.au,,,,,,,,,,,,,,
WA,6612,MIAMOON,Durack,Hon Melissa Price MP,Melissa.Price.MP@aph.gov.au,,,,,,,,,,,,,,
WA,6575,MILING,Durack,Hon Melissa Price MP,Melissa.Price.MP@aph.gov.au,,,,,,,,,,,,,,
WA,6714,MILLARS WELL,Durack,Hon Melissa Price MP,Melissa.Price.MP@aph.gov.au,,,,,,,,,,,,,,
WA,6716,MILLSTREAM,Durack,Hon Melissa Price MP,Melissa.Price.MP@aph.gov.au,,,,,,,,,,,,,,
WA,6525,MILO,Durack,Hon Melissa Price MP,Melissa.Price.MP@aph.gov.au,,,,,,,,,,,,,,
WA,6507,MIMEGARRA,Durack,Hon Melissa Price MP,Melissa.Price.MP@aph.gov.au,,,,,,,,,,,,,,
WA,6503,MINDARRA,Durack,Hon Melissa Price MP,Melissa.Price.MP@aph.gov.au,,,,,,,,,,,,,,
WA,6522,MINGENEW,Durack,Hon Melissa Price MP,Melissa.Price.MP@aph.gov.au,,,,,,,,,,,,,,
WA,6701,MINILYA,Durack,Hon Melissa Price MP,Melissa.Price.MP@aph.gov.au,,,,,,,,,,,,,,
WA,6532,MINNENOOKA,Durack,Hon Melissa Price MP,Melissa.Price.MP@aph.gov.au,,,,,,,,,,,,,,
WA,6462,MINNIVALE,Durack,Hon Melissa Price MP,Melissa.Price.MP@aph.gov.au,,,,,,,,,,,,,,
WA,6725,MINYIRR,Durack,Hon Melissa Price MP,Melissa.Price.MP@aph.gov.au,,,,,,,,,,,,,,
WA,6740,MITCHELL PLATEAU,Durack,Hon Melissa Price MP,Melissa.Price.MP@aph.gov.au,,,,,,,,,,,,,,
WA,6603,MOCARDY,Durack,Hon Melissa Price MP,Melissa.Price.MP@aph.gov.au,,,,,,,,,,,,,,
WA,6506,MOGUMBER,Durack,Hon Melissa Price MP,Melissa.Price.MP@aph.gov.au,,,,,,,,,,,,,,
WA,6401,MOKINE,Durack,Hon Melissa Price MP,Melissa.Price.MP@aph.gov.au,,,,,,,,,,,,,,
WA,6537,MONKEY MIA,Durack,Hon Melissa Price MP,Melissa.Price.MP@aph.gov.au,,,,,,,,,,,,,,
WA,6504,MOOLIABEENEE,Durack,Hon Melissa Price MP,Melissa.Price.MP@aph.gov.au,,,,,,,,,,,,,,
WA,6503,MOONDAH,Durack,Hon Melissa Price MP,Melissa.Price.MP@aph.gov.au,,,,,,,,,,,,,,
WA,6567,MOONDYNE,Durack,Hon Melissa Price MP,Melissa.Price.MP@aph.gov.au,,,,,,,,,,,,,,
WA,6532,MOONYOONOOKA,Durack,Hon Melissa Price MP,Melissa.Price.MP@aph.gov.au,,,,,,,,,,,,,,
WA,6510,MOORA,Durack,Hon Melissa Price MP,Melissa.Price.MP@aph.gov.au,,,,,,,,,,,,,,
WA,6503,MOORE RIVER NATIONAL PARK,Durack,Hon Melissa Price MP,Melissa.Price.MP@aph.gov.au,,,,,,,,,,,,,,
WA,6522,MOORIARY,Durack,Hon Melissa Price MP,Melissa.Price.MP@aph.gov.au,,,,,,,,,,,,,,
WA,6083,MORANGUP,Durack,Hon Melissa Price MP,Melissa.Price.MP@aph.gov.au,,,,,,,,,,,,,,
WA,6623,MORAWA,Durack,Hon Melissa Price MP,Melissa.Price.MP@aph.gov.au,,,,,,,,,,,,,,
WA,6530,MORESBY,Durack,Hon Melissa Price MP,Melissa.Price.MP@aph.gov.au,,,,,,,,,,,,,,
WA,6701,MORGANTOWN,Durack,Hon Melissa Price MP,Melissa.Price.MP@aph.gov.au,,,,,,,,,,,,,,
WA,6725,MOWANJUM,Durack,Hon Melissa Price MP,Melissa.Price.MP@aph.gov.au,,,,,,,,,,,,,,
WA,6525,MT ADAMS,Durack,Hon Melissa Price MP,Melissa.Price.MP@aph.gov.au,,,,,,,,,,,,,,
WA,6714,MT ANKETELL,Durack,Hon Melissa Price MP,Melissa.Price.MP@aph.gov.au,,,,,,,,,,,,,,
WA,6522,MT BUDD,Durack,Hon Melissa Price MP,Melissa.Price.MP@aph.gov.au,,,,,,,,,,,,,,
WA,6532,MT ERIN,Durack,Hon Melissa Price MP,Melissa.Price.MP@aph.gov.au,,,,,,,,,,,,,,
WA,6302,MT HARDEY,Durack,Hon Melissa Price MP,Melissa.Price.MP@aph.gov.au,,,,,,,,,,,,,,
WA,6765,MT HARDMAN,Durack,Hon Melissa Price MP,Melissa.Price.MP@aph.gov.au,,,,,,,,,,,,,,
WA,6528,MT HILL,Durack,Hon Melissa Price MP,Melissa.Price.MP@aph.gov.au,,,,,,,,,,,,,,
WA,6525,MT HORNER,Durack,Hon Melissa Price MP,Melissa.Price.MP@aph.gov.au,,,,,,,,,,,,,,
WA,6638,MT MAGNET,Durack,Hon Melissa Price MP,Melissa.Price.MP@aph.gov.au,,,,,,,,,,,,,,
WA,6302,MT OBSERVATION,Durack,Hon Melissa Price MP,Melissa.Price.MP@aph.gov.au,,,,,,,,,,,,,,
WA,6751,MT SHEILA,Durack,Hon Melissa Price MP,Melissa.Price.MP@aph.gov.au,,,,,,,,,,,,,,
WA,6530,MT TARCOOLA,Durack,Hon Melissa Price MP,Melissa.Price.MP@aph.gov.au,,,,,,,,,,,,,,
WA,6501,MUCHEA,Durack,Hon Melissa Price MP,Melissa.Price.MP@aph.gov.au,,,,,,,,,,,,,,
WA,6503,MUCKENBURRA,Durack,Hon Melissa Price MP,Melissa.Price.MP@aph.gov.au,,,,,,,,,,,,,,
WA,6770,MUELLER RANGES,Durack,Hon Melissa Price MP,Melissa.Price.MP@aph.gov.au,,,,,,,,,,,,,,
WA,6751,MULGA DOWNS,Durack,Hon Melissa Price MP,Melissa.Price.MP@aph.gov.au,,,,,,,,,,,,,,
WA,6630,MULLEWA,Durack,Hon Melissa Price MP,Melissa.Price.MP@aph.gov.au,,,,,,,,,,,,,,
WA,6401,MULUCKINE,Durack,Hon Melissa Price MP,Melissa.Price.MP@aph.gov.au,,,,,,,,,,,,,,
WA,6401,MUMBERKINE,Durack,Hon Melissa Price MP,Melissa.Price.MP@aph.gov.au,,,,,,,,,,,,,,
WA,6721,MUNDABULLANGANA,Durack,Hon Melissa Price MP,Melissa.Price.MP@aph.gov.au,,,,,,,,,,,,,,
WA,6630,MURCHISON,Durack,Hon Melissa Price MP,Melissa.Price.MP@aph.gov.au,,,,,,,,,,,,,,
WA,6401,MURESK,Durack,Hon Melissa Price MP,Melissa.Price.MP@aph.gov.au,,,,,,,,,,,,,,
WA,6532,NABAWA,Durack,Hon Melissa Price MP,Melissa.Price.MP@aph.gov.au,,,,,,,,,,,,,,
WA,6512,NAMBAN,Durack,Hon Melissa Price MP,Melissa.Price.MP@aph.gov.au,,,,,,,,,,,,,,
WA,6521,NAMBUNG,Durack,Hon Melissa Price MP,Melissa.Price.MP@aph.gov.au,,,,,,,,,,,,,,
WA,6537,NANGA,Durack,Hon Melissa Price MP,Melissa.Price.MP@aph.gov.au,,,,,,,,,,,,,,
WA,6522,NANGETTY,Durack,Hon Melissa Price MP,Melissa.Price.MP@aph.gov.au,,,,,,,,,,,,,,
WA,6532,NANSON,Durack,Hon Melissa Price MP,Melissa.Price.MP@aph.gov.au,,,,,,,,,,,,,,
WA,6751,NANUTARRA,Durack,Hon Melissa Price MP,Melissa.Price.MP@aph.gov.au,,,,,,,,,,,,,,
WA,6532,NARALING,Durack,Hon Melissa Price MP,Melissa.Price.MP@aph.gov.au,,,,,,,,,,,,,,
WA,6532,NARNGULU,Durack,Hon Melissa Price MP,Melissa.Price.MP@aph.gov.au,,,,,,,,,,,,,,
WA,6532,NARRA TARRA,Durack,Hon Melissa Price MP,Melissa.Price.MP@aph.gov.au,,,,,,,,,,,,,,
WA,6302,NARRALOGGAN,Durack,Hon Melissa Price MP,Melissa.Price.MP@aph.gov.au,,,,,,,,,,,,,,
WA,6503,NEERGABBY,Durack,Hon Melissa Price MP,Melissa.Price.MP@aph.gov.au,,,,,,,,,,,,,,
WA,6630,NERRAMYNE,Durack,Hon Melissa Price MP,Melissa.Price.MP@aph.gov.au,,,,,,,,,,,,,,
WA,6532,NERREN NERREN,Durack,Hon Melissa Price MP,Melissa.Price.MP@aph.gov.au,,,,,,,,,,,,,,
WA,6509,NEW NORCIA,Durack,Hon Melissa Price MP,Melissa.Price.MP@aph.gov.au,,,,,,,,,,,,,,
WA,6753,NEWMAN,Durack,Hon Melissa Price MP,Melissa.Price.MP@aph.gov.au,,,,,,,,,,,,,,
WA,6714,NICKOL,Durack,Hon Melissa Price MP,Melissa.Price.MP@aph.gov.au,,,,,,,,,,,,,,
WA,6044,NILGEN,Durack,Hon Melissa Price MP,Melissa.Price.MP@aph.gov.au,,,,,,,,,,,,,,
WA,6532,NOLBA,Durack,Hon Melissa Price MP,Melissa.Price.MP@aph.gov.au,,,,,,,,,,,,,,
WA,6532,NORTH ERADU,Durack,Hon Melissa Price MP,Melissa.Price.MP@aph.gov.au,,,,,,,,,,,,,,
WA,6701,NORTH PLANTATIONS,Durack,Hon Melissa Price MP,Melissa.Price.MP@aph.gov.au,,,,,,,,,,,,,,
WA,6707,NORTH WEST CAPE,Durack,Hon Melissa Price MP,Melissa.Price.MP@aph.gov.au,,,,,,,,,,,,,,
WA,6401,NORTHAM,Durack,Hon Melissa Price MP,Melissa.Price.MP@aph.gov.au,,,,,,,,,,,,,,
WA,6535,NORTHAMPTON,Durack,Hon Melissa Price MP,Melissa.Price.MP@aph.gov.au,,,,,,,,,,,,,,
WA,6532,NORTHERN GULLY,Durack,Hon Melissa Price MP,Melissa.Price.MP@aph.gov.au,,,,,,,,,,,,,,
WA,6609,NUGADONG,Durack,Hon Melissa Price MP,Melissa.Price.MP@aph.gov.au,,,,,,,,,,,,,,
WA,6758,NULLAGINE,Durack,Hon Melissa Price MP,Melissa.Price.MP@aph.gov.au,,,,,,,,,,,,,,
WA,6630,NUNIERRA,Durack,Hon Melissa Price MP,Melissa.Price.MP@aph.gov.au,,,,,,,,,,,,,,
WA,6566,NUNILE,Durack,Hon Melissa Price MP,Melissa.Price.MP@aph.gov.au,,,,,,,,,,,,,,
WA,6532,OAKAJEE,Durack,Hon Melissa Price MP,Melissa.Price.MP@aph.gov.au,,,,,,,,,,,,,,
WA,6535,OGILVIE,Durack,Hon Melissa Price MP,Melissa.Price.MP@aph.gov.au,,,,,,,,,,,,,,
WA,6569,OLD PLAINS,Durack,Hon Melissa Price MP,Melissa.Price.MP@aph.gov.au,,,,,,,,,,,,,,
WA,6725,ONE ARM POINT,Durack,Hon Melissa Price MP,Melissa.Price.MP@aph.gov.au,,,,,,,,,,,,,,
WA,6710,ONSLOW,Durack,Hon Melissa Price MP,Melissa.Price.MP@aph.gov.au,,,,,,,,,,,,,,
WA,6740,OOMBULGURRI,Durack,Hon Melissa Price MP,Melissa.Price.MP@aph.gov.au,,,,,,,,,,,,,,
WA,6503,ORANGE SPRINGS,Durack,Hon Melissa Price MP,Melissa.Price.MP@aph.gov.au,,,,,,,,,,,,,,
WA,6770,ORD RIVER,Durack,Hon Melissa Price MP,Melissa.Price.MP@aph.gov.au,,,,,,,,,,,,,,
WA,6725,PANDANUS PARK,Durack,Hon Melissa Price MP,Melissa.Price.MP@aph.gov.au,,,,,,,,,,,,,,
WA,6716,PANNAWONICA,Durack,Hon Melissa Price MP,Melissa.Price.MP@aph.gov.au,,,,,,,,,,,,,,
WA,6754,PARABURDOO,Durack,Hon Melissa Price MP,Melissa.Price.MP@aph.gov.au,,,,,,,,,,,,,,
WA,6721,PARDOO,Durack,Hon Melissa Price MP,Melissa.Price.MP@aph.gov.au,,,,,,,,,,,,,,
WA,6612,PAYNES FIND,Durack,Hon Melissa Price MP,Melissa.Price.MP@aph.gov.au,,,,,,,,,,,,,,
WA,6638,PAYNESVILLE,Durack,Hon Melissa Price MP,Melissa.Price.MP@aph.gov.au,,,,,,,,,,,,,,
WA,6642,PEAK HILL,Durack,Hon Melissa Price MP,Melissa.Price.MP@aph.gov.au,,,,,,,,,,,,,,
WA,6710,PEEDAMULLA,Durack,Hon Melissa Price MP,Melissa.Price.MP@aph.gov.au,,,,,,,,,,,,,,
WA,6714,PEGS CREEK,Durack,Hon Melissa Price MP,Melissa.Price.MP@aph.gov.au,,,,,,,,,,,,,,
WA,6620,PERENJORI,Durack,Hon Melissa Price MP,Melissa.Price.MP@aph.gov.au,,,,,,,,,,,,,,
WA,6468,PETRUDOR,Durack,Hon Melissa Price MP,Melissa.Price.MP@aph.gov.au,,,,,,,,,,,,,,
WA,6572,PIAWANING,Durack,Hon Melissa Price MP,Melissa.Price.MP@aph.gov.au,,,,,,,,,,,,,,
WA,6631,PINDAR,Durack,Hon Melissa Price MP,Melissa.Price.MP@aph.gov.au,,,,,,,,,,,,,,
WA,6623,PINTHARUKA,Durack,Hon Melissa Price MP,Melissa.Price.MP@aph.gov.au,,,,,,,,,,,,,,
WA,6722,PIPPINGARRA,Durack,Hon Melissa Price MP,Melissa.Price.MP@aph.gov.au,,,,,,,,,,,,,,
WA,6608,PITHARA,Durack,Hon Melissa Price MP,Melissa.Price.MP@aph.gov.au,,,,,,,,,,,,,,
WA,6720,POINT SAMSON,Durack,Hon Melissa Price MP,Melissa.Price.MP@aph.gov.au,,,,,,,,,,,,,,
WA,6525,PORT DENISON,Durack,Hon Melissa Price MP,Melissa.Price.MP@aph.gov.au,,,,,,,,,,,,,,
WA,6721,PORT HEDLAND,Durack,Hon Melissa Price MP,Melissa.Price.MP@aph.gov.au,,,,,,,,,,,,,,
WA,6740,PRINCE REGENT RIVER,Durack,Hon Melissa Price MP,Melissa.Price.MP@aph.gov.au,,,,,,,,,,,,,,
WA,6770,PURNULULU,Durack,Hon Melissa Price MP,Melissa.Price.MP@aph.gov.au,,,,,,,,,,,,,,
WA,6302,QUELLINGTON,Durack,Hon Melissa Price MP,Melissa.Price.MP@aph.gov.au,,,,,,,,,,,,,,
WA,6084,RAAF BASE PEARCE,Durack,Hon Melissa Price MP,Melissa.Price.MP@aph.gov.au,,,,,,,,,,,,,,
WA,6530,RANGEWAY,Durack,Hon Melissa Price MP,Melissa.Price.MP@aph.gov.au,,,,,,,,,,,,,,
WA,6503,RED GULLY,Durack,Hon Melissa Price MP,Melissa.Price.MP@aph.gov.au,,,,,,,,,,,,,,
WA,6721,REDBANK,Durack,Hon Melissa Price MP,Melissa.Price.MP@aph.gov.au,,,,,,,,,,,,,,
WA,6640,REEDY,Durack,Hon Melissa Price MP,Melissa.Price.MP@aph.gov.au,,,,,,,,,,,,,,
WA,6507,REGANS FORD,Durack,Hon Melissa Price MP,Melissa.Price.MP@aph.gov.au,,,,,,,,,,,,,,
WA,6770,RINGERS SOAK,Durack,Hon Melissa Price MP,Melissa.Price.MP@aph.gov.au,,,,,,,,,,,,,,
WA,6751,ROCKLEA,Durack,Hon Melissa Price MP,Melissa.Price.MP@aph.gov.au,,,,,,,,,,,,,,
WA,6532,ROCKWELL,Durack,Hon Melissa Price MP,Melissa.Price.MP@aph.gov.au,,,,,,,,,,,,,,
WA,6718,ROEBOURNE,Durack,Hon Melissa Price MP,Melissa.Price.MP@aph.gov.au,,,,,,,,,,,,,,
WA,6725,ROEBUCK,Durack,Hon Melissa Price MP,Melissa.Price.MP@aph.gov.au,,,,,,,,,,,,,,
WA,6401,ROSSMORE,Durack,Hon Melissa Price MP,Melissa.Price.MP@aph.gov.au,,,,,,,,,,,,,,
WA,6620,ROTHSAY,Durack,Hon Melissa Price MP,Melissa.Price.MP@aph.gov.au,,,,,,,,,,,,,,
WA,6532,RUDDS GULLY,Durack,Hon Melissa Price MP,Melissa.Price.MP@aph.gov.au,,,,,,,,,,,,,,
WA,6532,SANDSPRINGS,Durack,Hon Melissa Price MP,Melissa.Price.MP@aph.gov.au,,,,,,,,,,,,,,
WA,6639,SANDSTONE,Durack,Hon Melissa Price MP,Melissa.Price.MP@aph.gov.au,,,,,,,,,,,,,,
WA,6535,SANDY GULLY,Durack,Hon Melissa Price MP,Melissa.Price.MP@aph.gov.au,,,,,,,,,,,,,,
WA,6042,SEABIRD,Durack,Hon Melissa Price MP,Melissa.Price.MP@aph.gov.au,,,,,,,,,,,,,,
WA,6537,SHARK BAY,Durack,Hon Melissa Price MP,Melissa.Price.MP@aph.gov.au,,,,,,,,,,,,,,
WA,6714,SHERLOCK,Durack,Hon Melissa Price MP,Melissa.Price.MP@aph.gov.au,,,,,,,,,,,,,,
WA,6701,SOUTH CARNARVON,Durack,Hon Melissa Price MP,Melissa.Price.MP@aph.gov.au,,,,,,,,,,,,,,
WA,6528,SOUTH GREENOUGH,Durack,Hon Melissa Price MP,Melissa.Price.MP@aph.gov.au,,,,,,,,,,,,,,
WA,6722,SOUTH HEDLAND,Durack,Hon Melissa Price MP,Melissa.Price.MP@aph.gov.au,,,,,,,,,,,,,,
WA,6635,SOUTH MURCHISON,Durack,Hon Melissa Price MP,Melissa.Price.MP@aph.gov.au,,,,,,,,,,,,,,
WA,6701,SOUTH PLANTATIONS,Durack,Hon Melissa Price MP,Melissa.Price.MP@aph.gov.au,,,,,,,,,,,,,,
WA,6532,SOUTH YUNA,Durack,Hon Melissa Price MP,Melissa.Price.MP@aph.gov.au,,,,,,,,,,,,,,
WA,6401,SOUTHERN BROOK,Durack,Hon Melissa Price MP,Melissa.Price.MP@aph.gov.au,,,,,,,,,,,,,,
WA,6530,SPALDING,Durack,Hon Melissa Price MP,Melissa.Price.MP@aph.gov.au,,,,,,,,,,,,,,
WA,6401,SPENCERS BROOK,Durack,Hon Melissa Price MP,Melissa.Price.MP@aph.gov.au,,,,,,,,,,,,,,
WA,6525,SPRINGFIELD,Durack,Hon Melissa Price MP,Melissa.Price.MP@aph.gov.au,,,,,,,,,,,,,,
WA,6728,ST GEORGE RANGES,Durack,Hon Melissa Price MP,Melissa.Price.MP@aph.gov.au,,,,,,,,,,,,,,
WA,6302,ST RONANS,Durack,Hon Melissa Price MP,Melissa.Price.MP@aph.gov.au,,,,,,,,,,,,,,
WA,6714,STOVE HILL,Durack,Hon Melissa Price MP,Melissa.Price.MP@aph.gov.au,,,,,,,,,,,,,,
WA,6530,STRATHALBYN,Durack,Hon Melissa Price MP,Melissa.Price.MP@aph.gov.au,,,,,,,,,,,,,,
WA,6721,STRELLEY,Durack,Hon Melissa Price MP,Melissa.Price.MP@aph.gov.au,,,,,,,,,,,,,,
WA,6770,STURT CREEK,Durack,Hon Melissa Price MP,Melissa.Price.MP@aph.gov.au,,,,,,,,,,,,,,
WA,6530,SUNSET BEACH,Durack,Hon Melissa Price MP,Melissa.Price.MP@aph.gov.au,,,,,,,,,,,,,,
WA,6710,TALANDJI,Durack,Hon Melissa Price MP,Melissa.Price.MP@aph.gov.au,,,,,,,,,,,,,,
WA,6302,TALBOT,Durack,Hon Melissa Price MP,Melissa.Price.MP@aph.gov.au,,,,,,,,,,,,,,
WA,6701,TALISKER,Durack,Hon Melissa Price MP,Melissa.Price.MP@aph.gov.au,,,,,,,,,,,,,,
WA,6532,TAMALA,Durack,Hon Melissa Price MP,Melissa.Price.MP@aph.gov.au,,,,,,,,,,,,,,
WA,6770,TANAMI,Durack,Hon Melissa Price MP,Melissa.Price.MP@aph.gov.au,,,,,,,,,,,,,,
WA,6530,TARCOOLA BEACH,Durack,Hon Melissa Price MP,Melissa.Price.MP@aph.gov.au,,,,,,,,,,,,,,
WA,6628,TARDUN,Durack,Hon Melissa Price MP,Melissa.Price.MP@aph.gov.au,,,,,,,,,,,,,,
WA,6762,TELFER,Durack,Hon Melissa Price MP,Melissa.Price.MP@aph.gov.au,,,,,,,,,,,,,,
WA,6632,TENINDEWA,Durack,Hon Melissa Price MP,Melissa.Price.MP@aph.gov.au,,,,,,,,,,,,,,
WA,6519,THREE SPRINGS,Durack,Hon Melissa Price MP,Melissa.Price.MP@aph.gov.au,,,,,,,,,,,,,,
WA,6401,THROSSELL,Durack,Hon Melissa Price MP,Melissa.Price.MP@aph.gov.au,,,,,,,,,,,,,,
WA,6532,TIBRADDEN,Durack,Hon Melissa Price MP,Melissa.Price.MP@aph.gov.au,,,,,,,,,,,,,,
WA,6751,TOM PRICE,Durack,Hon Melissa Price MP,Melissa.Price.MP@aph.gov.au,,,,,,,,,,,,,,
WA,6566,TOODYAY,Durack,Hon Melissa Price MP,Melissa.Price.MP@aph.gov.au,,,,,,,,,,,,,,
WA,6462,UCARTY,Durack,Hon Melissa Price MP,Melissa.Price.MP@aph.gov.au,,,,,,,,,,,,,,
WA,6460,UCARTY WEST,Durack,Hon Melissa Price MP,Melissa.Price.MP@aph.gov.au,,,,,,,,,,,,,,
WA,6537,USELESS LOOP,Durack,Hon Melissa Price MP,Melissa.Price.MP@aph.gov.au,,,,,,,,,,,,,,
WA,6530,UTAKARRA,Durack,Hon Melissa Price MP,Melissa.Price.MP@aph.gov.au,,,,,,,,,,,,,,
WA,6532,VALENTINE,Durack,Hon Melissa Price MP,Melissa.Price.MP@aph.gov.au,,,,,,,,,,,,,,
WA,6509,WADDINGTON,Durack,Hon Melissa Price MP,Melissa.Price.MP@aph.gov.au,,,,,,,,,,,,,,
WA,6515,WADDY FOREST,Durack,Hon Melissa Price MP,Melissa.Price.MP@aph.gov.au,,,,,,,,,,,,,,
WA,6530,WAGGRAKINE,Durack,Hon Melissa Price MP,Melissa.Price.MP@aph.gov.au,,,,,,,,,,,,,,
WA,6510,WALEBING,Durack,Hon Melissa Price MP,Melissa.Price.MP@aph.gov.au,,,,,,,,,,,,,,
WA,6528,WALKAWAY,Durack,Hon Melissa Price MP,Melissa.Price.MP@aph.gov.au,,,,,,,,,,,,,,
WA,6721,WALLAREENYA,Durack,Hon Melissa Price MP,Melissa.Price.MP@aph.gov.au,,,,,,,,,,,,,,
WA,6460,WALYORMOURING,Durack,Hon Melissa Price MP,Melissa.Price.MP@aph.gov.au,,,,,,,,,,,,,,
WA,6084,WALYUNGA NATIONAL PARK,Durack,Hon Melissa Price MP,Melissa.Price.MP@aph.gov.au,,,,,,,,,,,,,,
WA,6532,WANDANA,Durack,Hon Melissa Price MP,Melissa.Price.MP@aph.gov.au,,,,,,,,,,,,,,
WA,6530,WANDINA,Durack,Hon Melissa Price MP,Melissa.Price.MP@aph.gov.au,,,,,,,,,,,,,,
WA,6503,WANERIE,Durack,Hon Melissa Price MP,Melissa.Price.MP@aph.gov.au,,,,,,,,,,,,,,
WA,6765,WANGKATJUNGKA,Durack,Hon Melissa Price MP,Melissa.Price.MP@aph.gov.au,,,,,,,,,,,,,,
WA,6505,WANNAMAL,Durack,Hon Melissa Price MP,Melissa.Price.MP@aph.gov.au,,,,,,,,,,,,,,
WA,6743,WARMUN,Durack,Hon Melissa Price MP,Melissa.Price.MP@aph.gov.au,,,,,,,,,,,,,,
WA,6518,WARRADARGE,Durack,Hon Melissa Price MP,Melissa.Price.MP@aph.gov.au,,,,,,,,,,,,,,
WA,6725,WATERBANK,Durack,Hon Melissa Price MP,Melissa.Price.MP@aph.gov.au,,,,,,,,,,,,,,
WA,6513,WATHEROO,Durack,Hon Melissa Price MP,Melissa.Price.MP@aph.gov.au,,,,,,,,,,,,,,
WA,6568,WATTENING,Durack,Hon Melissa Price MP,Melissa.Price.MP@aph.gov.au,,,,,,,,,,,,,,
WA,6530,WEBBERTON,Durack,Hon Melissa Price MP,Melissa.Price.MP@aph.gov.au,,,,,,,,,,,,,,
WA,6044,WEDGE ISLAND,Durack,Hon Melissa Price MP,Melissa.Price.MP@aph.gov.au,,,,,,,,,,,,,,
WA,6721,WEDGEFIELD,Durack,Hon Melissa Price MP,Melissa.Price.MP@aph.gov.au,,,,,,,,,,,,,,
WA,6640,WELD RANGE,Durack,Hon Melissa Price MP,Melissa.Price.MP@aph.gov.au,,,,,,,,,,,,,,
WA,6606,WEST BALLIDU,Durack,Hon Melissa Price MP,Melissa.Price.MP@aph.gov.au,,,,,,,,,,,,,,
WA,6532,WEST BINNU,Durack,Hon Melissa Price MP,Melissa.Price.MP@aph.gov.au,,,,,,,,,,,,,,
WA,6630,WEST CASUARINAS,Durack,Hon Melissa Price MP,Melissa.Price.MP@aph.gov.au,,,,,,,,,,,,,,
WA,6530,WEST END,Durack,Hon Melissa Price MP,Melissa.Price.MP@aph.gov.au,,,,,,,,,,,,,,
WA,6705,WEST LYONS RIVER,Durack,Hon Melissa Price MP,Melissa.Price.MP@aph.gov.au,,,,,,,,,,,,,,
WA,6566,WEST TOODYAY,Durack,Hon Melissa Price MP,Melissa.Price.MP@aph.gov.au,,,,,,,,,,,,,,
WA,6718,WHIM CREEK,Durack,Hon Melissa Price MP,Melissa.Price.MP@aph.gov.au,,,,,,,,,,,,,,
WA,6532,WHITE PEAK,Durack,Hon Melissa Price MP,Melissa.Price.MP@aph.gov.au,,,,,,,,,,,,,,
WA,6532,WICHERINA,Durack,Hon Melissa Price MP,Melissa.Price.MP@aph.gov.au,,,,,,,,,,,,,,
WA,6532,WICHERINA SOUTH,Durack,Hon Melissa Price MP,Melissa.Price.MP@aph.gov.au,,,,,,,,,,,,,,
WA,6720,WICKHAM,Durack,Hon Melissa Price MP,Melissa.Price.MP@aph.gov.au,,,,,,,,,,,,,,
WA,6302,WILBERFORCE,Durack,Hon Melissa Price MP,Melissa.Price.MP@aph.gov.au,,,,,,,,,,,,,,
WA,6041,WILBINGA,Durack,Hon Melissa Price MP,Melissa.Price.MP@aph.gov.au,,,,,,,,,,,,,,
WA,6728,WILLARE,Durack,Hon Melissa Price MP,Melissa.Price.MP@aph.gov.au,,,,,,,,,,,,,,
WA,6751,WITTENOOM,Durack,Hon Melissa Price MP,Melissa.Price.MP@aph.gov.au,,,,,,,,,,,,,,
WA,6519,WOMARDEN,Durack,Hon Melissa Price MP,Melissa.Price.MP@aph.gov.au,,,,,,,,,,,,,,
WA,6401,WONGAMINE,Durack,Hon Melissa Price MP,Melissa.Price.MP@aph.gov.au,,,,,,,,,,,,,,
WA,6603,WONGAN HILLS,Durack,Hon Melissa Price MP,Melissa.Price.MP@aph.gov.au,,,,,,,,,,,,,,
WA,6630,WONGOONDY,Durack,Hon Melissa Price MP,Melissa.Price.MP@aph.gov.au,,,,,,,,,,,,,,
WA,6530,WONTHELLA,Durack,Hon Melissa Price MP,Melissa.Price.MP@aph.gov.au,,,,,,,,,,,,,,
WA,6701,WOODLEIGH,Durack,Hon Melissa Price MP,Melissa.Price.MP@aph.gov.au,,,,,,,,,,,,,,
WA,6041,WOODRIDGE,Durack,Hon Melissa Price MP,Melissa.Price.MP@aph.gov.au,,,,,,,,,,,,,,
WA,6630,WOOLGORONG,Durack,Hon Melissa Price MP,Melissa.Price.MP@aph.gov.au,,,,,,,,,,,,,,
WA,6701,WOORAMEL,Durack,Hon Melissa Price MP,Melissa.Price.MP@aph.gov.au,,,,,,,,,,,,,,
WA,6530,WOORREE,Durack,Hon Melissa Price MP,Melissa.Price.MP@aph.gov.au,,,,,,,,,,,,,,
WA,6562,WOOTTATING,Durack,Hon Melissa Price MP,Melissa.Price.MP@aph.gov.au,,,,,,,,,,,,,,
WA,6612,WUBIN,Durack,Hon Melissa Price MP,Melissa.Price.MP@aph.gov.au,,,,,,,,,,,,,,
WA,6560,WUNDOWIE,Durack,Hon Melissa Price MP,Melissa.Price.MP@aph.gov.au,,,,,,,,,,,,,,
WA,6568,WYENING,Durack,Hon Melissa Price MP,Melissa.Price.MP@aph.gov.au,,,,,,,,,,,,,,
WA,6740,WYNDHAM,Durack,Hon Melissa Price MP,Melissa.Price.MP@aph.gov.au,,,,,,,,,,,,,,
WA,6609,XANTIPPE,Durack,Hon Melissa Price MP,Melissa.Price.MP@aph.gov.au,,,,,,,,,,,,,,
WA,6701,YALARDY,Durack,Hon Melissa Price MP,Melissa.Price.MP@aph.gov.au,,,,,,,,,,,,,,
WA,6635,YALGOO,Durack,Hon Melissa Price MP,Melissa.Price.MP@aph.gov.au,,,,,,,,,,,,,,
WA,6535,YALLABATHARRA,Durack,Hon Melissa Price MP,Melissa.Price.MP@aph.gov.au,,,,,,,,,,,,,,
WA,6522,YANDANOOKA,Durack,Hon Melissa Price MP,Melissa.Price.MP@aph.gov.au,,,,,,,,,,,,,,
WA,6701,YANDOO CREEK,Durack,Hon Melissa Price MP,Melissa.Price.MP@aph.gov.au,,,,,,,,,,,,,,
WA,6710,YANNARIE,Durack,Hon Melissa Price MP,Melissa.Price.MP@aph.gov.au,,,,,,,,,,,,,,
WA,6509,YARAWINDAH,Durack,Hon Melissa Price MP,Melissa.Price.MP@aph.gov.au,,,,,,,,,,,,,,
WA,6525,YARDARINO,Durack,Hon Melissa Price MP,Melissa.Price.MP@aph.gov.au,,,,,,,,,,,,,,
WA,6522,YARRAGADEE,Durack,Hon Melissa Price MP,Melissa.Price.MP@aph.gov.au,,,,,,,,,,,,,,
WA,6507,YATHROO,Durack,Hon Melissa Price MP,Melissa.Price.MP@aph.gov.au,,,,,,,,,,,,,,
WA,6503,YEAL,Durack,Hon Melissa Price MP,Melissa.Price.MP@aph.gov.au,,,,,,,,,,,,,,
WA,6571,YERECOIN,Durack,Hon Melissa Price MP,Melissa.Price.MP@aph.gov.au,,,,,,,,,,,,,,
WA,6532,YETNA,Durack,Hon Melissa Price MP,Melissa.Price.MP@aph.gov.au,,,,,,,,,,,,,,
WA,6302,YORK,Durack,Hon Melissa Price MP,Melissa.Price.MP@aph.gov.au,,,,,,,,,,,,,,
WA,6532,YUNA,Durack,Hon Melissa Price MP,Melissa.Price.MP@aph.gov.au,,,,,,,,,,,,,,
WA,6280,ABBA RIVER,Forrest,Hon Nola Marino MP,Nola.Marino.MP@aph.gov.au,,,,,,,,,,,,,,
WA,6280,ABBEY,Forrest,Hon Nola Marino MP,Nola.Marino.MP@aph.gov.au,,,,,,,,,,,,,,
WA,6280,ACTON PARK,Forrest,Hon Nola Marino MP,Nola.Marino.MP@aph.gov.au,,,,,,,,,,,,,,
WA,6288,ALEXANDRA BRIDGE,Forrest,Hon Nola Marino MP,Nola.Marino.MP@aph.gov.au,,,,,,,,,,,,,,
WA,6280,AMBERGATE,Forrest,Hon Nola Marino MP,Nola.Marino.MP@aph.gov.au,,,,,,,,,,,,,,
WA,6280,ANNIEBROOK,Forrest,Hon Nola Marino MP,Nola.Marino.MP@aph.gov.au,,,,,,,,,,,,,,
WA,6239,ARGYLE,Forrest,Hon Nola Marino MP,Nola.Marino.MP@aph.gov.au,,,,,,,,,,,,,,
WA,6290,AUGUSTA,Forrest,Hon Nola Marino MP,Nola.Marino.MP@aph.gov.au,,,,,,,,,,,,,,
WA,6233,AUSTRALIND,Forrest,Hon Nola Marino MP,Nola.Marino.MP@aph.gov.au,,,,,,,,,,,,,,
WA,6253,BALINGUP,Forrest,Hon Nola Marino MP,Nola.Marino.MP@aph.gov.au,,,,,,,,,,,,,,
WA,6224,BEELA,Forrest,Hon Nola Marino MP,Nola.Marino.MP@aph.gov.au,,,,,,,,,,,,,,
WA,6239,BEELERUP,Forrest,Hon Nola Marino MP,Nola.Marino.MP@aph.gov.au,,,,,,,,,,,,,,
WA,6223,BENGER,Forrest,Hon Nola Marino MP,Nola.Marino.MP@aph.gov.au,,,,,,,,,,,,,,
WA,6233,BINNINGUP,Forrest,Hon Nola Marino MP,Nola.Marino.MP@aph.gov.au,,,,,,,,,,,,,,
WA,6280,BOALLIA,Forrest,Hon Nola Marino MP,Nola.Marino.MP@aph.gov.au,,,,,,,,,,,,,,
WA,6286,BORANUP,Forrest,Hon Nola Marino MP,Nola.Marino.MP@aph.gov.au,,,,,,,,,,,,,,
WA,6280,BOVELL,Forrest,Hon Nola Marino MP,Nola.Marino.MP@aph.gov.au,,,,,,,,,,,,,,
WA,6237,BOYANUP,Forrest,Hon Nola Marino MP,Nola.Marino.MP@aph.gov.au,,,,,,,,,,,,,,
WA,6285,BRAMLEY,Forrest,Hon Nola Marino MP,Nola.Marino.MP@aph.gov.au,,,,,,,,,,,,,,
WA,6251,BRAZIER,Forrest,Hon Nola Marino MP,Nola.Marino.MP@aph.gov.au,,,,,,,,,,,,,,
WA,6280,BROADWATER,Forrest,Hon Nola Marino MP,Nola.Marino.MP@aph.gov.au,,,,,,,,,,,,,,
WA,6239,BROOKHAMPTON,Forrest,Hon Nola Marino MP,Nola.Marino.MP@aph.gov.au,,,,,,,,,,,,,,
WA,6224,BRUNSWICK,Forrest,Hon Nola Marino MP,Nola.Marino.MP@aph.gov.au,,,,,,,,,,,,,,
WA,6230,BUNBURY,Forrest,Hon Nola Marino MP,Nola.Marino.MP@aph.gov.au,,,,,,,,,,,,,,
WA,6227,BUREKUP,Forrest,Hon Nola Marino MP,Nola.Marino.MP@aph.gov.au,,,,,,,,,,,,,,
WA,6285,BURNSIDE,Forrest,Hon Nola Marino MP,Nola.Marino.MP@aph.gov.au,,,,,,,,,,,,,,
WA,6280,BUSSELTON,Forrest,Hon Nola Marino MP,Nola.Marino.MP@aph.gov.au,,,,,,,,,,,,,,
WA,6271,CAPEL,Forrest,Hon Nola Marino MP,Nola.Marino.MP@aph.gov.au,,,,,,,,,,,,,,
WA,6271,CAPEL RIVER,Forrest,Hon Nola Marino MP,Nola.Marino.MP@aph.gov.au,,,,,,,,,,,,,,
WA,6280,CARBUNUP RIVER,Forrest,Hon Nola Marino MP,Nola.Marino.MP@aph.gov.au,,,,,,,,,,,,,,
WA,6230,CAREY PARK,Forrest,Hon Nola Marino MP,Nola.Marino.MP@aph.gov.au,,,,,,,,,,,,,,
WA,6280,CHAPMAN HILL,Forrest,Hon Nola Marino MP,Nola.Marino.MP@aph.gov.au,,,,,,,,,,,,,,
WA,6239,CHARLEY CREEK,Forrest,Hon Nola Marino MP,Nola.Marino.MP@aph.gov.au,,,,,,,,,,,,,,
WA,6233,CLIFTON PARK,Forrest,Hon Nola Marino MP,Nola.Marino.MP@aph.gov.au,,,,,,,,,,,,,,
WA,6230,COLLEGE GROVE,Forrest,Hon Nola Marino MP,Nola.Marino.MP@aph.gov.au,,,,,,,,,,,,,,
WA,6219,COOKERNUP,Forrest,Hon Nola Marino MP,Nola.Marino.MP@aph.gov.au,,,,,,,,,,,,,,
WA,6288,COURTENAY,Forrest,Hon Nola Marino MP,Nola.Marino.MP@aph.gov.au,,,,,,,,,,,,,,
WA,6284,COWARAMUP,Forrest,Hon Nola Marino MP,Nola.Marino.MP@aph.gov.au,,,,,,,,,,,,,,
WA,6236,CROOKED BROOK,Forrest,Hon Nola Marino MP,Nola.Marino.MP@aph.gov.au,,,,,,,,,,,,,,
WA,6275,CUNDINUP,Forrest,Hon Nola Marino MP,Nola.Marino.MP@aph.gov.au,,,,,,,,,,,,,,
WA,6230,DALYELLUP,Forrest,Hon Nola Marino MP,Nola.Marino.MP@aph.gov.au,,,,,,,,,,,,,,
WA,6236,DARDANUP,Forrest,Hon Nola Marino MP,Nola.Marino.MP@aph.gov.au,,,,,,,,,,,,,,
WA,6236,DARDANUP WEST,Forrest,Hon Nola Marino MP,Nola.Marino.MP@aph.gov.au,,,,,,,,,,,,,,
WA,6230,DAVENPORT,Forrest,Hon Nola Marino MP,Nola.Marino.MP@aph.gov.au,,,,,,,,,,,,,,
WA,6290,DEEPDENE,Forrest,Hon Nola Marino MP,Nola.Marino.MP@aph.gov.au,,,,,,,,,,,,,,
WA,6239,DONNYBROOK,Forrest,Hon Nola Marino MP,Nola.Marino.MP@aph.gov.au,,,,,,,,,,,,,,
WA,6281,DUNSBOROUGH,Forrest,Hon Nola Marino MP,Nola.Marino.MP@aph.gov.au,,,,,,,,,,,,,,
WA,6281,EAGLE BAY,Forrest,Hon Nola Marino MP,Nola.Marino.MP@aph.gov.au,,,,,,,,,,,,,,
WA,6290,EAST AUGUSTA,Forrest,Hon Nola Marino MP,Nola.Marino.MP@aph.gov.au,,,,,,,,,,,,,,
WA,6230,EAST BUNBURY,Forrest,Hon Nola Marino MP,Nola.Marino.MP@aph.gov.au,,,,,,,,,,,,,,
WA,6232,EATON,Forrest,Hon Nola Marino MP,Nola.Marino.MP@aph.gov.au,,,,,,,,,,,,,,
WA,6237,ELGIN,Forrest,Hon Nola Marino MP,Nola.Marino.MP@aph.gov.au,,,,,,,,,,,,,,
WA,6236,FERGUSON,Forrest,Hon Nola Marino MP,Nola.Marino.MP@aph.gov.au,,,,,,,,,,,,,,
WA,6286,FOREST GROVE,Forrest,Hon Nola Marino MP,Nola.Marino.MP@aph.gov.au,,,,,,,,,,,,,,
WA,6271,FORREST BEACH,Forrest,Hon Nola Marino MP,Nola.Marino.MP@aph.gov.au,,,,,,,,,,,,,,
WA,6230,GELORUP,Forrest,Hon Nola Marino MP,Nola.Marino.MP@aph.gov.au,,,,,,,,,,,,,,
WA,6280,GEOGRAPHE,Forrest,Hon Nola Marino MP,Nola.Marino.MP@aph.gov.au,,,,,,,,,,,,,,
WA,6230,GLEN IRIS,Forrest,Hon Nola Marino MP,Nola.Marino.MP@aph.gov.au,,,,,,,,,,,,,,
WA,6239,GLEN MERVYN,Forrest,Hon Nola Marino MP,Nola.Marino.MP@aph.gov.au,,,,,,,,,,,,,,
WA,6285,GNARABUP,Forrest,Hon Nola Marino MP,Nola.Marino.MP@aph.gov.au,,,,,,,,,,,,,,
WA,6284,GRACETOWN,Forrest,Hon Nola Marino MP,Nola.Marino.MP@aph.gov.au,,,,,,,,,,,,,,
WA,6253,GRIMWADE,Forrest,Hon Nola Marino MP,Nola.Marino.MP@aph.gov.au,,,,,,,,,,,,,,
WA,6237,GWINDINUP,Forrest,Hon Nola Marino MP,Nola.Marino.MP@aph.gov.au,,,,,,,,,,,,,,
WA,6288,HAMELIN BAY,Forrest,Hon Nola Marino MP,Nola.Marino.MP@aph.gov.au,,,,,,,,,,,,,,
WA,6220,HARVEY,Forrest,Hon Nola Marino MP,Nola.Marino.MP@aph.gov.au,,,,,,,,,,,,,,
WA,6236,HENTY,Forrest,Hon Nola Marino MP,Nola.Marino.MP@aph.gov.au,,,,,,,,,,,,,,
WA,6280,HITHERGREEN,Forrest,Hon Nola Marino MP,Nola.Marino.MP@aph.gov.au,,,,,,,,,,,,,,
WA,6220,HOFFMAN,Forrest,Hon Nola Marino MP,Nola.Marino.MP@aph.gov.au,,,,,,,,,,,,,,
WA,6275,JARRAHWOOD,Forrest,Hon Nola Marino MP,Nola.Marino.MP@aph.gov.au,,,,,,,,,,,,,,
WA,6280,JINDONG,Forrest,Hon Nola Marino MP,Nola.Marino.MP@aph.gov.au,,,,,,,,,,,,,,
WA,6280,KALGUP,Forrest,Hon Nola Marino MP,Nola.Marino.MP@aph.gov.au,,,,,,,,,,,,,,
WA,6280,KALOORUP,Forrest,Hon Nola Marino MP,Nola.Marino.MP@aph.gov.au,,,,,,,,,,,,,,
WA,6288,KARRIDALE,Forrest,Hon Nola Marino MP,Nola.Marino.MP@aph.gov.au,,,,,,,,,,,,,,
WA,6280,KEALY,Forrest,Hon Nola Marino MP,Nola.Marino.MP@aph.gov.au,,,,,,,,,,,,,,
WA,6233,KINGSTON,Forrest,Hon Nola Marino MP,Nola.Marino.MP@aph.gov.au,,,,,,,,,,,,,,
WA,6251,KIRUP,Forrest,Hon Nola Marino MP,Nola.Marino.MP@aph.gov.au,,,,,,,,,,,,,,
WA,6290,KUDARDUP,Forrest,Hon Nola Marino MP,Nola.Marino.MP@aph.gov.au,,,,,,,,,,,,,,
WA,6290,LEEUWIN,Forrest,Hon Nola Marino MP,Nola.Marino.MP@aph.gov.au,,,,,,,,,,,,,,
WA,6233,LESCHENAULT,Forrest,Hon Nola Marino MP,Nola.Marino.MP@aph.gov.au,,,,,,,,,,,,,,
WA,6240,LOWDEN,Forrest,Hon Nola Marino MP,Nola.Marino.MP@aph.gov.au,,,,,,,,,,,,,,
WA,6280,LUDLOW,Forrest,Hon Nola Marino MP,Nola.Marino.MP@aph.gov.au,,,,,,,,,,,,,,
WA,6285,MARGARET RIVER,Forrest,Hon Nola Marino MP,Nola.Marino.MP@aph.gov.au,,,,,,,,,,,,,,
WA,6280,MARYBROOK,Forrest,Hon Nola Marino MP,Nola.Marino.MP@aph.gov.au,,,,,,,,,,,,,,
WA,6280,METRICUP,Forrest,Hon Nola Marino MP,Nola.Marino.MP@aph.gov.au,,,,,,,,,,,,,,
WA,6232,MILLBRIDGE,Forrest,Hon Nola Marino MP,Nola.Marino.MP@aph.gov.au,,,,,,,,,,,,,,
WA,6290,MOLLOY ISLAND,Forrest,Hon Nola Marino MP,Nola.Marino.MP@aph.gov.au,,,,,,,,,,,,,,
WA,6221,MORNINGTON,Forrest,Hon Nola Marino MP,Nola.Marino.MP@aph.gov.au,,,,,,,,,,,,,,
WA,6252,MULLALYUP,Forrest,Hon Nola Marino MP,Nola.Marino.MP@aph.gov.au,,,,,,,,,,,,,,
WA,6225,MUMBALLUP,Forrest,Hon Nola Marino MP,Nola.Marino.MP@aph.gov.au,,,,,,,,,,,,,,
WA,6220,MYALUP,Forrest,Hon Nola Marino MP,Nola.Marino.MP@aph.gov.au,,,,,,,,,,,,,,
WA,6281,NATURALISTE,Forrest,Hon Nola Marino MP,Nola.Marino.MP@aph.gov.au,,,,,,,,,,,,,,
WA,6251,NEWLANDS,Forrest,Hon Nola Marino MP,Nola.Marino.MP@aph.gov.au,,,,,,,,,,,,,,
WA,6288,NILLUP,Forrest,Hon Nola Marino MP,Nola.Marino.MP@aph.gov.au,,,,,,,,,,,,,,
WA,6225,NOGGERUP,Forrest,Hon Nola Marino MP,Nola.Marino.MP@aph.gov.au,,,,,,,,,,,,,,
WA,6237,NORTH BOYANUP,Forrest,Hon Nola Marino MP,Nola.Marino.MP@aph.gov.au,,,,,,,,,,,,,,
WA,6280,NORTH JINDONG,Forrest,Hon Nola Marino MP,Nola.Marino.MP@aph.gov.au,,,,,,,,,,,,,,
WA,6285,OSMINGTON,Forrest,Hon Nola Marino MP,Nola.Marino.MP@aph.gov.au,,,,,,,,,,,,,,
WA,6236,PARADISE,Forrest,Hon Nola Marino MP,Nola.Marino.MP@aph.gov.au,,,,,,,,,,,,,,
WA,6233,PARKFIELD,Forrest,Hon Nola Marino MP,Nola.Marino.MP@aph.gov.au,,,,,,,,,,,,,,
WA,6239,PAYNEDALE,Forrest,Hon Nola Marino MP,Nola.Marino.MP@aph.gov.au,,,,,,,,,,,,,,
WA,6230,PELICAN POINT,Forrest,Hon Nola Marino MP,Nola.Marino.MP@aph.gov.au,,,,,,,,,,,,,,
WA,6271,PEPPERMINT GROVE BEACH,Forrest,Hon Nola Marino MP,Nola.Marino.MP@aph.gov.au,,,,,,,,,,,,,,
WA,6229,PICTON,Forrest,Hon Nola Marino MP,Nola.Marino.MP@aph.gov.au,,,,,,,,,,,,,,
WA,6229,PICTON EAST,Forrest,Hon Nola Marino MP,Nola.Marino.MP@aph.gov.au,,,,,,,,,,,,,,
WA,6285,PREVELLY,Forrest,Hon Nola Marino MP,Nola.Marino.MP@aph.gov.au,,,,,,,,,,,,,,
WA,6281,QUEDJINUP,Forrest,Hon Nola Marino MP,Nola.Marino.MP@aph.gov.au,,,,,,,,,,,,,,
WA,6239,QUEENWOOD,Forrest,Hon Nola Marino MP,Nola.Marino.MP@aph.gov.au,,,,,,,,,,,,,,
WA,6281,QUINDALUP,Forrest,Hon Nola Marino MP,Nola.Marino.MP@aph.gov.au,,,,,,,,,,,,,,
WA,6286,REDGATE,Forrest,Hon Nola Marino MP,Nola.Marino.MP@aph.gov.au,,,,,,,,,,,,,,
WA,6280,REINSCOURT,Forrest,Hon Nola Marino MP,Nola.Marino.MP@aph.gov.au,,,,,,,,,,,,,,
WA,6226,ROELANDS,Forrest,Hon Nola Marino MP,Nola.Marino.MP@aph.gov.au,,,,,,,,,,,,,,
WA,6285,ROSA BROOK,Forrest,Hon Nola Marino MP,Nola.Marino.MP@aph.gov.au,,,,,,,,,,,,,,
WA,6285,ROSA GLEN,Forrest,Hon Nola Marino MP,Nola.Marino.MP@aph.gov.au,,,,,,,,,,,,,,
WA,6280,RUABON,Forrest,Hon Nola Marino MP,Nola.Marino.MP@aph.gov.au,,,,,,,,,,,,,,
WA,6280,SABINA RIVER,Forrest,Hon Nola Marino MP,Nola.Marino.MP@aph.gov.au,,,,,,,,,,,,,,
WA,6288,SCOTT RIVER,Forrest,Hon Nola Marino MP,Nola.Marino.MP@aph.gov.au,,,,,,,,,,,,,,
WA,6280,SIESTA PARK,Forrest,Hon Nola Marino MP,Nola.Marino.MP@aph.gov.au,,,,,,,,,,,,,,
WA,6230,SOUTH BUNBURY,Forrest,Hon Nola Marino MP,Nola.Marino.MP@aph.gov.au,,,,,,,,,,,,,,
WA,6253,SOUTHAMPTON,Forrest,Hon Nola Marino MP,Nola.Marino.MP@aph.gov.au,,,,,,,,,,,,,,
WA,6271,STIRLING ESTATE,Forrest,Hon Nola Marino MP,Nola.Marino.MP@aph.gov.au,,,,,,,,,,,,,,
WA,6237,STRATHAM,Forrest,Hon Nola Marino MP,Nola.Marino.MP@aph.gov.au,,,,,,,,,,,,,,
WA,6237,THE PLAINS,Forrest,Hon Nola Marino MP,Nola.Marino.MP@aph.gov.au,,,,,,,,,,,,,,
WA,6239,THOMSON BROOK,Forrest,Hon Nola Marino MP,Nola.Marino.MP@aph.gov.au,,,,,,,,,,,,,,
WA,6233,TREENDALE,Forrest,Hon Nola Marino MP,Nola.Marino.MP@aph.gov.au,,,,,,,,,,,,,,
WA,6284,TREETON,Forrest,Hon Nola Marino MP,Nola.Marino.MP@aph.gov.au,,,,,,,,,,,,,,
WA,6280,TUTUNUP,Forrest,Hon Nola Marino MP,Nola.Marino.MP@aph.gov.au,,,,,,,,,,,,,,
WA,6220,UDUC,Forrest,Hon Nola Marino MP,Nola.Marino.MP@aph.gov.au,,,,,,,,,,,,,,
WA,6239,UPPER CAPEL,Forrest,Hon Nola Marino MP,Nola.Marino.MP@aph.gov.au,,,,,,,,,,,,,,
WA,6230,USHER,Forrest,Hon Nola Marino MP,Nola.Marino.MP@aph.gov.au,,,,,,,,,,,,,,
WA,6280,VASSE,Forrest,Hon Nola Marino MP,Nola.Marino.MP@aph.gov.au,,,,,,,,,,,,,,
WA,6230,VITTORIA,Forrest,Hon Nola Marino MP,Nola.Marino.MP@aph.gov.au,,,,,,,,,,,,,,
WA,6280,WALSALL,Forrest,Hon Nola Marino MP,Nola.Marino.MP@aph.gov.au,,,,,,,,,,,,,,
WA,6220,WARAWARRUP,Forrest,Hon Nola Marino MP,Nola.Marino.MP@aph.gov.au,,,,,,,,,,,,,,
WA,6288,WARNER GLEN,Forrest,Hon Nola Marino MP,Nola.Marino.MP@aph.gov.au,,,,,,,,,,,,,,
WA,6228,WATERLOO,Forrest,Hon Nola Marino MP,Nola.Marino.MP@aph.gov.au,,,,,,,,,,,,,,
WA,6233,WELLESLEY,Forrest,Hon Nola Marino MP,Nola.Marino.MP@aph.gov.au,,,,,,,,,,,,,,
WA,6236,WELLINGTON FOREST,Forrest,Hon Nola Marino MP,Nola.Marino.MP@aph.gov.au,,,,,,,,,,,,,,
WA,6236,WELLINGTON MILL,Forrest,Hon Nola Marino MP,Nola.Marino.MP@aph.gov.au,,,,,,,,,,,,,,
WA,6280,WEST BUSSELTON,Forrest,Hon Nola Marino MP,Nola.Marino.MP@aph.gov.au,,,,,,,,,,,,,,
WA,6243,WILGA WEST,Forrest,Hon Nola Marino MP,Nola.Marino.MP@aph.gov.au,,,,,,,,,,,,,,
WA,6280,WILYABRUP,Forrest,Hon Nola Marino MP,Nola.Marino.MP@aph.gov.au,,,,,,,,,,,,,,
WA,6286,WITCHCLIFFE,Forrest,Hon Nola Marino MP,Nola.Marino.MP@aph.gov.au,,,,,,,,,,,,,,
WA,6230,WITHERS,Forrest,Hon Nola Marino MP,Nola.Marino.MP@aph.gov.au,,,,,,,,,,,,,,
WA,6221,WOKALUP,Forrest,Hon Nola Marino MP,Nola.Marino.MP@aph.gov.au,,,,,,,,,,,,,,
WA,6280,WONNERUP,Forrest,Hon Nola Marino MP,Nola.Marino.MP@aph.gov.au,,,,,,,,,,,,,,
WA,6239,YABBERUP,Forrest,Hon Nola Marino MP,Nola.Marino.MP@aph.gov.au,,,,,,,,,,,,,,
WA,6282,YALLINGUP,Forrest,Hon Nola Marino MP,Nola.Marino.MP@aph.gov.au,,,,,,,,,,,,,,
WA,6282,YALLINGUP SIDING,Forrest,Hon Nola Marino MP,Nola.Marino.MP@aph.gov.au,,,,,,,,,,,,,,
WA,6280,YALYALUP,Forrest,Hon Nola Marino MP,Nola.Marino.MP@aph.gov.au,,,,,,,,,,,,,,
WA,6218,YARLOOP,Forrest,Hon Nola Marino MP,Nola.Marino.MP@aph.gov.au,,,,,,,,,,,,,,
WA,6280,YELVERTON,Forrest,Hon Nola Marino MP,Nola.Marino.MP@aph.gov.au,,,,,,,,,,,,,,
WA,6275,YOGANUP,Forrest,Hon Nola Marino MP,Nola.Marino.MP@aph.gov.au,,,,,,,,,,,,,,
WA,6280,YOONGARILLUP,Forrest,Hon Nola Marino MP,Nola.Marino.MP@aph.gov.au,,,,,,,,,,,,,,
WA,6164,ATWELL,Fremantle,Mr Josh Wilson MP,Josh.Wilson.MP@aph.gov.au,,,,,,,,,,,,,,
WA,6164,AUBIN GROVE,Fremantle,Mr Josh Wilson MP,Josh.Wilson.MP@aph.gov.au,,,,,,,,,,,,,,
WA,6164,BANJUP,Fremantle,Mr Josh Wilson MP,Josh.Wilson.MP@aph.gov.au,,,,,,,,,,,,,,
WA,6162,BEACONSFIELD,Fremantle,Mr Josh Wilson MP,Josh.Wilson.MP@aph.gov.au,,,,,,,,,,,,,,
WA,6164,BEELIAR,Fremantle,Mr Josh Wilson MP,Josh.Wilson.MP@aph.gov.au,,,,,,,,,,,,,,
WA,6163,BIBRA LAKE,Fremantle,Mr Josh Wilson MP,Josh.Wilson.MP@aph.gov.au,,,,,,,,,,,,,,
WA,6164,COCKBURN CENTRAL,Fremantle,Mr Josh Wilson MP,Josh.Wilson.MP@aph.gov.au,,,,,,,,,,,,,,
WA,6166,COOGEE,Fremantle,Mr Josh Wilson MP,Josh.Wilson.MP@aph.gov.au,,,,,,,,,,,,,,
WA,6163,COOLBELLUP,Fremantle,Mr Josh Wilson MP,Josh.Wilson.MP@aph.gov.au,,,,,,,,,,,,,,
WA,6158,EAST FREMANTLE,Fremantle,Mr Josh Wilson MP,Josh.Wilson.MP@aph.gov.au,,,,,,,,,,,,,,
WA,6160,FREMANTLE,Fremantle,Mr Josh Wilson MP,Josh.Wilson.MP@aph.gov.au,,,,,,,,,,,,,,
WA,6163,HAMILTON HILL,Fremantle,Mr Josh Wilson MP,Josh.Wilson.MP@aph.gov.au,,,,,,,,,,,,,,
WA,6164,HAMMOND PARK,Fremantle,Mr Josh Wilson MP,Josh.Wilson.MP@aph.gov.au,,,,,,,,,,,,,,
WA,6166,HENDERSON,Fremantle,Mr Josh Wilson MP,Josh.Wilson.MP@aph.gov.au,,,,,,,,,,,,,,
WA,6163,HILTON,Fremantle,Mr Josh Wilson MP,Josh.Wilson.MP@aph.gov.au,,,,,,,,,,,,,,
WA,6164,JANDAKOT,Fremantle,Mr Josh Wilson MP,Josh.Wilson.MP@aph.gov.au,,,,,,,,,,,,,,
WA,6163,KARDINYA,Fremantle,Mr Josh Wilson MP,Josh.Wilson.MP@aph.gov.au,,,,,,,,,,,,,,
WA,6166,LAKE COOGEE,Fremantle,Mr Josh Wilson MP,Josh.Wilson.MP@aph.gov.au,,,,,,,,,,,,,,
WA,6166,MUNSTER,Fremantle,Mr Josh Wilson MP,Josh.Wilson.MP@aph.gov.au,,,,,,,,,,,,,,
WA,6163,NORTH COOGEE,Fremantle,Mr Josh Wilson MP,Josh.Wilson.MP@aph.gov.au,,,,,,,,,,,,,,
WA,6159,NORTH FREMANTLE,Fremantle,Mr Josh Wilson MP,Josh.Wilson.MP@aph.gov.au,,,,,,,,,,,,,,
WA,6163,NORTH LAKE,Fremantle,Mr Josh Wilson MP,Josh.Wilson.MP@aph.gov.au,,,,,,,,,,,,,,
WA,6163,O'CONNOR,Fremantle,Mr Josh Wilson MP,Josh.Wilson.MP@aph.gov.au,,,,,,,,,,,,,,
WA,6157,PALMYRA,Fremantle,Mr Josh Wilson MP,Josh.Wilson.MP@aph.gov.au,,,,,,,,,,,,,,
WA,6161,ROTTNEST ISLAND,Fremantle,Mr Josh Wilson MP,Josh.Wilson.MP@aph.gov.au,,,,,,,,,,,,,,
WA,6163,SAMSON,Fremantle,Mr Josh Wilson MP,Josh.Wilson.MP@aph.gov.au,,,,,,,,,,,,,,
WA,6162,SOUTH FREMANTLE,Fremantle,Mr Josh Wilson MP,Josh.Wilson.MP@aph.gov.au,,,,,,,,,,,,,,
WA,6164,SOUTH LAKE,Fremantle,Mr Josh Wilson MP,Josh.Wilson.MP@aph.gov.au,,,,,,,,,,,,,,
WA,6163,SPEARWOOD,Fremantle,Mr Josh Wilson MP,Josh.Wilson.MP@aph.gov.au,,,,,,,,,,,,,,
WA,6164,SUCCESS,Fremantle,Mr Josh Wilson MP,Josh.Wilson.MP@aph.gov.au,,,,,,,,,,,,,,
WA,6164,TREEBY,Fremantle,Mr Josh Wilson MP,Josh.Wilson.MP@aph.gov.au,,,,,,,,,,,,,,
WA,6166,WATTLEUP,Fremantle,Mr Josh Wilson MP,Josh.Wilson.MP@aph.gov.au,,,,,,,,,,,,,,
WA,6162,WHITE GUM VALLEY,Fremantle,Mr Josh Wilson MP,Josh.Wilson.MP@aph.gov.au,,,,,,,,,,,,,,
WA,6164,YANGEBUP,Fremantle,Mr Josh Wilson MP,Josh.Wilson.MP@aph.gov.au,,,,,,,,,,,,,,
WA,6069,AVELEY,Hasluk,Ms Tania Lawrence MP,Tania.Lawrence.MP@aph.gov.au,,,,,,,,,,,,,,
WA,6082,BAILUP,Hasluk,Ms Tania Lawrence MP,Tania.Lawrence.MP@aph.gov.au,,,,,,,,,,,,,,
WA,6056,BASKERVILLE,Hasluk,Ms Tania Lawrence MP,Tania.Lawrence.MP@aph.gov.au,,,,,,,,,,,,,,
WA,6556,BEECHINA,Hasluk,Ms Tania Lawrence MP,Tania.Lawrence.MP@aph.gov.au,,,,,,,,,,,,,,
WA,6069,BELHUS,Hasluk,Ms Tania Lawrence MP,Tania.Lawrence.MP@aph.gov.au,,,,,,,,,,,,,,
WA,6056,BELLEVUE,Hasluk,Ms Tania Lawrence MP,Tania.Lawrence.MP@aph.gov.au,,,,,,,,,,,,,,
WA,6063,BENNETT SPRINGS,Hasluk,Ms Tania Lawrence MP,Tania.Lawrence.MP@aph.gov.au,,,,,,,,,,,,,,
WA,6076,BICKLEY,Hasluk,Ms Tania Lawrence MP,Tania.Lawrence.MP@aph.gov.au,,,,,,,,,,,,,,
WA,6056,BOYA,Hasluk,Ms Tania Lawrence MP,Tania.Lawrence.MP@aph.gov.au,,,,,,,,,,,,,,
WA,6055,BRABHAM,Hasluk,Ms Tania Lawrence MP,Tania.Lawrence.MP@aph.gov.au,,,,,,,,,,,,,,
WA,6069,BRIGADOON,Hasluk,Ms Tania Lawrence MP,Tania.Lawrence.MP@aph.gov.au,,,,,,,,,,,,,,
WA,6055,BUSHMEAD,Hasluk,Ms Tania Lawrence MP,Tania.Lawrence.MP@aph.gov.au,,,,,,,,,,,,,,
WA,6055,CAVERSHAM,Hasluk,Ms Tania Lawrence MP,Tania.Lawrence.MP@aph.gov.au,,,,,,,,,,,,,,
WA,6556,CHIDLOW,Hasluk,Ms Tania Lawrence MP,Tania.Lawrence.MP@aph.gov.au,,,,,,,,,,,,,,
WA,6070,DARLINGTON,Hasluk,Ms Tania Lawrence MP,Tania.Lawrence.MP@aph.gov.au,,,,,,,,,,,,,,
WA,6055,DAYTON,Hasluk,Ms Tania Lawrence MP,Tania.Lawrence.MP@aph.gov.au,,,,,,,,,,,,,,
WA,6069,ELLENBROOK,Hasluk,Ms Tania Lawrence MP,Tania.Lawrence.MP@aph.gov.au,,,,,,,,,,,,,,
WA,6083,GIDGEGANNUP,Hasluk,Ms Tania Lawrence MP,Tania.Lawrence.MP@aph.gov.au,,,,,,,,,,,,,,
WA,6071,GLEN FORREST,Hasluk,Ms Tania Lawrence MP,Tania.Lawrence.MP@aph.gov.au,,,,,,,,,,,,,,
WA,6076,GOOSEBERRY HILL,Hasluk,Ms Tania Lawrence MP,Tania.Lawrence.MP@aph.gov.au,,,,,,,,,,,,,,
WA,6556,GORRIE,Hasluk,Ms Tania Lawrence MP,Tania.Lawrence.MP@aph.gov.au,,,,,,,,,,,,,,
WA,6056,GREENMOUNT,Hasluk,Ms Tania Lawrence MP,Tania.Lawrence.MP@aph.gov.au,,,,,,,,,,,,,,
WA,6055,GUILDFORD,Hasluk,Ms Tania Lawrence MP,Tania.Lawrence.MP@aph.gov.au,,,,,,,,,,,,,,
WA,6076,HACKETTS GULLY,Hasluk,Ms Tania Lawrence MP,Tania.Lawrence.MP@aph.gov.au,,,,,,,,,,,,,,
WA,6055,HAZELMERE,Hasluk,Ms Tania Lawrence MP,Tania.Lawrence.MP@aph.gov.au,,,,,,,,,,,,,,
WA,6056,HELENA VALLEY,Hasluk,Ms Tania Lawrence MP,Tania.Lawrence.MP@aph.gov.au,,,,,,,,,,,,,,
WA,6055,HENLEY BROOK,Hasluk,Ms Tania Lawrence MP,Tania.Lawrence.MP@aph.gov.au,,,,,,,,,,,,,,
WA,6056,HERNE HILL,Hasluk,Ms Tania Lawrence MP,Tania.Lawrence.MP@aph.gov.au,,,,,,,,,,,,,,
WA,6071,HOVEA,Hasluk,Ms Tania Lawrence MP,Tania.Lawrence.MP@aph.gov.au,,,,,,,,,,,,,,
WA,6056,JANE BROOK,Hasluk,Ms Tania Lawrence MP,Tania.Lawrence.MP@aph.gov.au,,,,,,,,,,,,,,
WA,6076,KALAMUNDA,Hasluk,Ms Tania Lawrence MP,Tania.Lawrence.MP@aph.gov.au,,,,,,,,,,,,,,
WA,6056,KOONGAMIA,Hasluk,Ms Tania Lawrence MP,Tania.Lawrence.MP@aph.gov.au,,,,,,,,,,,,,,
WA,6076,LESMURDIE,Hasluk,Ms Tania Lawrence MP,Tania.Lawrence.MP@aph.gov.au,,,,,,,,,,,,,,
WA,6072,MAHOGANY CREEK,Hasluk,Ms Tania Lawrence MP,Tania.Lawrence.MP@aph.gov.au,,,,,,,,,,,,,,
WA,6556,MALMALLING,Hasluk,Ms Tania Lawrence MP,Tania.Lawrence.MP@aph.gov.au,,,,,,,,,,,,,,
WA,6056,MIDDLE SWAN,Hasluk,Ms Tania Lawrence MP,Tania.Lawrence.MP@aph.gov.au,,,,,,,,,,,,,,
WA,6056,MIDLAND,Hasluk,Ms Tania Lawrence MP,Tania.Lawrence.MP@aph.gov.au,,,,,,,,,,,,,,
WA,6056,MIDVALE,Hasluk,Ms Tania Lawrence MP,Tania.Lawrence.MP@aph.gov.au,,,,,,,,,,,,,,
WA,6056,MILLENDON,Hasluk,Ms Tania Lawrence MP,Tania.Lawrence.MP@aph.gov.au,,,,,,,,,,,,,,
WA,6082,MT HELENA,Hasluk,Ms Tania Lawrence MP,Tania.Lawrence.MP@aph.gov.au,,,,,,,,,,,,,,
WA,6073,MUNDARING,Hasluk,Ms Tania Lawrence MP,Tania.Lawrence.MP@aph.gov.au,,,,,,,,,,,,,,
WA,6081,PARKERVILLE,Hasluk,Ms Tania Lawrence MP,Tania.Lawrence.MP@aph.gov.au,,,,,,,,,,,,,,
WA,6076,PAULLS VALLEY,Hasluk,Ms Tania Lawrence MP,Tania.Lawrence.MP@aph.gov.au,,,,,,,,,,,,,,
WA,6076,PIESSE BROOK,Hasluk,Ms Tania Lawrence MP,Tania.Lawrence.MP@aph.gov.au,,,,,,,,,,,,,,
WA,6056,RED HILL,Hasluk,Ms Tania Lawrence MP,Tania.Lawrence.MP@aph.gov.au,,,,,,,,,,,,,,
WA,6076,RESERVOIR,Hasluk,Ms Tania Lawrence MP,Tania.Lawrence.MP@aph.gov.au,,,,,,,,,,,,,,
WA,6074,SAWYERS VALLEY,Hasluk,Ms Tania Lawrence MP,Tania.Lawrence.MP@aph.gov.au,,,,,,,,,,,,,,
WA,6055,SOUTH GUILDFORD,Hasluk,Ms Tania Lawrence MP,Tania.Lawrence.MP@aph.gov.au,,,,,,,,,,,,,,
WA,6081,STONEVILLE,Hasluk,Ms Tania Lawrence MP,Tania.Lawrence.MP@aph.gov.au,,,,,,,,,,,,,,
WA,6056,STRATTON,Hasluk,Ms Tania Lawrence MP,Tania.Lawrence.MP@aph.gov.au,,,,,,,,,,,,,,
WA,6056,SWAN VIEW,Hasluk,Ms Tania Lawrence MP,Tania.Lawrence.MP@aph.gov.au,,,,,,,,,,,,,,
WA,6556,THE LAKES,Hasluk,Ms Tania Lawrence MP,Tania.Lawrence.MP@aph.gov.au,,,,,,,,,,,,,,
WA,6069,THE VINES,Hasluk,Ms Tania Lawrence MP,Tania.Lawrence.MP@aph.gov.au,,,,,,,,,,,,,,
WA,6069,UPPER SWAN,Hasluk,Ms Tania Lawrence MP,Tania.Lawrence.MP@aph.gov.au,,,,,,,,,,,,,,
WA,6056,VIVEASH,Hasluk,Ms Tania Lawrence MP,Tania.Lawrence.MP@aph.gov.au,,,,,,,,,,,,,,
WA,6076,WALLISTON,Hasluk,Ms Tania Lawrence MP,Tania.Lawrence.MP@aph.gov.au,,,,,,,,,,,,,,
WA,6055,WEST SWAN,Hasluk,Ms Tania Lawrence MP,Tania.Lawrence.MP@aph.gov.au,,,,,,,,,,,,,,
WA,6068,WHITEMAN,Hasluk,Ms Tania Lawrence MP,Tania.Lawrence.MP@aph.gov.au,,,,,,,,,,,,,,
WA,6056,WOODBRIDGE,Hasluk,Ms Tania Lawrence MP,Tania.Lawrence.MP@aph.gov.au,,,,,,,,,,,,,,
WA,6558,WOOROLOO,Hasluk,Ms Tania Lawrence MP,Tania.Lawrence.MP@aph.gov.au,,,,,,,,,,,,,,
WA,6027,BELDON,Moore,Mr Ian Goodenough MP,Ian.Goodenough.MP@aph.gov.au,,,,,,,,,,,,,,
WA,6028,BURNS BEACH,Moore,Mr Ian Goodenough MP,Ian.Goodenough.MP@aph.gov.au,,,,,,,,,,,,,,
WA,6020,CARINE,Moore,Mr Ian Goodenough MP,Ian.Goodenough.MP@aph.gov.au,,,,,,,,,,,,,,
WA,6027,CONNOLLY,Moore,Mr Ian Goodenough MP,Ian.Goodenough.MP@aph.gov.au,,,,,,,,,,,,,,
WA,6025,CRAIGIE,Moore,Mr Ian Goodenough MP,Ian.Goodenough.MP@aph.gov.au,,,,,,,,,,,,,,
WA,6028,CURRAMBINE,Moore,Mr Ian Goodenough MP,Ian.Goodenough.MP@aph.gov.au,,,,,,,,,,,,,,
WA,6023,DUNCRAIG,Moore,Mr Ian Goodenough MP,Ian.Goodenough.MP@aph.gov.au,,,,,,,,,,,,,,
WA,6027,EDGEWATER,Moore,Mr Ian Goodenough MP,Ian.Goodenough.MP@aph.gov.au,,,,,,,,,,,,,,
WA,6018,GWELUP,Moore,Mr Ian Goodenough MP,Ian.Goodenough.MP@aph.gov.au,,,,,,,,,,,,,,
WA,6027,HEATHRIDGE,Moore,Mr Ian Goodenough MP,Ian.Goodenough.MP@aph.gov.au,,,,,,,,,,,,,,
WA,6025,HILLARYS,Moore,Mr Ian Goodenough MP,Ian.Goodenough.MP@aph.gov.au,,,,,,,,,,,,,,
WA,6028,ILUKA,Moore,Mr Ian Goodenough MP,Ian.Goodenough.MP@aph.gov.au,,,,,,,,,,,,,,
WA,6027,JOONDALUP,Moore,Mr Ian Goodenough MP,Ian.Goodenough.MP@aph.gov.au,,,,,,,,,,,,,,
WA,6025,KALLAROO,Moore,Mr Ian Goodenough MP,Ian.Goodenough.MP@aph.gov.au,,,,,,,,,,,,,,
WA,6018,KARRINYUP,Moore,Mr Ian Goodenough MP,Ian.Goodenough.MP@aph.gov.au,,,,,,,,,,,,,,
WA,6026,KINGSLEY,Moore,Mr Ian Goodenough MP,Ian.Goodenough.MP@aph.gov.au,,,,,,,,,,,,,,
WA,6028,KINROSS,Moore,Mr Ian Goodenough MP,Ian.Goodenough.MP@aph.gov.au,,,,,,,,,,,,,,
WA,6020,MARMION,Moore,Mr Ian Goodenough MP,Ian.Goodenough.MP@aph.gov.au,,,,,,,,,,,,,,
WA,6027,MULLALOO,Moore,Mr Ian Goodenough MP,Ian.Goodenough.MP@aph.gov.au,,,,,,,,,,,,,,
WA,6020,NORTH BEACH,Moore,Mr Ian Goodenough MP,Ian.Goodenough.MP@aph.gov.au,,,,,,,,,,,,,,
WA,6027,OCEAN REEF,Moore,Mr Ian Goodenough MP,Ian.Goodenough.MP@aph.gov.au,,,,,,,,,,,,,,
WA,6025,PADBURY,Moore,Mr Ian Goodenough MP,Ian.Goodenough.MP@aph.gov.au,,,,,,,,,,,,,,
WA,6020,SORRENTO,Moore,Mr Ian Goodenough MP,Ian.Goodenough.MP@aph.gov.au,,,,,,,,,,,,,,
WA,6029,TRIGG,Moore,Mr Ian Goodenough MP,Ian.Goodenough.MP@aph.gov.au,,,,,,,,,,,,,,
WA,6020,WATERMANS BAY,Moore,Mr Ian Goodenough MP,Ian.Goodenough.MP@aph.gov.au,,,,,,,,,,,,,,
WA,6026,WOODVALE,Moore,Mr Ian Goodenough MP,Ian.Goodenough.MP@aph.gov.au,,,,,,,,,,,,,,
WA,6038,ALKIMOS,Pearce,Ms Tracey Roberts MP,Tracey.Roberts.MP@aph.gov.au,,,,,,,,,,,,,,
WA,6065,ASHBY,Pearce,Ms Tracey Roberts MP,Tracey.Roberts.MP@aph.gov.au,,,,,,,,,,,,,,
WA,6066,BALLAJURA,Pearce,Ms Tracey Roberts MP,Tracey.Roberts.MP@aph.gov.au,,,,,,,,,,,,,,
WA,6031,BANKSIA GROVE,Pearce,Ms Tracey Roberts MP,Tracey.Roberts.MP@aph.gov.au,,,,,,,,,,,,,,
WA,6036,BUTLER,Pearce,Ms Tracey Roberts MP,Tracey.Roberts.MP@aph.gov.au,,,,,,,,,,,,,,
WA,6033,CARABOODA,Pearce,Ms Tracey Roberts MP,Tracey.Roberts.MP@aph.gov.au,,,,,,,,,,,,,,
WA,6031,CARRAMAR,Pearce,Ms Tracey Roberts MP,Tracey.Roberts.MP@aph.gov.au,,,,,,,,,,,,,,
WA,6030,CLARKSON,Pearce,Ms Tracey Roberts MP,Tracey.Roberts.MP@aph.gov.au,,,,,,,,,,,,,,
WA,6067,CULLACABARDEE,Pearce,Ms Tracey Roberts MP,Tracey.Roberts.MP@aph.gov.au,,,,,,,,,,,,,,
WA,6065,DARCH,Pearce,Ms Tracey Roberts MP,Tracey.Roberts.MP@aph.gov.au,,,,,,,,,,,,,,
WA,6034,EGLINTON,Pearce,Ms Tracey Roberts MP,Tracey.Roberts.MP@aph.gov.au,,,,,,,,,,,,,,
WA,6077,GNANGARA,Pearce,Ms Tracey Roberts MP,Tracey.Roberts.MP@aph.gov.au,,,,,,,,,,,,,,
WA,6065,HOCKING,Pearce,Ms Tracey Roberts MP,Tracey.Roberts.MP@aph.gov.au,,,,,,,,,,,,,,
WA,6077,JANDABUP,Pearce,Ms Tracey Roberts MP,Tracey.Roberts.MP@aph.gov.au,,,,,,,,,,,,,,
WA,6036,JINDALEE,Pearce,Ms Tracey Roberts MP,Tracey.Roberts.MP@aph.gov.au,,,,,,,,,,,,,,
WA,6065,LANDSDALE,Pearce,Ms Tracey Roberts MP,Tracey.Roberts.MP@aph.gov.au,,,,,,,,,,,,,,
WA,6079,LEXIA,Pearce,Ms Tracey Roberts MP,Tracey.Roberts.MP@aph.gov.au,,,,,,,,,,,,,,
WA,6065,MADELEY,Pearce,Ms Tracey Roberts MP,Tracey.Roberts.MP@aph.gov.au,,,,,,,,,,,,,,
WA,6078,MARIGINIUP,Pearce,Ms Tracey Roberts MP,Tracey.Roberts.MP@aph.gov.au,,,,,,,,,,,,,,
WA,6079,MELALEUCA,Pearce,Ms Tracey Roberts MP,Tracey.Roberts.MP@aph.gov.au,,,,,,,,,,,,,,
WA,6030,MERRIWA,Pearce,Ms Tracey Roberts MP,Tracey.Roberts.MP@aph.gov.au,,,,,,,,,,,,,,
WA,6030,MINDARIE,Pearce,Ms Tracey Roberts MP,Tracey.Roberts.MP@aph.gov.au,,,,,,,,,,,,,,
WA,6031,NEERABUP,Pearce,Ms Tracey Roberts MP,Tracey.Roberts.MP@aph.gov.au,,,,,,,,,,,,,,
WA,6032,NOWERGUP,Pearce,Ms Tracey Roberts MP,Tracey.Roberts.MP@aph.gov.au,,,,,,,,,,,,,,
WA,6065,PEARSALL,Pearce,Ms Tracey Roberts MP,Tracey.Roberts.MP@aph.gov.au,,,,,,,,,,,,,,
WA,6078,PINJAR,Pearce,Ms Tracey Roberts MP,Tracey.Roberts.MP@aph.gov.au,,,,,,,,,,,,,,
WA,6030,QUINNS ROCKS,Pearce,Ms Tracey Roberts MP,Tracey.Roberts.MP@aph.gov.au,,,,,,,,,,,,,,
WA,6030,RIDGEWOOD,Pearce,Ms Tracey Roberts MP,Tracey.Roberts.MP@aph.gov.au,,,,,,,,,,,,,,
WA,6065,SINAGRA,Pearce,Ms Tracey Roberts MP,Tracey.Roberts.MP@aph.gov.au,,,,,,,,,,,,,,
WA,6030,TAMALA PARK,Pearce,Ms Tracey Roberts MP,Tracey.Roberts.MP@aph.gov.au,,,,,,,,,,,,,,
WA,6065,TAPPING,Pearce,Ms Tracey Roberts MP,Tracey.Roberts.MP@aph.gov.au,,,,,,,,,,,,,,
WA,6037,TWO ROCKS,Pearce,Ms Tracey Roberts MP,Tracey.Roberts.MP@aph.gov.au,,,,,,,,,,,,,,
WA,6065,WANGARA,Pearce,Ms Tracey Roberts MP,Tracey.Roberts.MP@aph.gov.au,,,,,,,,,,,,,,
WA,6065,WANNEROO,Pearce,Ms Tracey Roberts MP,Tracey.Roberts.MP@aph.gov.au,,,,,,,,,,,,,,
WA,6035,YANCHEP,Pearce,Ms Tracey Roberts MP,Tracey.Roberts.MP@aph.gov.au,,,,,,,,,,,,,,
WA,6054,ASHFIELD,Perth,Hon Patrick Gorman MP,Patrick.Gorman.MP@aph.gov.au,,,,,,,,,,,,,,
WA,6054,BASSENDEAN,Perth,Hon Patrick Gorman MP,Patrick.Gorman.MP@aph.gov.au,,,,,,,,,,,,,,
WA,6053,BAYSWATER,Perth,Hon Patrick Gorman MP,Patrick.Gorman.MP@aph.gov.au,,,,,,,,,,,,,,
WA,6052,BEDFORD,Perth,Hon Patrick Gorman MP,Patrick.Gorman.MP@aph.gov.au,,,,,,,,,,,,,,
WA,6050,COOLBINIA,Perth,Hon Patrick Gorman MP,Patrick.Gorman.MP@aph.gov.au,,,,,,,,,,,,,,
WA,6059,DIANELLA,Perth,Hon Patrick Gorman MP,Patrick.Gorman.MP@aph.gov.au,,,,,,,,,,,,,,
WA,6059,DIANELLA HEIGHTS,Perth,Hon Patrick Gorman MP,Patrick.Gorman.MP@aph.gov.au,,,,,,,,,,,,,,
WA,6004,EAST PERTH,Perth,Hon Patrick Gorman MP,Patrick.Gorman.MP@aph.gov.au,,,,,,,,,,,,,,
WA,6054,EDEN HILL,Perth,Hon Patrick Gorman MP,Patrick.Gorman.MP@aph.gov.au,,,,,,,,,,,,,,
WA,6062,EMBLETON,Perth,Hon Patrick Gorman MP,Patrick.Gorman.MP@aph.gov.au,,,,,,,,,,,,,,
WA,6003,HIGHGATE,Perth,Hon Patrick Gorman MP,Patrick.Gorman.MP@aph.gov.au,,,,,,,,,,,,,,
WA,6052,INGLEWOOD,Perth,Hon Patrick Gorman MP,Patrick.Gorman.MP@aph.gov.au,,,,,,,,,,,,,,
WA,6060,JOONDANNA,Perth,Hon Patrick Gorman MP,Patrick.Gorman.MP@aph.gov.au,,,,,,,,,,,,,,
WA,6005,KINGS PARK,Perth,Hon Patrick Gorman MP,Patrick.Gorman.MP@aph.gov.au,,,,,,,,,,,,,,
WA,6007,LEEDERVILLE,Perth,Hon Patrick Gorman MP,Patrick.Gorman.MP@aph.gov.au,,,,,,,,,,,,,,
WA,6051,MAYLANDS,Perth,Hon Patrick Gorman MP,Patrick.Gorman.MP@aph.gov.au,,,,,,,,,,,,,,
WA,6050,MENORA,Perth,Hon Patrick Gorman MP,Patrick.Gorman.MP@aph.gov.au,,,,,,,,,,,,,,
WA,6062,MORLEY,Perth,Hon Patrick Gorman MP,Patrick.Gorman.MP@aph.gov.au,,,,,,,,,,,,,,
WA,6016,MT HAWTHORN,Perth,Hon Patrick Gorman MP,Patrick.Gorman.MP@aph.gov.au,,,,,,,,,,,,,,
WA,6050,MT LAWLEY,Perth,Hon Patrick Gorman MP,Patrick.Gorman.MP@aph.gov.au,,,,,,,,,,,,,,
WA,6006,NORTH PERTH,Perth,Hon Patrick Gorman MP,Patrick.Gorman.MP@aph.gov.au,,,,,,,,,,,,,,
WA,6003,NORTHBRIDGE,Perth,Hon Patrick Gorman MP,Patrick.Gorman.MP@aph.gov.au,,,,,,,,,,,,,,
WA,6017,OSBORNE PARK,Perth,Hon Patrick Gorman MP,Patrick.Gorman.MP@aph.gov.au,,,,,,,,,,,,,,
WA,6000,PERTH,Perth,Hon Patrick Gorman MP,Patrick.Gorman.MP@aph.gov.au,,,,,,,,,,,,,,
WA,6060,TUART HILL,Perth,Hon Patrick Gorman MP,Patrick.Gorman.MP@aph.gov.au,,,,,,,,,,,,,,
WA,6005,WEST PERTH,Perth,Hon Patrick Gorman MP,Patrick.Gorman.MP@aph.gov.au,,,,,,,,,,,,,,
WA,6060,YOKINE,Perth,Hon Patrick Gorman MP,Patrick.Gorman.MP@aph.gov.au,,,,,,,,,,,,,,
WA,6104,ASCOT,Swan,Ms Zaneta Mascarenhas MP,zaneta.mascarenhas.mp@aph.gov.au,,,,,,,,,,,,,,
WA,6104,BELMONT,Swan,Ms Zaneta Mascarenhas MP,zaneta.mascarenhas.mp@aph.gov.au,,,,,,,,,,,,,,
WA,6102,BENTLEY,Swan,Ms Zaneta Mascarenhas MP,zaneta.mascarenhas.mp@aph.gov.au,,,,,,,,,,,,,,
WA,6100,BURSWOOD,Swan,Ms Zaneta Mascarenhas MP,zaneta.mascarenhas.mp@aph.gov.au,,,,,,,,,,,,,,
WA,6107,CANNINGTON,Swan,Ms Zaneta Mascarenhas MP,zaneta.mascarenhas.mp@aph.gov.au,,,,,,,,,,,,,,
WA,6101,CARLISLE,Swan,Ms Zaneta Mascarenhas MP,zaneta.mascarenhas.mp@aph.gov.au,,,,,,,,,,,,,,
WA,6105,CLOVERDALE,Swan,Ms Zaneta Mascarenhas MP,zaneta.mascarenhas.mp@aph.gov.au,,,,,,,,,,,,,,
WA,6152,COMO,Swan,Ms Zaneta Mascarenhas MP,zaneta.mascarenhas.mp@aph.gov.au,,,,,,,,,,,,,,
WA,6107,EAST CANNINGTON,Swan,Ms Zaneta Mascarenhas MP,zaneta.mascarenhas.mp@aph.gov.au,,,,,,,,,,,,,,
WA,6101,EAST VICTORIA PARK,Swan,Ms Zaneta Mascarenhas MP,zaneta.mascarenhas.mp@aph.gov.au,,,,,,,,,,,,,,
WA,6058,FORRESTFIELD,Swan,Ms Zaneta Mascarenhas MP,zaneta.mascarenhas.mp@aph.gov.au,,,,,,,,,,,,,,
WA,6057,HIGH WYCOMBE,Swan,Ms Zaneta Mascarenhas MP,zaneta.mascarenhas.mp@aph.gov.au,,,,,,,,,,,,,,
WA,6152,KARAWARA,Swan,Ms Zaneta Mascarenhas MP,zaneta.mascarenhas.mp@aph.gov.au,,,,,,,,,,,,,,
WA,6151,KENSINGTON,Swan,Ms Zaneta Mascarenhas MP,zaneta.mascarenhas.mp@aph.gov.au,,,,,,,,,,,,,,
WA,6105,KEWDALE,Swan,Ms Zaneta Mascarenhas MP,zaneta.mascarenhas.mp@aph.gov.au,,,,,,,,,,,,,,
WA,6100,LATHLAIN,Swan,Ms Zaneta Mascarenhas MP,zaneta.mascarenhas.mp@aph.gov.au,,,,,,,,,,,,,,
WA,6057,MAIDA VALE,Swan,Ms Zaneta Mascarenhas MP,zaneta.mascarenhas.mp@aph.gov.au,,,,,,,,,,,,,,
WA,6152,MANNING,Swan,Ms Zaneta Mascarenhas MP,zaneta.mascarenhas.mp@aph.gov.au,,,,,,,,,,,,,,
WA,6105,PERTH AIRPORT,Swan,Ms Zaneta Mascarenhas MP,zaneta.mascarenhas.mp@aph.gov.au,,,,,,,,,,,,,,
WA,6107,QUEENS PARK,Swan,Ms Zaneta Mascarenhas MP,zaneta.mascarenhas.mp@aph.gov.au,,,,,,,,,,,,,,
WA,6104,REDCLIFFE,Swan,Ms Zaneta Mascarenhas MP,zaneta.mascarenhas.mp@aph.gov.au,,,,,,,,,,,,,,
WA,6103,RIVERVALE,Swan,Ms Zaneta Mascarenhas MP,zaneta.mascarenhas.mp@aph.gov.au,,,,,,,,,,,,,,
WA,6152,SALTER POINT,Swan,Ms Zaneta Mascarenhas MP,zaneta.mascarenhas.mp@aph.gov.au,,,,,,,,,,,,,,
WA,6055,SOUTH GUILDFORD,Swan,Ms Zaneta Mascarenhas MP,zaneta.mascarenhas.mp@aph.gov.au,,,,,,,,,,,,,,
WA,6151,SOUTH PERTH,Swan,Ms Zaneta Mascarenhas MP,zaneta.mascarenhas.mp@aph.gov.au,,,,,,,,,,,,,,
WA,6102,ST JAMES,Swan,Ms Zaneta Mascarenhas MP,zaneta.mascarenhas.mp@aph.gov.au,,,,,,,,,,,,,,
WA,6100,VICTORIA PARK,Swan,Ms Zaneta Mascarenhas MP,zaneta.mascarenhas.mp@aph.gov.au,,,,,,,,,,,,,,
WA,6152,WATERFORD,Swan,Ms Zaneta Mascarenhas MP,zaneta.mascarenhas.mp@aph.gov.au,,,,,,,,,,,,,,
WA,6107,WATTLE GROVE,Swan,Ms Zaneta Mascarenhas MP,zaneta.mascarenhas.mp@aph.gov.au,,,,,,,,,,,,,,
WA,6106,WELSHPOOL,Swan,Ms Zaneta Mascarenhas MP,zaneta.mascarenhas.mp@aph.gov.au,,,,,,,,,,,,,,
WA,6154,ALFRED COVE,Tagney,Mr Sam Lim MP,Sam.Lim.MP@aph.gov.au,,,,,,,,,,,,,,
WA,6153,APPLECROSS,Tagney,Mr Sam Lim MP,Sam.Lim.MP@aph.gov.au,,,,,,,,,,,,,,
WA,6153,ARDROSS,Tagney,Mr Sam Lim MP,Sam.Lim.MP@aph.gov.au,,,,,,,,,,,,,,
WA,6156,ATTADALE,Tagney,Mr Sam Lim MP,Sam.Lim.MP@aph.gov.au,,,,,,,,,,,,,,
WA,6150,BATEMAN,Tagney,Mr Sam Lim MP,Sam.Lim.MP@aph.gov.au,,,,,,,,,,,,,,
WA,6157,BICTON,Tagney,Mr Sam Lim MP,Sam.Lim.MP@aph.gov.au,,,,,,,,,,,,,,
WA,6154,BOORAGOON,Tagney,Mr Sam Lim MP,Sam.Lim.MP@aph.gov.au,,,,,,,,,,,,,,
WA,6153,BRENTWOOD,Tagney,Mr Sam Lim MP,Sam.Lim.MP@aph.gov.au,,,,,,,,,,,,,,
WA,6149,BULL CREEK,Tagney,Mr Sam Lim MP,Sam.Lim.MP@aph.gov.au,,,,,,,,,,,,,,
WA,6155,BURRENDAH,Tagney,Mr Sam Lim MP,Sam.Lim.MP@aph.gov.au,,,,,,,,,,,,,,
WA,6153,CANNING BRIDGE,Tagney,Mr Sam Lim MP,Sam.Lim.MP@aph.gov.au,,,,,,,,,,,,,,
WA,6155,CANNING VALE,Tagney,Mr Sam Lim MP,Sam.Lim.MP@aph.gov.au,,,,,,,,,,,,,,
WA,6148,FERNDALE,Tagney,Mr Sam Lim MP,Sam.Lim.MP@aph.gov.au,,,,,,,,,,,,,,
WA,6163,KARDINYA,Tagney,Mr Sam Lim MP,Sam.Lim.MP@aph.gov.au,,,,,,,,,,,,,,
WA,6149,LEEMING,Tagney,Mr Sam Lim MP,Sam.Lim.MP@aph.gov.au,,,,,,,,,,,,,,
WA,6147,LYNWOOD,Tagney,Mr Sam Lim MP,Sam.Lim.MP@aph.gov.au,,,,,,,,,,,,,,
WA,6156,MELVILLE,Tagney,Mr Sam Lim MP,Sam.Lim.MP@aph.gov.au,,,,,,,,,,,,,,
WA,6153,MT PLEASANT,Tagney,Mr Sam Lim MP,Sam.Lim.MP@aph.gov.au,,,,,,,,,,,,,,
WA,6150,MURDOCH,Tagney,Mr Sam Lim MP,Sam.Lim.MP@aph.gov.au,,,,,,,,,,,,,,
WA,6154,MYAREE,Tagney,Mr Sam Lim MP,Sam.Lim.MP@aph.gov.au,,,,,,,,,,,,,,
WA,6147,PARKWOOD,Tagney,Mr Sam Lim MP,Sam.Lim.MP@aph.gov.au,,,,,,,,,,,,,,
WA,6148,RIVERTON,Tagney,Mr Sam Lim MP,Sam.Lim.MP@aph.gov.au,,,,,,,,,,,,,,
WA,6148,ROSSMOYNE,Tagney,Mr Sam Lim MP,Sam.Lim.MP@aph.gov.au,,,,,,,,,,,,,,
WA,6155,ROSTRATA,Tagney,Mr Sam Lim MP,Sam.Lim.MP@aph.gov.au,,,,,,,,,,,,,,
WA,6148,SHELLEY,Tagney,Mr Sam Lim MP,Sam.Lim.MP@aph.gov.au,,,,,,,,,,,,,,
WA,6156,WILLAGEE,Tagney,Mr Sam Lim MP,Sam.Lim.MP@aph.gov.au,,,,,,,,,,,,,,
WA,6155,WILLETTON,Tagney,Mr Sam Lim MP,Sam.Lim.MP@aph.gov.au,,,,,,,,,,,,,,
WA,6107,WILSON,Tagney,Mr Sam Lim MP,Sam.Lim.MP@aph.gov.au,,,,,,,,,,,,,,
WA,6150,WINTHROP,Tagney,Mr Sam Lim MP,Sam.Lim.MP@aph.gov.au,,,,,,,,,,,,,,
,,,,,,,,,,,,,,,,,,,
,,,,,,,,,,,,,,,,,,,
,,,,,,,,,,,,,,,,,,,
,,,,,,,,,,,,,,,,,,,
,,,,,,,,,,,,,,,,,,,
,,,,,,,,,,,,,,,,,,,
,,,,,,,,,,,,,,,,,,,
,,,,,,,,,,,,,,,,,,,
,,,,,,,,,,,,,,,,,,,
,,,,,,,,,,,,,,,,,,,
,,,,,,,,,,,,,,,,,,,
,,,,,,,,,,,,,,,,,,,
,,,,,,,,,,,,,,,,,,,
,,,,,,,,,,,,,,,,,,,
,,,,,,,,,,,,,,,,,,,
,,,,,,,,,,,,,,,,,,,
,,,,,,,,,,,,,,,,,,,
,,,,,,,,,,,,,,,,,,,
,,,,,,,,,,,,,,,,,,,
,,,,,,,,,,,,,,,,,,,
,,,,,,,,,,,,,,,,,,,
,,,,,,,,,,,,,,,,,,,
,,,,,,,,,,,,,,,,,,,
,,,,,,,,,,,,,,,,,,,
,,,,,,,,,,,,,,,,,,,
,,,,,,,,,,,,,,,,,,,
,,,,,,,,,,,,,,,,,,,